Name,Address,City,Zip,COUNTY,LONGLAT,USNG,OWNERSHIP,PARCELID,FACILITY_TYPE,x,y
CO A 146th ESB,505 NW 53rd Ave,Gainesville,32609,ALACHUA,"-82.33084371,29.70231953",17R LN 71255 86541,,,NATIONAL GUARD,-9165027.59807052,3465342.8970035524
HHT 1-152 CAV,164 ALABAMA AVE,PANAMA CITY,32403,BAY,"-85.58495590,30.06762532",16R FU 36392 27122,,07407-000-000,NATIONAL GUARD,-9527273.710711008,3512245.4131621397
ARMY AND AIR FORCE EXCHANGE SERVICE,640 SUWANNEE RD BLDG 916,PANAMA CITY,32403,BAY,"-85.58725071,30.06655062",16R FU 36172 27000,,07407-000-000,NATIONAL GUARD,-9527529.167225294,3512107.176272134
"SEADS, Det2",1129 FLORIDA AVE,PANAMA CITY,32403,BAY,"-85.58458984,30.06728785",16R FU 36427 27085,FEDERAL,07407-000-000,NATIONAL GUARD,-9527232.960230602,3512202.004242604
HHC 3RD BN 124TH IN,3121 N LISENBY AVE,PANAMA CITY,32405,BAY,"-85.68389160,30.20463178",16R FU 26679 42192,STATE,,NATIONAL GUARD,-9538287.182569237,3529880.5628227526
HQ 3RD BN 124TH IN,3121 N LISENBY AVE,PANAMA CITY,32405,BAY,"-85.68389160,30.20463178",16R FU 26679 42192,STATE,,NATIONAL GUARD,-9538287.182569237,3529880.5628227526
631st MAINT Co.,720 EDWARDS RD,STARKE,32091,BRADFORD,"-82.11662496,29.93805538",17R LP 92233 12445,STATE,,NATIONAL GUARD,-9141180.876332117,3495589.922908836
CO D 1ST BN 124TH IN,308 NORTH FISKE BLVD,COCOA,32922,BREVARD,"-80.74222813,28.36097557",17R NM 25259 37217,STATE,24 362900  751,NATIONAL GUARD,-8988183.720987346,3294561.2517370367
B/1-124th IN Bn,308 NORTH FISKE BLVD,COCOA,32922,BREVARD,"-80.74222813,28.36097557",17R NM 25259 37217,STATE,24 362900  751,NATIONAL GUARD,-8988183.720987346,3294561.2517370367
"BTRY A, 2ND BN, 265TH ADA",1889 STEWARD RD,MELBOURNE,32935,BREVARD,"-80.64632167,28.13800128",17R NM 34730 12540,,,NATIONAL GUARD,-8977507.462874986,3266383.7604608596
B/1-124th IN Bn,PATRICK AIR FORCE BASE,PATRICK AFB,32925,BREVARD,"-80.61007301,28.25046369",17R NM 38249 25009,,,NATIONAL GUARD,-8973472.280697638,3280588.386450723
715th MP Co,PATRICK AIR FORCE BASE,PATRICK AFB,32925,BREVARD,"-80.61007301,28.25046369",17R NM 38249 25009,,,NATIONAL GUARD,-8973472.280697638,3280588.386450723
715 MP CO,1889 STEWARD RD,MELBOURNE,32935,BREVARD,"-80.64632167,28.13800128",17R NM 34730 12540,,,NATIONAL GUARD,-8977507.462874986,3266383.7604608596
FMS #18,1300 White Dr,Titusville,32780,BREVARD,"-80.81593783,28.52832269",17R NM 18008 55743,,,NATIONAL GUARD,-8996389.047213089,3315747.96775954
114TH RANGE OPERATIONS SQUADRON,PATRICK AIR FORCE BASE,PATRICK AFB,32925,BREVARD,"-80.61007301,28.25046369",17R NM 38249 25009,,,NATIONAL GUARD,-8973472.280697638,3280588.386450723
356th QM Co,910 N DIXIE HIGHWAY,HOLLYWOOD,33020,BROWARD,"-80.14989995,26.01914041",17R NJ 85064 78080,STATE,514210010050,NATIONAL GUARD,-8922246.05010056,3001451.7588768275
"CO A, 1ST BN, 124TH IN",910 N DIXIE HIGHWAY,HOLLYWOOD,33020,BROWARD,"-80.14989995,26.01914041",17R NJ 85064 78080,STATE,514210010050,NATIONAL GUARD,-8922246.05010056,3001451.7588768275
DET 1 325TH MAINT CO,8551 W VENABLE ST,CRYSTAL RIVER,34429,CITRUS,"-82.57739722,28.86527185",17R LM 46152 94081,STATE,19E19S030010  00160 0100,NATIONAL GUARD,-9192473.809561687,3358509.3104857006
3-20th SF (HHD & Spt Co),CAMP BLANDING,STARKE,32091,CLAY,"-81.97379963,29.96128998",17R MP 06040 14894,STATE,23-06-23-000725-000-00,NATIONAL GUARD,-9125281.632751763,3498575.0008054473
708 CRC CO,CAMP BLANDING,STARKE,32091,CLAY,"-81.97379963,29.96128998",17R MP 06040 14894,STATE,23-06-23-000725-000-00,NATIONAL GUARD,-9125281.632751763,3498575.0008054473
269th EN Det,CAMP BLANDING,STARKE,32091,CLAY,"-81.97379963,29.96128998",17R MP 06040 14894,STATE,23-06-23-000725-000-00,NATIONAL GUARD,-9125281.632751763,3498575.0008054473
869th EN Co,CAMP BLANDING,STARKE,32091,CLAY,"-81.97379963,29.96128998",17R MP 06040 14894,STATE,23-06-23-000725-000-00,NATIONAL GUARD,-9125281.632751763,3498575.0008054473
221st EOD,CAMP BLANDING,STARKE,32091,CLAY,"-81.97379963,29.96128998",17R MP 06040 14894,STATE,23-06-23-000725-000-00,NATIONAL GUARD,-9125281.632751763,3498575.0008054473
44th CST,CAMP BLANDING,STARKE,32091,CLAY,"-81.97379963,29.96128998",17R MP 06040 14894,STATE,23-06-23-000725-000-00,NATIONAL GUARD,-9125281.632751763,3498575.0008054473
256th ASMC,CAMP BLANDING,STARKE,32091,CLAY,"-81.97379963,29.96128998",17R MP 06040 14894,STATE,23-06-23-000725-000-00,NATIONAL GUARD,-9125281.632751763,3498575.0008054473
MATES,CAMP BLANDING,STARKE,32091,CLAY,"-81.97379963,29.96128998",17R MP 06040 14894,STATE,23-06-23-000725-000-00,NATIONAL GUARD,-9125281.632751763,3498575.0008054473
RTS-M,CAMP BLANDING,STARKE,32091,CLAY,"-81.97379963,29.96128998",17R MP 06040 14894,STATE,23-06-23-000725-000-00,NATIONAL GUARD,-9125281.632751763,3498575.0008054473
689th EN Tm,CAMP BLANDING,STARKE,32091,CLAY,"-81.97379963,29.96128998",17R MP 06040 14894,STATE,23-06-23-000725-000-00,NATIONAL GUARD,-9125281.632751763,3498575.0008054473
202 RHS,CAMP BLANDING,STARKE,32091,CLAY,"-81.97379963,29.96128998",17R MP 06040 14894,STATE,23-06-23-000725-000-00,NATIONAL GUARD,-9125281.632751763,3498575.0008054473
MED Det,CAMP BLANDING,STARKE,32091,CLAY,"-81.97379963,29.96128998",17R MP 06040 14894,STATE,23-06-23-000725-000-00,NATIONAL GUARD,-9125281.632751763,3498575.0008054473
J4 SMM,CAMP BLANDING,STARKE,32091,CLAY,"-81.97379963,29.96128998",17R MP 06040 14894,STATE,23-06-23-000725-000-00,NATIONAL GUARD,-9125281.632751763,3498575.0008054473
CBJTC,CAMP BLANDING,STARKE,32091,CLAY,"-81.97379963,29.96128998",17R MP 06040 14894,STATE,23-06-23-000725-000-00,NATIONAL GUARD,-9125281.632751763,3498575.0008054473
211th RTI,CAMP BLANDING,STARKE,32091,CLAY,"-81.97379963,29.96128998",17R MP 06040 14894,STATE,23-06-23-000725-000-00,NATIONAL GUARD,-9125281.632751763,3498575.0008054473
CBJTC,5629 STATE ROAD 16 W,STARKE,32091,CLAY,"-81.98723586,29.97724098",17R MP 04759 16673,STATE,15-06-23-000572-000-00,NATIONAL GUARD,-9126777.34698125,3500624.7185289613
WRTC,CAMP BLANDING,STARKE,32091,CLAY,"-81.97379963,29.96128998",17R MP 06040 14894,STATE,23-06-23-000725-000-00,NATIONAL GUARD,-9125281.632751763,3498575.0008054473
RTS-M,CAMP BLANDING,STARKE,32091,CLAY,"-81.97379963,29.96128998",17R MP 06040 14894,STATE,23-06-23-000725-000-00,NATIONAL GUARD,-9125281.632751763,3498575.0008054473
927th CSSB,CAMP BLANDING,STARKE,32091,CLAY,"-81.97379963,29.96128998",17R MP 06040 14894,STATE,23-06-23-000725-000-00,NATIONAL GUARD,-9125281.632751763,3498575.0008054473
Camp Blanding Joint Training Center,State Road 16 - Entrance Tallahassee St,STARKE,32091,CLAY,"-81.96842342,29.97164357",17R MP 06569 16037,,,NATIONAL GUARD,-9124683.156670142,3499905.4087191075
856th QM Co,2050 Commerce Ave Unit 6,Immokalee,34142,COLLIER,"-81.39681091,26.41649221",17R MK 60428 21870,,,NATIONAL GUARD,-9061051.54255437,3050757.4040555325
Ground/Aviation Maintenance Activities,490 LAKE JEFFERY RD NW,LAKE CITY,32055,COLUMBIA,"-82.64872762,30.19388489",17R LP 41283 41418,STATE,,NATIONAL GUARD,-9200414.273111258,3528496.363572697
153RD ENGINEER COMPANY,490 LAKE JEFFERY RD NW,LAKE CITY,32055,COLUMBIA,"-82.64872762,30.19388489",17R LP 41283 41418,STATE,,NATIONAL GUARD,-9200414.273111258,3528496.363572697
FMS #8,490 LAKE JEFFERY RD NW,LAKE CITY,32055,COLUMBIA,"-82.64872762,30.19388489",17R LP 41283 41418,STATE,,NATIONAL GUARD,-9200414.273111258,3528496.363572697
"R&R, 3-116 FA, A BTRY",787 KELLY DRIVE,ARCADIA,34266,DESOTO,"-81.86479880,27.23034503",17R ML 14372 12244,OTHER PUBLIC,25-37-24-0A00-0400-0000,NATIONAL GUARD,-9113147.7159339,3152279.9106774135
"BTRY A, 3RD BN, 116TH FA",787 KELLY DRIVE,ARCADIA,34266,DESOTO,"-81.86479880,27.23034503",17R ML 14372 12244,OTHER PUBLIC,25-37-24-0A00-0400-0000,NATIONAL GUARD,-9113147.7159339,3152279.9106774135
CO C 146TH SIG BN,9900 NORMANDY BLVD,JACKSONVILLE,32210,DUVAL,"-81.82130846,30.27791806",17R MP 21007 49867,STATE,0090210010R,NATIONAL GUARD,-9108306.393444953,3539323.875134559
HQ 146TH SIG BN (CORPS AREA),9900 NORMANDY BLVD,JACKSONVILLE,32210,DUVAL,"-81.82130846,30.27791806",17R MP 21007 49867,STATE,0090210010R,NATIONAL GUARD,-9108306.393444953,3539323.875134559
"CO A, 146TH SIG BN",9900 NORMANDY BLVD,JACKSONVILLE,32210,DUVAL,"-81.82130846,30.27791806",17R MP 21007 49867,STATE,0090210010R,NATIONAL GUARD,-9108306.393444953,3539323.875134559
83rd Troop Command,13433 Crossover St,Jacksonville, ,DUVAL,"-81.88481400,30.22252400",17R MP 14851 43774,,,NATIONAL GUARD,-9115375.798182461,3532185.417598198
"Detachment 1, Company B, 1204th AV (AVIM)",13433 Crossover St,Jacksonville, ,DUVAL,"-81.88481400,30.22252400",17R MP 14851 43774,,,NATIONAL GUARD,-9115375.798182461,3532185.417598198
CO D 1ST BN 111TH AVIATION,609 SAINT JOHNS BLUFF RD N,JACKSONVILLE,32225,DUVAL,"-81.52261805,30.33241871",17R MP 49763 55736,COUNTY,1622270100R,NATIONAL GUARD,-9075056.329148797,3546351.134674534
159TH FIGHTER SQUADRON,14300 FANG DR,JACKSONVILLE,32218,DUVAL,"-81.70253796,30.48699007",17R MP 32574 72959,COUNTY,0192800000R,NATIONAL GUARD,-9095084.922494045,3566302.7309320727
8125TH STUDENT FLIGHT,14300 FANG DR,JACKSONVILLE,32218,DUVAL,"-81.70253796,30.48699007",17R MP 32574 72959,COUNTY,0192800000R,NATIONAL GUARD,-9095084.922494045,3566302.7309320727
HQ 1ST BN 111TH AVIATION,609 SAINT JOHNS BLUFF RD N,JACKSONVILLE,32225,DUVAL,"-81.52261805,30.33241871",17R MP 49763 55736,COUNTY,1622270100R,NATIONAL GUARD,-9075056.329148797,3546351.134674534
B/1204th AV,609 SAINT JOHNS BLUFF RD N,JACKSONVILLE,32225,DUVAL,"-81.52261805,30.33241871",17R MP 49763 55736,COUNTY,1622270100R,NATIONAL GUARD,-9075056.329148797,3546351.134674534
"CO B, 1ST BN, 111TH AVIATION",609 SAINT JOHNS BLUFF RD N,JACKSONVILLE,32225,DUVAL,"-81.52261805,30.33241871",17R MP 49763 55736,COUNTY,1622270100R,NATIONAL GUARD,-9075056.329148797,3546351.134674534
125TH FIGHTER WING,14300 FANG DR,JACKSONVILLE,32218,DUVAL,"-81.70253796,30.48699007",17R MP 32574 72959,COUNTY,0192800000R,NATIONAL GUARD,-9095084.922494045,3566302.7309320727
CO E 111TH ATS,609 SAINT JOHNS BLUFF RD N,JACKSONVILLE,32225,DUVAL,"-81.52261805,30.33241871",17R MP 49763 55736,COUNTY,1622270100R,NATIONAL GUARD,-9075056.329148797,3546351.134674534
Det 1,609 SAINT JOHNS BLUFF RD N,JACKSONVILLE,32225,DUVAL,"-81.52261805,30.33241871",17R MP 49763 55736,COUNTY,1622270100R,NATIONAL GUARD,-9075056.329148797,3546351.134674534
ARMY AVIATION SUPPORT FACILITY #1,609 SAINT JOHNS BLUFF RD N,JACKSONVILLE,32225,DUVAL,"-81.52261805,30.33241871",17R MP 49763 55736,COUNTY,1622270100R,NATIONAL GUARD,-9075056.329148797,3546351.134674534
1-111th AV (GSAB),609 SAINT JOHNS BLUFF RD N,JACKSONVILLE,32225,DUVAL,"-81.52261805,30.33241871",17R MP 49763 55736,COUNTY,1622270100R,NATIONAL GUARD,-9075056.329148797,3546351.134674534
B/2 151st AV,609 SAINT JOHNS BLUFF RD N,JACKSONVILLE,32225,DUVAL,"-81.52261805,30.33241871",17R MP 49763 55736,COUNTY,1622270100R,NATIONAL GUARD,-9075056.329148797,3546351.134674534
HHC 1ST BN 111TH AVIATION,609 SAINT JOHNS BLUFF RD N,JACKSONVILLE,32225,DUVAL,"-81.52261805,30.33241871",17R MP 49763 55736,COUNTY,1622270100R,NATIONAL GUARD,-9075056.329148797,3546351.134674534
"CO A, 1ST BN, 111TH AVIATION",609 SAINT JOHNS BLUFF RD N,JACKSONVILLE,32225,DUVAL,"-81.52261805,30.33241871",17R MP 49763 55736,COUNTY,1622270100R,NATIONAL GUARD,-9075056.329148797,3546351.134674534
CO C 1ST BN 111TH AVIATION,609 SAINT JOHNS BLUFF RD N,JACKSONVILLE,32225,DUVAL,"-81.52261805,30.33241871",17R MP 49763 55736,COUNTY,1622270100R,NATIONAL GUARD,-9075056.329148797,3546351.134674534
"C/HHC 146th ESB Intel Det, 260 MI",9900 NORMANDY BLVD,JACKSONVILLE,32210,DUVAL,"-81.82130846,30.27791806",17R MP 21007 49867,STATE,0090210010R,NATIONAL GUARD,-9108306.393444953,3539323.875134559
"HHC, 146th Expeditionary Signal Battalion",9900 NORMANDY BLVD,JACKSONVILLE,32210,DUVAL,"-81.82130846,30.27791806",17R MP 21007 49867,STATE,0090210010R,NATIONAL GUARD,-9108306.393444953,3539323.875134559
ARMY NATIONAL GUARD,3300 COPTER RD,PENSACOLA,32514,ESCAMBIA,"-87.19376548,30.52551525",16R DU 81411 77035,,,NATIONAL GUARD,-9706365.573656065,3571280.370467054
CO B 146th ESB,8790 GROW DR,PENSACOLA,32514,ESCAMBIA,"-87.18902451,30.52121213",16R DU 81865 76557,STATE,031S291002000000,NATIONAL GUARD,-9705837.811754247,3570724.2880444867
CO B 153RD CAV,8790 GROW DR,PENSACOLA,32514,ESCAMBIA,"-87.18902451,30.52121213",16R DU 81865 76557,STATE,031S291002000000,NATIONAL GUARD,-9705837.811754247,3570724.2880444867
ARMY READINESS CENTER,100 AIRPORT EXECUTIVE DR,PALM COAST,32164,FLAGLER,"-81.21098196,29.45263408",17R MN 79540 58153,,,NATIONAL GUARD,-9040365.15822633,3433383.3212736133
DET 1 CO A 3RD BN 124TH IN,66 E 4TH ST,APALACHICOLA,32320,FRANKLIN,"-84.98479854,29.72637743",16R FT 94913 90166,STATE,01-09S-08W-8330-0009-0010,NATIONAL GUARD,-9460464.49837779,3468426.478341857
669 EN DET,2049 Pat Thomas Pkwy,Quincy,32351,GADSDEN,"-84.59155727,30.55538370",16R GU 31017 82798,,,NATIONAL GUARD,-9416689.080432894,3575140.876211035
83rd Troop Command,2049 Pat Thomas Pkwy,Quincy,32351,GADSDEN,"-84.59155727,30.55538370",16R GU 31017 82798,,,NATIONAL GUARD,-9416689.080432894,3575140.876211035
NATIONAL GUARD - WAUCHULA ARMORY,450 RODEO DRIVE,WAUCHULA, ,HARDEE,"-81.83848973,27.53485221",17R ML 17204 45957,,,NATIONAL GUARD,-9110219.004360568,3190454.8636160973
C CO,450 RODEO DRIVE,WAUCHULA, ,HARDEE,"-81.83848973,27.53485221",17R ML 17204 45957,,,NATIONAL GUARD,-9110219.004360568,3190454.8636160973
C/3-20th SF,450 RODEO DRIVE,WAUCHULA, ,HARDEE,"-81.83848973,27.53485221",17R ML 17204 45957,,,NATIONAL GUARD,-9110219.004360568,3190454.8636160973
1/H/171st AV,16330 Flight Path Drive,Brooksville,34604,HERNANDO,"-82.45905966,28.47837524",17R LM 57171 51063,,,NATIONAL GUARD,-9179300.532375377,3309420.9384992705
"1-244 AV, E CO (-), DET 1",16386 SPRING HILL DR,BROOKSVILLE,34604,HERNANDO,"-82.45442701,28.48035189",17R LM 57627 51277,,R18 423 19 0000 0310 0060,NATIONAL GUARD,-9178784.827918436,3309671.2709208042
ARMY AVIATION SUPPORT FACIL #2,16386 SPRING HILL DR,BROOKSVILLE,34604,HERNANDO,"-82.45442701,28.48035189",17R LM 57627 51277,,R18 423 19 0000 0310 0060,NATIONAL GUARD,-9178784.827918436,3309671.2709208042
CO D 1ST BN 171ST AVN,16386 SPRING HILL DR,BROOKSVILLE,34604,HERNANDO,"-82.45442701,28.48035189",17R LM 57627 51277,,R18 423 19 0000 0310 0060,NATIONAL GUARD,-9178784.827918436,3309671.2709208042
National Guard Armory,16386 SPRING HILL DR,BROOKSVILLE,34604,HERNANDO,"-82.45442701,28.48035189",17R LM 57627 51277,,R18 423 19 0000 0310 0060,NATIONAL GUARD,-9178784.827918436,3309671.2709208042
"1-244 AV, HHC (-), DET 1",16386 SPRING HILL DR,BROOKSVILLE,34604,HERNANDO,"-82.45442701,28.48035189",17R LM 57627 51277,,R18 423 19 0000 0310 0060,NATIONAL GUARD,-9178784.827918436,3309671.2709208042
"1-244 AV, C CO",16386 SPRING HILL DR,BROOKSVILLE,34604,HERNANDO,"-82.45442701,28.48035189",17R LM 57627 51277,,R18 423 19 0000 0310 0060,NATIONAL GUARD,-9178784.827918436,3309671.2709208042
AASF #2,16388 Helicopter Dr,Brooksville,34604,HERNANDO,"-82.45453605,28.47887476",17R LM 57615 51113,,,NATIONAL GUARD,-9178796.967117734,3309484.2004489573
DET 1 CO C 3RD SF BN 20TH SF G,16386 SPRING HILL DR,BROOKSVILLE,34604,HERNANDO,"-82.45442701,28.48035189",17R LM 57627 51277,,R18 423 19 0000 0310 0060,NATIONAL GUARD,-9178784.827918436,3309671.2709208042
"1-244 AV, D CO (-), DET 1",16386 SPRING HILL DR,BROOKSVILLE,34604,HERNANDO,"-82.45442701,28.48035189",17R LM 57627 51277,,R18 423 19 0000 0310 0060,NATIONAL GUARD,-9178784.827918436,3309671.2709208042
"R & R, Battery B, 3rd Battalion, 116th Field Artillery",2500 US 27 South,Avon Park,33825,HIGHLANDS,"-81.50828802,27.55137466",17R ML 49818 47610,,,NATIONAL GUARD,-9073461.118094685,3192529.237630359
BMMC-PBO,522 N HOWARD AVE,TAMPA,33609,HILLSBOROUGH,"-82.48374407,27.94891053",17R LL 54036 92428,STATE,,NATIONAL GUARD,-9182048.388886914,3242534.1021288256
SOD-C MacDill AFB,9211 MARINA BAY DRIVE,TAMPA,33621,HILLSBOROUGH,"-82.48705234,27.83652210",17R LL 53559 79980,OTHER PUBLIC,183020ZZZ000005565000A,NATIONAL GUARD,-9182416.663938116,3228378.557139795
290TH JOINT COMMUNICATIONS SUPPORT SQUADRON,9211 MARINA BAY DRIVE,TAMPA,33621,HILLSBOROUGH,"-82.48705234,27.83652210",17R LL 53559 79980,OTHER PUBLIC,183020ZZZ000005565000A,NATIONAL GUARD,-9182416.663938116,3228378.557139795
253RD MI COMPANY,522 N HOWARD AVE,TAMPA,33609,HILLSBOROUGH,"-82.48374407,27.94891053",17R LL 54036 92428,STATE,,NATIONAL GUARD,-9182048.388886914,3242534.1021288256
DET 1 HHC 53RD SPT BN,522 N HOWARD AVE,TAMPA,33609,HILLSBOROUGH,"-82.48374407,27.94891053",17R LL 54036 92428,STATE,,NATIONAL GUARD,-9182048.388886914,3242534.1021288256
HHSB 3RD BN 116TH FA (MLRS),4004 AIRPORT RD,PLANT CITY,33563,HILLSBOROUGH,"-82.16098479,28.00399338",17R LL 85848 98187,STATE,,NATIONAL GUARD,-9146118.98959252,3249477.272518239
B/53rd SPT Bn,522 N HOWARD AVE,TAMPA,33609,HILLSBOROUGH,"-82.48374407,27.94891053",17R LL 54036 92428,STATE,,NATIONAL GUARD,-9182048.388886914,3242534.1021288256
CO B 53RD SPT  BN,522 N HOWARD AVE,TAMPA,33609,HILLSBOROUGH,"-82.48374407,27.94891053",17R LL 54036 92428,STATE,,NATIONAL GUARD,-9182048.388886914,3242534.1021288256
"BTRY C, 3RD BN, 116TH FA",4004 AIRPORT RD,PLANT CITY,33563,HILLSBOROUGH,"-82.16098479,28.00399338",17R LL 85848 98187,STATE,,NATIONAL GUARD,-9146118.98959252,3249477.272518239
HQ 3RD BN 116TH FA,4004 AIRPORT RD,PLANT CITY,33563,HILLSBOROUGH,"-82.16098479,28.00399338",17R LL 85848 98187,STATE,,NATIONAL GUARD,-9146118.98959252,3249477.272518239
HHC 53RD IN BDE,522 N HOWARD AVE,TAMPA,33609,HILLSBOROUGH,"-82.48374407,27.94891053",17R LL 54036 92428,STATE,,NATIONAL GUARD,-9182048.388886914,3242534.1021288256
HQ 53RD IN BDE (SEP),522 N HOWARD AVE,TAMPA,33609,HILLSBOROUGH,"-82.48374407,27.94891053",17R LL 54036 92428,STATE,,NATIONAL GUARD,-9182048.388886914,3242534.1021288256
HHB/C/3-116th FA,4004 AIRPORT RD,PLANT CITY,33563,HILLSBOROUGH,"-82.16098479,28.00399338",17R LL 85848 98187,STATE,,NATIONAL GUARD,-9146118.98959252,3249477.272518239
FMS #6,308 W NORTH AVE,BONIFAY,32425,HOLMES,"-85.68273441,30.80208036",16R FV 26018 08409,STATE,0530.03-000-000-054.000,NATIONAL GUARD,-9538158.364276769,3607072.097894202
FMS #6,308 W NORTH AVE,BONIFAY,32425,HOLMES,"-85.68273441,30.80208036",16R FV 26018 08409,STATE,0530.03-000-000-054.000,NATIONAL GUARD,-9538158.364276769,3607072.097894202
FMS #6,308 W NORTH AVE,BONIFAY,32425,HOLMES,"-85.68273441,30.80208036",16R FV 26018 08409,STATE,0530.03-000-000-054.000,NATIONAL GUARD,-9538158.364276769,3607072.097894202
FMS #6,308 W NORTH AVE,BONIFAY,32425,HOLMES,"-85.68273441,30.80208036",16R FV 26018 08409,STATE,0530.03-000-000-054.000,NATIONAL GUARD,-9538158.364276769,3607072.097894202
144TH TRANSPORT COMPANY,3654 US 90 WEST,MARIANNA,32448,JACKSON,"-85.29291719,30.78353544",16R FV 63347 06858,,31-5N-10-0000-0160-0000,NATIONAL GUARD,-9494764.10996711,3604668.8927238868
CO D 2ND BN 124TH IN,605 SOUTH BAY ST,EUSTIS,32726,LAKE,"-81.68513680,28.84681278",17R MM 33168 91206,,,NATIONAL GUARD,-9093147.83430723,3356163.1449970976
FMS #5,12408 WOODLEA ROAD,TAVARES,32778,LAKE,"-81.75041715,28.78918325",17R MM 26760 84860,,,NATIONAL GUARD,-9100414.809358886,3348841.0519412803
"CO A, 2ND BN, 124TH IN",400 W MEADOW ST,LEESBURG,34748,LAKE,"-81.87687624,28.81315437",17R MM 14437 87600,STATE,261924260000002201,NATIONAL GUARD,-9114492.171015741,3351886.1983791515
"R&R, 2-124 IN, A CO",400 W MEADOW ST,LEESBURG,34748,LAKE,"-81.87687624,28.81315437",17R MM 14437 87600,STATE,261924260000002201,NATIONAL GUARD,-9114492.171015741,3351886.1983791515
"BTRY B, 3RD BN, 265TH ADA",3405 MARION ST,FORT MYERS,33916,LEE,"-81.84416442,26.65597244",17R MK 15990 48609,STATE,074425P3000020000,NATIONAL GUARD,-9110850.70737735,3080555.410292795
HHD 417TH SIG BN,1225 EASTERWOOD DR,TALLAHASSEE,32317,LEON,"-84.22590211,30.45245536",16R GU 66384 72192,STATE,,NATIONAL GUARD,-9375984.53429743,3561842.3534035143
C/1-153rd CAV,1225 EASTERWOOD DR,TALLAHASSEE,32317,LEON,"-84.22590211,30.45245536",16R GU 66384 72192,STATE,,NATIONAL GUARD,-9375984.53429743,3561842.3534035143
HQ 417TH SIG BN,1225 EASTERWOOD DR,TALLAHASSEE,32317,LEON,"-84.22590211,30.45245536",16R GU 66384 72192,STATE,,NATIONAL GUARD,-9375984.53429743,3561842.3534035143
HHD 779th EN BN,1225 EASTERWOOD DR,TALLAHASSEE,32317,LEON,"-84.22590211,30.45245536",16R GU 66384 72192,STATE,,NATIONAL GUARD,-9375984.53429743,3561842.3534035143
"Chief, Legislative Liaison",400 S MONROE ST,TALLAHASSEE,32301,LEON,"-84.28155059,30.43892442",16R GU 61074 70562,STATE,2136251531450,NATIONAL GUARD,-9382179.294553623,3560095.177739341
152 CAB C1,1225 EASTERWOOD DR,TALLAHASSEE,32317,LEON,"-84.22590211,30.45245536",16R GU 66384 72192,STATE,,NATIONAL GUARD,-9375984.53429743,3561842.3534035143
"CO A(-), 3RD BN, 124TH IN",1225 EASTERWOOD DR,TALLAHASSEE,32317,LEON,"-84.22590211,30.45245536",16R GU 66384 72192,STATE,,NATIONAL GUARD,-9375984.53429743,3561842.3534035143
83RD TROOP COMMAND,1225 EASTERWOOD DR,TALLAHASSEE,32317,LEON,"-84.22590211,30.45245536",16R GU 66384 72192,STATE,,NATIONAL GUARD,-9375984.53429743,3561842.3534035143
"BTRY C, 3RD BN, 265TH ADA",1107 14TH AVE W,PALMETTO,34221,MANATEE,"-82.58173682,27.52259632",17R LL 43788 45316,MUNICIPAL,2804400059,NATIONAL GUARD,-9192956.891895143,3188916.352986453
Btry A/D/3-265th ADA,"2100 13TH AVENUE, EAST",BRADENTON,34208,MANATEE,"-82.53756911,27.48835206",17R LL 48103 41467,STATE,1360500059,NATIONAL GUARD,-9188040.164130004,3184618.499171959
"BTRY A, 3RD BN, 265TH ADA","2100 13TH AVENUE, EAST",BRADENTON,34208,MANATEE,"-82.53756911,27.48835206",17R LL 48103 41467,STATE,1360500059,NATIONAL GUARD,-9188040.164130004,3184618.499171959
C/2-124th IN Bn,900 SW 20TH ST,OCALA,34474,MARION,"-82.14689235,29.16750580",17R LN 88469 27088,STATE,23656-023-00,NATIONAL GUARD,-9144550.227057457,3396983.094240687
TROOP E 153RD CAV,900 SW 20TH ST,OCALA,34474,MARION,"-82.14689235,29.16750580",17R LN 88469 27088,STATE,23656-023-00,NATIONAL GUARD,-9144550.227057457,3396983.094240687
"CO A, 3RD SF BN, 20TH SF ",900 SW 20TH ST,OCALA,34474,MARION,"-82.14689235,29.16750580",17R LN 88469 27088,STATE,23656-023-00,NATIONAL GUARD,-9144550.227057457,3396983.094240687
13th AG Band,700 NW 28TH ST,MIAMI,33127,MIAMI-DADE,"-80.20880780,25.80219293",17R NJ 79314 54016,STATE,,NATIONAL GUARD,-8928803.641815037,2974602.246187077
13th AG Band,700 NW 28TH ST,MIAMI,33127,MIAMI-DADE,"-80.20880780,25.80219293",17R NJ 79314 54016,STATE,,NATIONAL GUARD,-8928803.641815037,2974602.246187077
13th AG Band,700 NW 28TH ST,MIAMI,33127,MIAMI-DADE,"-80.20880780,25.80219293",17R NJ 79314 54016,STATE,,NATIONAL GUARD,-8928803.641815037,2974602.246187077
13th AG Band,700 NW 28TH ST,MIAMI,33127,MIAMI-DADE,"-80.20880780,25.80219293",17R NJ 79314 54016,STATE,,NATIONAL GUARD,-8928803.641815037,2974602.246187077
50TH AREA SUPPORT GROUP,756 SAINT LO BLVD,HOMESTEAD,33032,MIAMI-DADE,"-80.39093485,25.49786171",17R NJ 61211 20217,,3069260100740,NATIONAL GUARD,-8949077.931461737,2937020.71574488
13th AG Band,700 NW 28TH ST,MIAMI,33127,MIAMI-DADE,"-80.20880780,25.80219293",17R NJ 79314 54016,STATE,,NATIONAL GUARD,-8928803.641815037,2974602.246187077
930th ALT,756 SAINT LO BLVD,HOMESTEAD,33032,MIAMI-DADE,"-80.39093485,25.49786171",17R NJ 61211 20217,,3069260100740,NATIONAL GUARD,-8949077.931461737,2937020.71574488
E/53rd FSC,,MIAMI,33170,MIAMI-DADE,"-80.39720873,25.49403626",17R NJ 60582 19790,,3069140110330,NATIONAL GUARD,-8949776.337491432,2936548.923765719
260th MI,,MIAMI,33170,MIAMI-DADE,"-80.39720873,25.49403626",17R NJ 60582 19790,,3069140110330,NATIONAL GUARD,-8949776.337491432,2936548.923765719
"DETACHMENT 1, 125TH FIGHTER WING",,MIAMI,33170,MIAMI-DADE,"-80.39720873,25.49403626",17R NJ 60582 19790,,3069140110330,NATIONAL GUARD,-8949776.337491432,2936548.923765719
HHC/C/1-124th IN,,MIAMI,33170,MIAMI-DADE,"-80.39720873,25.49403626",17R NJ 60582 19790,,3069140110330,NATIONAL GUARD,-8949776.337491432,2936548.923765719
50th RSG,756 SAINT LO BLVD,HOMESTEAD,33032,MIAMI-DADE,"-80.39093485,25.49786171",17R NJ 61211 20217,,3069260100740,NATIONAL GUARD,-8949077.931461737,2937020.71574488
13th AG Band,700 NW 28TH ST,MIAMI,33127,MIAMI-DADE,"-80.20880780,25.80219293",17R NJ 79314 54016,STATE,,NATIONAL GUARD,-8928803.641815037,2974602.246187077
13th AG Band,700 NW 28TH ST,MIAMI,33127,MIAMI-DADE,"-80.20880780,25.80219293",17R NJ 79314 54016,STATE,,NATIONAL GUARD,-8928803.641815037,2974602.246187077
13th AG Band,700 NW 28TH ST,MIAMI,33127,MIAMI-DADE,"-80.20880780,25.80219293",17R NJ 79314 54016,STATE,,NATIONAL GUARD,-8928803.641815037,2974602.246187077
13th AG Band,700 NW 28TH ST,MIAMI,33127,MIAMI-DADE,"-80.20880780,25.80219293",17R NJ 79314 54016,STATE,,NATIONAL GUARD,-8928803.641815037,2974602.246187077
13th AG Band,700 NW 28TH ST,MIAMI,33127,MIAMI-DADE,"-80.20880780,25.80219293",17R NJ 79314 54016,STATE,,NATIONAL GUARD,-8928803.641815037,2974602.246187077
USAF TETHERED AEROSTAT RADAR SITE,BLIMP RD,SUMMERLAND KEY,33042,MONROE,"-81.50298417,24.69580048",17R MH 49119 31358,,1766 28 00115280000000,NATIONAL GUARD,-9072870.69579862,2838426.5680584437
653RD SIG CO,1518 E JAMES LEE BLVD,CRESTVIEW,32539,OKALOOSA,"-86.54958546,30.76060011",16R EV 43106 03157,STATE,16-3N-23-0000-0008-0000,NATIONAL GUARD,-9634655.78171921,3601697.383381896
HHB/164th ADA Bde,2809 S FERN CREEK AVE,ORLANDO,32806,ORANGE,"-81.35943330,28.51075834",17R MM 64827 53836,STATE,,NATIONAL GUARD,-9056890.686649848,3313522.68533989
HHB/164th ADA Bde,2809 S FERN CREEK AVE,ORLANDO,32806,ORANGE,"-81.35943330,28.51075834",17R MM 64827 53836,STATE,,NATIONAL GUARD,-9056890.686649848,3313522.68533989
"164 AD, HHB",8385 DAETWYLER DR,ORLANDO,32827,ORANGE,"-81.33737635,28.44590561",17R MM 66965 46645,,,NATIONAL GUARD,-9054435.317457713,3305309.494232984
HHB/164th ADA Bde,2809 S FERN CREEK AVE,ORLANDO,32806,ORANGE,"-81.35943330,28.51075834",17R MM 64827 53836,STATE,,NATIONAL GUARD,-9056890.686649848,3313522.68533989
164TH AIR DEFENSE BRIGADE,8385 DAETWYLER DR,ORLANDO,32827,ORANGE,"-81.33737635,28.44590561",17R MM 66965 46645,,,NATIONAL GUARD,-9054435.317457713,3305309.494232984
F/53rd-FSC,8385 DAETWYLER DR,ORLANDO,32827,ORANGE,"-81.33737635,28.44590561",17R MM 66965 46645,,,NATIONAL GUARD,-9054435.317457713,3305309.494232984
TEAM 2 DET 1 32ND AAMDC,8385 DAETWYLER DR,ORLANDO,32827,ORANGE,"-81.33737635,28.44590561",17R MM 66965 46645,,,NATIONAL GUARD,-9054435.317457713,3305309.494232984
"164 AD, HQ",8385 DAETWYLER DR,ORLANDO,32827,ORANGE,"-81.33737635,28.44590561",17R MM 66965 46645,,,NATIONAL GUARD,-9054435.317457713,3305309.494232984
TEAM 2 DET 1 32ND AAMDC,8385 DAETWYLER DR,ORLANDO,32827,ORANGE,"-81.33737635,28.44590561",17R MM 66965 46645,,,NATIONAL GUARD,-9054435.317457713,3305309.494232984
TEAM 2 DET 1 32ND AAMDC,8385 DAETWYLER DR,ORLANDO,32827,ORANGE,"-81.33737635,28.44590561",17R MM 66965 46645,,,NATIONAL GUARD,-9054435.317457713,3305309.494232984
HHC/2-124th F/53rd-FSC,8385 DAETWYLER DR,ORLANDO,32827,ORANGE,"-81.33737635,28.44590561",17R MM 66965 46645,,,NATIONAL GUARD,-9054435.317457713,3305309.494232984
HHB/164th ADA Bde,2809 S FERN CREEK AVE,ORLANDO,32806,ORANGE,"-81.35943330,28.51075834",17R MM 64827 53836,STATE,,NATIONAL GUARD,-9056890.686649848,3313522.68533989
HHB/164th ADA Bde,2809 S FERN CREEK AVE,ORLANDO,32806,ORANGE,"-81.35943330,28.51075834",17R MM 64827 53836,STATE,,NATIONAL GUARD,-9056890.686649848,3313522.68533989
HHB/164th ADA Bde,2809 S FERN CREEK AVE,ORLANDO,32806,ORANGE,"-81.35943330,28.51075834",17R MM 64827 53836,STATE,,NATIONAL GUARD,-9056890.686649848,3313522.68533989
HHD/254th TC BN,3193 GUN CLUB RD,WEST PALM BEACH,33406,PALM BEACH,"-80.09063989,26.67377919",17R NK 90483 50626,STATE,00434406000001050,NATIONAL GUARD,-8915649.250044102,3082773.554871903
HHD/254th TC BN,3193 GUN CLUB RD,WEST PALM BEACH,33406,PALM BEACH,"-80.09063989,26.67377919",17R NK 90483 50626,STATE,00434406000001050,NATIONAL GUARD,-8915649.250044102,3082773.554871903
HHD/254th TC BN,3193 GUN CLUB RD,WEST PALM BEACH,33406,PALM BEACH,"-80.09063989,26.67377919",17R NK 90483 50626,STATE,00434406000001050,NATIONAL GUARD,-8915649.250044102,3082773.554871903
HHD/254th TC BN,3193 GUN CLUB RD,WEST PALM BEACH,33406,PALM BEACH,"-80.09063989,26.67377919",17R NK 90483 50626,STATE,00434406000001050,NATIONAL GUARD,-8915649.250044102,3082773.554871903
"1-124 IN, D CO",2901 TUXADO AVE,WEST PALM BEACH,33405,PALM BEACH,"-80.07213396,26.68798200",17R NK 92313 52212,,74434332010070011,NATIONAL GUARD,-8913589.179379195,3084543.014722178
HHD/254th TC BN,3193 GUN CLUB RD,WEST PALM BEACH,33406,PALM BEACH,"-80.09063989,26.67377919",17R NK 90483 50626,STATE,00434406000001050,NATIONAL GUARD,-8915649.250044102,3082773.554871903
"BTRY B, 2ND BN, 116TH FA",38017 LIVE OAK AVE,DADE CITY,33523,PASCO,"-82.18717469,28.36572461",17R LM 83665 38289,STATE, ,NATIONAL GUARD,-9149034.43620986,3295162.0339656556
G CO,38017 LIVE OAK AVE,DADE CITY,33523,PASCO,"-82.18717469,28.36572461",17R LM 83665 38289,STATE, ,NATIONAL GUARD,-9149034.43620986,3295162.0339656556
53 BSB,38017 LIVE OAK AVE,DADE CITY,33523,PASCO,"-82.18717469,28.36572461",17R LM 83665 38289,STATE, ,NATIONAL GUARD,-9149034.43620986,3295162.0339656556
HQ/HHC/C/53rd SPT Bn,3601 38TH AVE  S,SAINT PETERSBURG,33711,PINELLAS,"-82.68197726,27.73448569",17R LL 34206 68923,STATE,16 31 34 00000 440 0200,NATIONAL GUARD,-9204115.606292967,3215539.563837342
CO C 53RD SPT BN,3601 38TH AVE  S,SAINT PETERSBURG,33711,PINELLAS,"-82.68197726,27.73448569",17R LL 34206 68923,STATE,16 31 34 00000 440 0200,NATIONAL GUARD,-9204115.606292967,3215539.563837342
HHC/53rd BCT,2801 GRAND AVE,PINELLAS PARK,33782,PINELLAS,"-82.67481975,27.85455304",17R LL 35093 82216,FEDERAL,16 30 22 30374 000 0800,NATIONAL GUARD,-9203318.836517416,3230648.599880375
"CO A, 53RD SPT BN",706 N MISSOURI AVENUE,CLEARWATER,33755,PINELLAS,"-82.78890280,27.97307062",17R LL 24050 95507,MUNICIPAL,15 29 10 59796 002 1200,NATIONAL GUARD,-9216018.502800161,3245579.034801604
"R&R, 53 SPT, A CO",706 N MISSOURI AVENUE,CLEARWATER,33755,PINELLAS,"-82.78890280,27.97307062",17R LL 24050 95507,MUNICIPAL,15 29 10 59796 002 1200,NATIONAL GUARD,-9216018.502800161,3245579.034801604
HHC/B/C/BST Bn,2801 GRAND AVE,PINELLAS PARK,33782,PINELLAS,"-82.67481975,27.85455304",17R LL 35093 82216,FEDERAL,16 30 22 30374 000 0800,NATIONAL GUARD,-9203318.836517416,3230648.599880375
AFRC,2801 GRAND AVE,PINELLAS PARK,33782,PINELLAS,"-82.67481975,27.85455304",17R LL 35093 82216,FEDERAL,16 30 22 30374 000 0800,NATIONAL GUARD,-9203318.836517416,3230648.599880375
A/53rd SPT Bn,2801 GRAND AVE,PINELLAS PARK,33782,PINELLAS,"-82.67481975,27.85455304",17R LL 35093 82216,FEDERAL,16 30 22 30374 000 0800,NATIONAL GUARD,-9203318.836517416,3230648.599880375
HQ 53RD INFANTRY BRIGADE COMBAT TEAM,2801 GRAND AVE,PINELLAS PARK,33782,PINELLAS,"-82.67481975,27.85455304",17R LL 35093 82216,FEDERAL,16 30 22 30374 000 0800,NATIONAL GUARD,-9203318.836517416,3230648.599880375
B/260th M1 Bn,2801 GRAND AVE,PINELLAS PARK,33782,PINELLAS,"-82.67481975,27.85455304",17R LL 35093 82216,FEDERAL,16 30 22 30374 000 0800,NATIONAL GUARD,-9203318.836517416,3230648.599880375
FMS #4,1111 Commerce Ave,Haines City,33844,POLK,"-81.64418365,28.11723314",17R MM 36730 10356,,,NATIONAL GUARD,-9088588.950587517,3263762.2625866183
"BTRY B, 2ND BN, 116TH FA","565 AVENUE C, SE",WINTER HAVEN,33880,POLK,"-81.71890271,28.01903957",17R ML 29327 99519,MUNICIPAL,262828605500019000,NATIONAL GUARD,-9096906.638341825,3251374.4563279687
DET 1 HHSB 2ND BN 116TH FA,1107 WEST COMMERCE AVENUE,HAINES CITY,33844,POLK,"-81.64308108,28.11704155",17R MM 36838 10334,,272719000000021150,NATIONAL GUARD,-9088466.212280145,3263738.0815492575
DET 1 CO H 171ST AVN BN,3770 AIRFIELD DR W,LAKELAND,33811,POLK,"-82.01671714,27.99423599",17R ML 00025 96980,MUNICIPAL,232904000000011010,NATIONAL GUARD,-9130059.188863808,3248247.098923973
HHB/2-116TH FA,4140 DRANE FIELD RD,LAKELAND,33811,POLK,"-82.02976566,27.99609861",17R LL 98744 97197,STATE,232905000000012020,NATIONAL GUARD,-9131511.743679147,3248481.9219917525
"BTRY A, 2ND BN, 116TH FA",120 Bartow Municipal Airport,BARTOW,33830,POLK,"-81.78101928,27.95358330",17R ML 23173 92306,STATE,252914000000022010,NATIONAL GUARD,-9103821.422804393,3243122.9654020006
325TH MAINT CO,435 S AIRPORT RD,LAKE WALES,33859,POLK,"-81.61910811,27.89686490",17R ML 39069 85931,STATE,273005000000021040,NATIONAL GUARD,-9085797.554119684,3235977.0250503886
HQ 2ND BN 116TH FA,4140 DRANE FIELD RD,LAKELAND,33811,POLK,"-82.02976566,27.99609861",17R LL 98744 97197,STATE,232905000000012020,NATIONAL GUARD,-9131511.743679147,3248481.9219917525
3116th FSC,435 S AIRPORT RD,LAKE WALES,33859,POLK,"-81.61910811,27.89686490",17R ML 39069 85931,STATE,273005000000021040,NATIONAL GUARD,-9085797.554119684,3235977.0250503886
"R&R, 1-265 AD, A BTRY",1301 MOSELEY AVE,PALATKA,32177,PUTNAM,"-81.64916219,29.63773994",17R MN 37162 78821,MUNICIPAL,12-10-26-3550-0170-0010,NATIONAL GUARD,-9089143.15849278,3457069.165679894
"BTRY A, 1ST BN, 265TH ADA",1301 MOSELEY AVE,PALATKA,32177,PUTNAM,"-81.64916219,29.63773994",17R MN 37162 78821,MUNICIPAL,12-10-26-3550-0170-0010,NATIONAL GUARD,-9089143.15849278,3457069.165679894
DEPARTMENT OF MILITARY AFFAIRS JOINT FORCE HEADQUARTERS,82 MARINE ST,SAINT AUGUSTINE,32084,ST. JOHNS,"-81.30976809,29.88778870",17R MP 70089 06391,OTHER PUBLIC,2008800000,NATIONAL GUARD,-9051361.98065628,3489134.266382348
DET 2 STARC,2305 STATE ROAD 207,SAINT AUGUSTINE,32084,ST. JOHNS,"-81.37451490,29.83249788",17R MP 63818 00283,STATE,4444444444,NATIONAL GUARD,-9058569.562202573,3482037.1274246974
OSA,190 SAN MARCO AVE,SAINT AUGUSTINE,32084,ST. JOHNS,"-81.32122452,29.91062910",17R MP 68990 08925,STATE,1543200000,NATIONAL GUARD,-9052637.304270582,3492067.2126554134
DET 8,190 SAN MARCO AVE,SAINT AUGUSTINE,32084,ST. JOHNS,"-81.32122452,29.91062910",17R MP 68990 08925,STATE,1543200000,NATIONAL GUARD,-9052637.304270582,3492067.2126554134
JFHQ,25 ST FRANCIS ST,SAINT AUGUSTINE,32084,ST. JOHNS,"-81.31054511,29.88773729",17R MP 70014 06386,STATE,2003200000,NATIONAL GUARD,-9051448.477858823,3489127.664911609
"BTRY E, 265TH AD BN",2305 STATE ROAD 207,SAINT AUGUSTINE,32084,ST. JOHNS,"-81.37451490,29.83249788",17R MP 63818 00283,STATE,4444444444,NATIONAL GUARD,-9058569.562202573,3482037.1274246974
HRO,75 King Street,St Augustine,32085,ST. JOHNS,"-81.31367730,29.89049255",17R MP 69713 06692,,,NATIONAL GUARD,-9051797.15164764,3489481.434405835
315 3rd F1 DET,190 San Marco Blvd,St Augustine,32084,ST. JOHNS,"-81.32682141,29.87695106",17R MP 68439 05195,,,NATIONAL GUARD,-9053260.347400405,3487742.8355967477
SAAO,75 King Street,St Augustine,32085,ST. JOHNS,"-81.31367730,29.89049255",17R MP 69713 06692,,,NATIONAL GUARD,-9051797.15164764,3489481.434405835
215 3rd F1 DET,190 San Marco Blvd,St Augustine,32084,ST. JOHNS,"-81.32682141,29.87695106",17R MP 68439 05195,,,NATIONAL GUARD,-9053260.347400405,3487742.8355967477
153rd FMC,190 San Marco Blvd,St Augustine,32084,ST. JOHNS,"-81.32682141,29.87695106",17R MP 68439 05195,,,NATIONAL GUARD,-9053260.347400405,3487742.8355967477
J8, ,SAINT AUGUSTINE,32085,ST. JOHNS,"-81.30646880,29.87961219",17R MP 70406 05484,,,NATIONAL GUARD,-9050994.705200119,3488084.4801339135
State Safety Office,75 King Street,St Augustine,32085,ST. JOHNS,"-81.31367730,29.89049255",17R MP 69713 06692,,,NATIONAL GUARD,-9051797.15164764,3489481.434405835
1153rd F1 DET,190 San Marco Blvd,St Augustine,32084,ST. JOHNS,"-81.32682141,29.87695106",17R MP 68439 05195,,,NATIONAL GUARD,-9053260.347400405,3487742.8355967477
DET 8 OSA,255 HAWKEYE VIEW LANE,SAINT AUGUSTINE,32095,ST. JOHNS,"-81.35003859,29.96966497",17R MP 66229 15475,COUNTY,0747800000,NATIONAL GUARD,-9055844.87145259,3499651.1538263024
1996th CCT,190 San Marco Blvd,St Augustine,32084,ST. JOHNS,"-81.32682141,29.87695106",17R MP 68439 05195,,,NATIONAL GUARD,-9053260.347400405,3487742.8355967477
DET 3 STARC MEDICAL DET,2305 STATE ROAD 207,SAINT AUGUSTINE,32084,ST. JOHNS,"-81.37451490,29.83249788",17R MP 63818 00283,STATE,4444444444,NATIONAL GUARD,-9058569.562202573,3482037.1274246974
1565th JAG,25 ST FRANCIS ST,SAINT AUGUSTINE,32084,ST. JOHNS,"-81.31054511,29.88773729",17R MP 70014 06386,STATE,2003200000,NATIONAL GUARD,-9051448.477858823,3489127.664911609
RECRUITING AND RETENTION,2305 STATE ROAD 207,SAINT AUGUSTINE,32084,ST. JOHNS,"-81.37451490,29.83249788",17R MP 63818 00283,STATE,4444444444,NATIONAL GUARD,-9058569.562202573,3482037.1274246974
3153RD FINANCE DET,190 SAN MARCO AVE,SAINT AUGUSTINE,32084,ST. JOHNS,"-81.32122452,29.91062910",17R MP 68990 08925,STATE,1543200000,NATIONAL GUARD,-9052637.304270582,3492067.2126554134
J1,310 CHARLOETT ST,SAINT AUGUSTINE,32084,ST. JOHNS,"-81.31026149,29.88656108",17R MP 70041 06255,STATE,2004500000,NATIONAL GUARD,-9051416.905121865,3488976.646129141
R&R,25 ST FRANCIS ST,SAINT AUGUSTINE,32084,ST. JOHNS,"-81.31054511,29.88773729",17R MP 70014 06386,STATE,2003200000,NATIONAL GUARD,-9051448.477858823,3489127.664911609
HQ 153 FINANCE BN,190 SAN MARCO AVE,SAINT AUGUSTINE,32084,ST. JOHNS,"-81.32122452,29.91062910",17R MP 68990 08925,STATE,1543200000,NATIONAL GUARD,-9052637.304270582,3492067.2126554134
2153RD FINANCE DET,190 SAN MARCO AVE,SAINT AUGUSTINE,32084,ST. JOHNS,"-81.32122452,29.91062910",17R MP 68990 08925,STATE,1543200000,NATIONAL GUARD,-9052637.304270582,3492067.2126554134
HQ DET STARC(-)FLARNG,2305 STATE ROAD 207,SAINT AUGUSTINE,32084,ST. JOHNS,"-81.37451490,29.83249788",17R MP 63818 00283,STATE,4444444444,NATIONAL GUARD,-9058569.562202573,3482037.1274246974
J1,25 ST FRANCIS ST,SAINT AUGUSTINE,32084,ST. JOHNS,"-81.31054511,29.88773729",17R MP 70014 06386,STATE,2003200000,NATIONAL GUARD,-9051448.477858823,3489127.664911609
806 MP CO,2805 DELAWARE AVE,FORT PIERCE,34947,ST. LUCIE,"-80.35355951,27.44344083",17R NL 63884 35718,STATE,2408-442-0005-000-1,NATIONAL GUARD,-8944917.328459162,3178983.9032469722
HHB 3RD BN 265TH ADA,2890 RINGLING BLVD,SARASOTA,34237,SARASOTA,"-82.51149869,27.33586531",17R LL 50474 24542,,2029-01-0055,NATIONAL GUARD,-9185138.019235242,3165496.714097895
B/2- 124th IN,915 E 1ST ST,SANFORD,32771,SEMINOLE,"-81.25909276,28.81116103",17R MM 74718 87091,STATE,,NATIONAL GUARD,-9045720.828389712,3351632.950105736
CO B 2ND BN 124TH IN,915 E 1ST ST,SANFORD,32771,SEMINOLE,"-81.25909276,28.81116103",17R MM 74718 87091,STATE,,NATIONAL GUARD,-9045720.828389712,3351632.950105736
269TH ENGINEER COMPANY,1416 11th St SW,LIVE OAK,32064,SUWANNEE,"-83.00831846,30.29049521",17R LP 06849 52683,STATE,2702S13E08076000000,NATIONAL GUARD,-9240443.742613634,3540945.21336162
689 EN TM,1416 11th St SW,LIVE OAK,32064,SUWANNEE,"-83.00831846,30.29049521",17R LP 06849 52683,STATE,2702S13E08076000000,NATIONAL GUARD,-9240443.742613634,3540945.21336162
"BTRY C, 1ST BN, 265TH ADA",405 S BASIN ST,DAYTONA BEACH,32114,VOLUSIA,"-81.01296426,29.20786318",17R MN 98739 31015,STATE,,NATIONAL GUARD,-9018321.929457366,3402129.055240659
"BTRY B, 265th ADA",401 S ALABAMA AVE,DELAND,32724,VOLUSIA,"-81.30038212,29.02330344",17R MN 70749 10604,STATE,,NATIONAL GUARD,-9050317.139341746,3378612.3745381436
HQ 1ST BN 265TH ADA,405 S BASIN ST,DAYTONA BEACH,32114,VOLUSIA,"-81.01296426,29.20786318",17R MN 98739 31015,STATE,,NATIONAL GUARD,-9018321.929457366,3402129.055240659
"BTRY B, 265th ADA",401 S ALABAMA AVE,DELAND,32724,VOLUSIA,"-81.30038212,29.02330344",17R MN 70749 10604,STATE,,NATIONAL GUARD,-9050317.139341746,3378612.3745381436
"BTRY B, 265th ADA",401 S ALABAMA AVE,DELAND,32724,VOLUSIA,"-81.30038212,29.02330344",17R MN 70749 10604,STATE,,NATIONAL GUARD,-9050317.139341746,3378612.3745381436
HHB 1ST BN 265TH ADA,405 S BASIN ST,DAYTONA BEACH,32114,VOLUSIA,"-81.01296426,29.20786318",17R MN 98739 31015,STATE,,NATIONAL GUARD,-9018321.929457366,3402129.055240659
"BTRY B, 265th ADA",401 S ALABAMA AVE,DELAND,32724,VOLUSIA,"-81.30038212,29.02330344",17R MN 70749 10604,STATE,,NATIONAL GUARD,-9050317.139341746,3378612.3745381436
"53 BSB, D CO",749 S 7TH ST,CHIPLEY,32428,WASHINGTON,"-85.53628034,30.77583347",16R FV 40068 05674,STATE,00000000-00-1826-0000,NATIONAL GUARD,-9521855.171953522,3603670.9431658755
CO C 3RD BN 124TH IN,749 S 7TH ST,CHIPLEY,32428,WASHINGTON,"-85.53628034,30.77583347",16R FV 40068 05674,STATE,00000000-00-1826-0000,NATIONAL GUARD,-9521855.171953522,3603670.9431658755
