Name,Address,City,Zip,COUNTY,X,Y,LONGLAT,USNG,OWNERSHIP,PARCELID,FACILITY_TYPE,x,y
GREYHOUND-PORT CHARLOTTE,900 KINGS HWY,PORT CHARLOTTE, ,CHARLOTTE,-82.05028,27.01659,"-82.05028000,27.01659000",17R LK 95808 88706,,,BUS TERMINAL,-9133795.389064599,3125544.603214217
GREYHOUND-ISLAMORADA,82201 OVERSEAS HWY,ISLAMORADA, ,MONROE,-80.62999,24.92268,"-80.62999000,24.92268000",17R NH 37361 56437,,,BUS TERMINAL,-8975689.42945717,2866250.5884479773
GREYHOUND-TALLAHASSEE,112 W TENNESSEE ST,TALLAHASSEE, ,LEON,-84.28243,30.44472,"-84.28243000,30.44472000",16R GU 60974 71203,,,BUS TERMINAL,-9382277.190406373,3560843.499695913
GREYHOUND-WEST PALM BEACH,205 S TAMARIND AVE,WEST PALM BEACH, ,PALM BEACH,-80.06199,26.71219,"-80.06199000,26.71219000",17R NK 93303 54901,,,BUS TERMINAL,-8912459.958659649,3087559.4804348405
GREYHOUND-KEY WEST INT'L,3535 S ROOSEVELT BLVD,KEY WEST, ,MONROE,-81.75466,24.55354,"-81.75466000,24.55354000",17R MH 23573 15722,,,BUS TERMINAL,-9100887.121195229,2821005.9075552565
GREYHOUND-BROOKSVILLE,9020 COBB RD,BROOKSVILLE, ,HERNANDO,-82.42075,28.5569,"-82.42075000,28.55690000",17R LM 61025 59719,,,BUS TERMINAL,-9175035.920816286,3319369.310134741
GREYHOUND-JACKSONVILLE,10 N PEARL ST,JACKSONVILLE, ,DUVAL,-81.66295,30.32752,"-81.66295000,30.32752000",17R MP 36270 55264,,,BUS TERMINAL,-9090678.010697898,3545719.339987089
GREYHOUND-WINTER HAVEN,900 6TH ST NW,WINTER HAVEN, ,POLK,-81.73292,28.03106,"-81.73292000,28.03106000",17R MM 27957 00859,,,BUS TERMINAL,-9098467.03548351,3252890.3096271525
GREYHOUND-STARKE,838 N TEMPLE AVE,STARKE, ,BRADFORD,-82.10841,29.95285,"-82.10841000,29.95285000",17R LP 93042 14077,,,BUS TERMINAL,-9140266.391023884,3497490.5891485997
GREYHOUND-NAPLES,2669 DAVIS BLVD,NAPLES, ,COLLIER,-81.77258,26.13853,"-81.77258000,26.13853000",17R MJ 22771 91254,,,BUS TERMINAL,-9102881.96649014,3016248.6181077645
FIVE FLAGS TROLLEY,226 E INTENDENCIA ST,PENSACOLA,32502,ESCAMBIA,-87.21100988,30.41125447,"-87.21100988,30.41125447",16R DU 79733 64376,,,BUS TERMINAL,-9708285.211469332,3556523.0650732243
PINELLAS SUNCOAST TRANSIT AUTHORITY,3201 SCHERER DRIVE,SAINT PETERSBURG,33716,PINELLAS,-82.67666969,27.88692808,"-82.67666969,27.88692808",17R LL 34960 85806,SPECIAL TAXING DISTRICT,16 30 11 00000 230 0200,BUS TERMINAL,-9203524.77029898,3234725.4721503803
GREYHOUND-GAINESVILLE,101 NE 23RD ST,GAINESVILLE, ,ALACHUA,-82.29438,29.65248,"-82.29438000,29.65248000",17R LN 74721 80978,,,BUS TERMINAL,-9160968.476771485,3458957.147319244
GREYHOUND-MELBOURNE,1 AIR TERMINAL PKWY  ,MELBOURNE, ,BREVARD,-80.63238003,28.09763367,"-80.63238003,28.09763367",17R NM 36112 08072,,,BUS TERMINAL,-8975955.486408718,3261288.746820896
GREYHOUND-BELLE GLADE,640 SW 16TH ST,BELLE GLADE, ,PALM BEACH,-80.68606,26.67898,"-80.68606000,26.67898000",17R NK 31235 50918,,,BUS TERMINAL,-8981931.113338377,3083421.4733318808
GREYHOUND-SARASOTA,575 N WASHINGTON BLVD,SARASOTA, ,SARASOTA,-82.53104,27.34093,"-82.53104000,27.34093000",17R LL 48547 25126,,,BUS TERMINAL,-9187313.3474382,3166131.400816417
GREYHOUND-MIAMI,4111 NW 27TH ST,MIAMI, ,MIAMI-DADE,-80.26298,25.80025,"-80.26298000,25.80025000",17R NJ 73884 53769,,,BUS TERMINAL,-8934834.063118707,2974362.0104020475
GREYHOUND-MARATHON,12222 OVERSEAS HWY,MARATHON, ,MONROE,-81.02601,24.73115,"-81.02601000,24.73115000",17R MH 97369 35179,,,BUS TERMINAL,-9019774.17421443,2842758.413302669
GREYHOUND-CHIEFLAND,1904 N YOUNG BLVD,CHIEFLAND, ,LEVY,-82.86859,29.49691,"-82.86859000,29.49691000",17R LN 18860 64495,,,BUS TERMINAL,-9224889.241590045,3439044.85214908
GREYHOUND-SPRING HILL,1394 COMMERCIAL WAY,SPRING HILL, ,HERNANDO,-82.62961,28.45466,"-82.62961000,28.45466000",17R LM 40438 48650,,,BUS TERMINAL,-9198286.109652823,3306417.8888271027
GREYHOUND-LAKE CITY,251 S MARION AVE,LAKE CITY, ,COLUMBIA,-82.6371,30.18712,"-82.63710000,30.18712000",17R LP 42391 40652,,,BUS TERMINAL,-9199119.892642692,3527625.1221549367
GREYHOUND-ORLANDO,555 N JOHN YOUNG PKY,ORLANDO, ,ORANGE,-81.41359,28.54817,"-81.41359000,28.54817000",17R MM 59542 57998,,,BUS TERMINAL,-9062919.382467976,3318262.9324761867
GREYHOUND-KISSIMMEE,103 E DAKIN AVE,KISSIMMEE, ,OSCEOLA,-81.40465,28.29342,"-81.40465000,28.29342000",17R MM 60321 29773,,,BUS TERMINAL,-9061924.186174331,3286017.958397726
GREYHOUND-LABELLE,10 W HICKPOOCHEE AVE,LABELLE, ,HENDRY,-81.43858,26.76177,"-81.43858000,26.76177000",17R MK 56394 60124,,,BUS TERMINAL,-9065701.256558247,3093739.4566385695
GREYHOUND-FORT WALTON BEACH,101 PERRY AVE SE,FORT WALTON BEACH, ,OKALOOSA,-86.60283,30.40854,"-86.60283000,30.40854000",16R EU 38148 64123,,,BUS TERMINAL,-9640582.936820785,3556172.6887713997
GREYHOUND-TITUSVILLE,1220 S WASHINGTON AVE,TITUSVILLE, ,BREVARD,-80.80772,28.60145,"-80.80772000,28.60145000",17R NM 18799 63846,,,BUS TERMINAL,-8995474.242563568,3325016.6875958242
GREYHOUND-MIAMI NORTH,16000 NW 7TH AVE   ,MIAMI, ,MIAMI-DADE,-80.2133,25.92156,"-80.21330000,25.92156000",17R NJ 78784 67233,,,BUS TERMINAL,-8929303.710827356,2989369.052544286
GREYHOUND-DELRAY BEACH,402 SE 6TH AVE,DELRAY BEACH, ,PALM BEACH,-80.06692,26.45396,"-80.06692000,26.45396000",17R NK 93021 26296,,,BUS TERMINAL,-8913008.763796499,3055415.341158996
CENTRAL FLORIDA REGIONAL TRANSPORTATION,445 W AMELIA ST,ORLANDO,32801,ORANGE,-81.38138789,28.54850906,"-81.38138789,28.54850906",17R MM 62692 58025,MUNICIPAL,292226226300040,BUS TERMINAL,-9059334.659910463,3318305.9007754857
GREYHOUND-ST AUGUSTINE,1711 DOBBS RD,ST AUGUSTINE, ,ST. JOHNS,-81.33488,29.87043,"-81.33488000,29.87043000",17R MP 67659 04475,,,BUS TERMINAL,-9054157.42529324,3486905.677020789
GREYHOUND-FORT LAUDERDALE,515 NE 3RD ST,FORT LAUDERDALE, ,BROWARD,-80.13813,26.12524,"-80.13813000,26.12524000",17R NJ 86164 89838,,,BUS TERMINAL,-8920935.824722776,3014600.740366404
GREYHOUND-LAKELAND,303 N MASSACHUSETTS AVE,LAKELAND, ,POLK,-81.95415,28.04712,"-81.95415000,28.04712000",17R MM 06223 02789,,,BUS TERMINAL,-9123094.24636714,3254915.843437101
GREYHOUND-MIAMI CUTLER RIDGE,10801 CARIBBEAN BLVD,MIAMI, ,MIAMI-DADE,-80.36682,25.5785,"-80.36682000,25.57850000",17R NJ 63592 29158,,,BUS TERMINAL,-8946393.479069741,2946969.32750722
GREYHOUND-CRYSTAL RIVER,640 SE 8TH TER,CRYSTAL RIVER, ,CITRUS,-82.58346,28.88817,"-82.58346000,28.88817000",17R LM 45594 96626,,,BUS TERMINAL,-9193148.715117628,3361420.2666900987
GREYHOUND-TAMPA,610 E POLK ST,TAMPA, ,HILLSBOROUGH,-82.45633,27.95174,"-82.45633000,27.95174000",17R LL 56737 92709,,,BUS TERMINAL,-9178996.668260025,3242890.6690408546
GREYHOUND-BIG PINE KEY,30725 OVERSEAS HWY,BIG PINE KEY, ,MONROE,-81.35157,24.66959,"-81.35157000,24.66959000",17R MH 64428 28408,,,BUS TERMINAL,-9056015.347604739,2835215.4446924445
GREYHOUND-PALATKA,220 N 11TH ST,PALATKA, ,PUTNAM,-81.63965,29.64977,"-81.63965000,29.64977000",17R MN 38091 80149,,,BUS TERMINAL,-9088084.266507763,3458610.0159579874
ESCAMBIA COUNTY AREA TRANSIT,1515 W FAIRFIELD DR,PENSACOLA,32501,ESCAMBIA,-87.23488004,30.44462953,"-87.23488004,30.44462953",16R DU 77448 68079,,,BUS TERMINAL,-9710942.425854726,3560831.8184276074
GOOD TIME TOURS,455 CORDAY ST,PENSACOLA,32503,ESCAMBIA,-87.22881174,30.46848158,"-87.22881174,30.46848158",16R DU 78036 70721,,,BUS TERMINAL,-9710266.905447027,3563912.045122303
BROWARD COUNTY MASS TRANSIT,101 NW 1ST AVENUE,FORT LAUDERDALE,33301,BROWARD,-80.14507997,26.1233034,"-80.14507997,26.12330340",17R NJ 85470 89619,COUNTY,504210011730,BUS TERMINAL,-8921709.49200418,3014360.6301226197
GREYHOUND-FORT MYERS,2250 WIDMAN WAY,FORT MYERS, ,LEE,-81.86801,26.63977,"-81.86801000,26.63977000",17R MK 13605 46830,,,BUS TERMINAL,-9113505.185485253,3078537.4099783874
GREYHOUND BUS LINE,917 HARRISON AVE,, ,BAY,-85.6603,30.16519,"-85.66030000,30.16519000",16R FU 29002 37847,,,BUS TERMINAL,-9535660.977204388,3524801.199103205
GREYHOUND-BRADENTON,3028 1ST ST,BRADENTON, ,MANATEE,-82.56305,27.47245,"-82.56305000,27.47245000",17R LL 45563 39737,,,BUS TERMINAL,-9190876.68431814,3182623.1522509437
GREYHOUND-DAYTONA BEACH,138 S RIDGEWOOD AVE,DAYTONA BEACH, ,VOLUSIA,-81.02222,29.20953,"-81.02222000,29.20953000",17R MN 97840 31200,,,BUS TERMINAL,-9019352.273333808,3402341.6348155243
GREYHOUND-FORT PIERCE,7150 OKEECHOBEE RD,FORT PIERCE, ,ST. LUCIE,-80.3976,27.41312,"-80.39760000,27.41312000",17R NL 59547 32337,,,BUS TERMINAL,-8949819.893016024,3175181.12631384
GREYHOUND-ST PETERSBURG,180 9TH ST N,ST PETERSBURG, ,PINELLAS,-82.64665,27.77339,"-82.64665000,27.77339000",17R LL 37747 73186,,,BUS TERMINAL,-9200182.993731331,3220433.3778866073
GREYHOUND,505 W BURGESS RD,PENSACOLA,32503,ESCAMBIA,-87.26183726,30.49643868,"-87.26183726,30.49643868",16R DU 74873 73826,,,BUS TERMINAL,-9713943.289813962,3567523.3540053554
GREYHOUND-CLEARWATER,2811 GULF TO BAY BLVD,CLEARWATER, ,PINELLAS,-82.72072,27.9606,"-82.72072000,27.96060000",17R LL 30738 94029,,,BUS TERMINAL,-9208428.428436536,3244007.2584761363
HILLSBOROUGH AREA REGIONAL TRANSIT,4305 E 21ST AVE,TAMPA,33605,HILLSBOROUGH,-82.4105897,27.96875964,"-82.41058970,27.96875964",17R LL 61259 94542,COUNTY,1929094BO000000000044A,BUS TERMINAL,-9173904.881528366,3245035.6653125915
GREYHOUND-OCALA,529 NE 1ST AVE,OCALA, ,MARION,-82.13596,29.19198,"-82.13596000,29.19198000",17R LN 89558 29789,,,BUS TERMINAL,-9143333.243033389,3400103.552502796
