Name,Address,City,Zip,COUNTY,X,Y,USNG,OWNERSHIP,PARCELID,NAME_OTHER,DESCRIPTION,LINK,FAC_STATUS,UAID,ACODE,AUSE,AOWNERSHIP,LAT,LONG,COMMENT,FACILITY_TYPE,x,y
RIMES-LAKECREST AIRPORT, , , ,ALACHUA,-82.15818111,29.46812306,17R LN 87701 60409,,,RIMES-LAKECREST AIRPORT,"RIMES, JOHN P.O. BOX 188  WORTHINGTON SPRINGS FL 32697",,Active,FL000216,35FA,Private,Private,29.46812305,-82.15818111,,AIRPORT,-9145806.88576607,3435363.604260296
LINK FIELD, ,GAINESVILLE,32606,ALACHUA,-82.49159959,29.69868079,17R LN 55697 86328,,04187 000 000,LINK FIELD,"ESKRIDGE, MARTY 14705 MAIN STREET  ALACHUA FL 32615",,Active,FL000221,63FD,Private,Private,29.69869444,-82.49148611,,AIRPORT,-9182922.860606937,3464876.5727647785
SULLIVAN FIELD, , , ,ALACHUA,-82.56527778,29.73416667,17R LN 48622 90355,,,SULLIVAN FIELD,20638 NW 78TH AVENUE  ALACHUA FL 32615,,Active,FL001374,63FA,Private,Private,29.73416666,-82.56527777,,AIRPORT,-9191124.679436702,3469425.009667542
PEACH ORCHARD AIRPORT, ,ARCHER,32618,ALACHUA,-82.49660692,29.55830848,17R LN 55012 70778,,04631 002 000,PEACH ORCHARD AIRPORT,"HELPLING, RAY 14208 SW ARCHER ROAD  ARCHER FL 32618",,Active,FL000238,FL66,Private,Private,29.55715277,-82.49674999,,AIRPORT,-9183480.274776174,3446899.9312155135
FLYING HORSEMAN RANCH AIRPORT, ,MELROSE,32666,ALACHUA,-82.095659,29.71523241,17R LN 94022 87733,,18794 025 000,FLYING HORSEMAN RANCH AIRPORT,"KTL HOLDINGS, LLC 810 NW 6TH STREET GAINESVILLE FL 32601",,Active,FL000574,8FD2,Private,Private,29.71524444,-82.09672222,,AIRPORT,-9138846.955791993,3466997.8923943834
SANTA FE RIVER RANCH AIRPORT, ,ALACHUA,32615,ALACHUA,-82.47858244,29.90951131,17R LP 57256 09677,,02775 000 000,SANTA FE RIVER RANCH AIRPORT,"DAVIS, SNEAD 29210 NW 122ND STREET  ALACHUA FL 32615-3240",,Active,FL000220,FA62,Private,Private,29.91008333,-82.47787499,,AIRPORT,-9181473.79822882,3491923.661340436
GLEIM FIELD, ,GAINESVILLE,32606,ALACHUA,-82.42631082,29.70258158,17R LN 62019 86680,,06043 001 000,GLEIM FIELD,"GLEIM, IRVIN P.O. BOX 12848, UNIVERSITY STN  GAINESVILLE FL 32604",,Active,FL000402,FD81,Private,Private,29.70248611,-82.42570833,,AIRPORT,-9175654.94841358,3465376.481342169
THRIFT AIRPORT, ,MACCLENNY,32063,BAKER,-82.13002778,30.34172222,17R LP 91383 57193,,052S22000000000143,THRIFT AIRPORT,"THRIFT, DALE 5671 HARLEY THRIFT RD.  MACCLENNY FL 32063-9552",,Active,FL000552,FL11,Private,Private,30.34172222,-82.13002777,,AIRPORT,-9142672.870934593,3547551.1108712927
CUYLER FIELD AIRPORT, ,SANDERSON,32087,BAKER,-82.22548411,30.36236758,17R LP 82232 59576,,321S21000000000020,CUYLER FIELD AIRPORT,"MILLER, CURTIS 10750 SOUTH RUNWAY CIRCLE  GLEN-ST. MARY FL 32040",,Active,FL000405,FD27,Private,Private,30.36238888,-82.22469444,,AIRPORT,-9153299.021135034,3550214.376572017
TYNDALL AFB, ,PANAMA CITY,32403,BAY,-85.57221076,30.06966497,16R FU 37617 27364,,07407-000-000,TYNDALL AFB,COMMAND POST 850-283-2155 U.S. AIR FORCE PANAMA CITY FL ,,Active,FL001009,PAM,Private,Military USAF,30.06996388,-85.57649444,,AIRPORT,-9525854.928381173,3512507.7730891155
COURT MARTIAL RANCH AIRPORT, , , ,BAY,-85.74576389,30.41408611,16R FU 20467 65338,,,COURT MARTIAL RANCH AIRPORT,"GARRETT, TOMMY 5801 HIGHWAY 79  VERNON FL 32462",,Active,FL000694,FD13,Private,Private,30.41408611,-85.74576388,,AIRPORT,-9545174.773787152,3556888.5751643265
TURKEYSCRATCH PLANTATION AIRPORT, , , ,BAY,-85.80833333,30.39166667,16R FU 14483 62788,,,TURKEYSCRATCH PLANTATION AIRPORT,N/A  LAMONT FL N/A,,Active,FL000531,4FL0,Private,Private,30.39166666,-85.80833333,,AIRPORT,-9552139.9724356,3553994.946047089
SANDY CREEK AIRPARK, ,PANAMA CITY,32404,BAY,-85.46242512,30.10242456,16R FU 48151 31132,,03945-000-000,SANDY CREEK AIRPARK,SANDY CREEK AIR PARK OWNERS ASSOC. 12901 PARK WAY PANAMA CITY FL 32404,,Active,FL000693,75FL,Private,Private,30.10222222,-85.46242222,,AIRPORT,-9513633.646771243,3516722.3711304776
STATE PRISON FIELD,NW STATE ROAD 16 ,STARKE,32091,BRADFORD,-82.17681735,30.05542406,17R LP 86557 25510,,00469-0-00200,STATE PRISON FIELD,"SUTTON, BRIAN FLORIDA DEPT OF CORRECTIONS 7819 NW 228TH STREET RAIFORD FL 32026-1000",,Active,FL000729,FL28,Private,Private,30.05487499,-82.17633055,,AIRPORT,-9147881.462449018,3510676.081081721
CAPE CANAVERAL AFS SKID STRIP, ,PATRICK AFB,32925,BREVARD,-80.56643623,28.46750057,17R NM 42443 49068,,,CAPE CANAVERAL AFS SKID STRIP,COMMAND POST 854-494-7001 U.S. AIR FORCE COCOA BEACH FL ,,Active,FL001014,XMR,Private,Military USAF,28.46750027,-80.56643888,,AIRPORT,-8968614.656073919,3308043.800546577
WHEELER FARMS PRIVATE AIRPORT, , , ,BREVARD,-80.51644167,27.8753,17R NL 47599 83482,,,WHEELER FARMS PRIVATE AIRPORT,4533 MICCO ROAD  MICCO FL 32976,,Active,FL000596,,Private,Private,27.87529999,-80.51644166,,AIRPORT,-8963049.286737554,3233261.049987871
PATRICK AFB,PATRICK AIR FORCE BASE,PATRICK AFB,32925,BREVARD,-80.6075511,28.2394536,17R NM 38501 23790,,,PATRICK AFB,COMMAND POST 854-494-7001 U.S. AIR FORCE COCOA BEACH FL ,,Active,FL001013,COF,Private,Military USAF,28.23945555,-80.60755277,,AIRPORT,-8973191.542566998,3279197.091234354
NASA SHUTTLE LANDING FACILITY,JOHN F. KENNEDY SPACE CENTER KENNEDY SPA,ORLANDO,32815,BREVARD,-80.69449607,28.61499561,17R NM 29865 65369,,,NASA SHUTTLE LANDING FACILITY,FL ,,Active,FL000954,TTS,Private,Military USAF,28.61499444,-80.69449444,,AIRPORT,-8982870.212134205,3326734.2709249705
ROCKLEDGE AIRPORT, ,ROCKLEDGE,32955,BREVARD,-80.71866603,28.29834146,17R NM 27584 30284,,25 362225    B   16,ROCKLEDGE AIRPORT,"MARDOSA,RONALD A. 500 BARNES BLVD.  ROCKLEDGE FL 32955",,Active,FL000943,21FA,Private,Private,28.29833333,-80.71861111,,AIRPORT,-8985560.79972935,3286640.158835181
CLARKSVILLE EXECUTIVE AIRPORT, ,ALTHA,32421,CALHOUN,-85.17934904,30.46383193,16R FU 74789 71591,,19-1N-09-0000-0007-0000,CLARKSVILLE EXECUTIVE AIRPORT,12759 NORTHWEST AIRPORT TRAIL  CLARKSVILLE FL 32430,,Active,FL000305,74FD,Private,Private,30.46408333,-85.17714166,,AIRPORT,-9482121.761219833,3563311.53549368
MARAN AIRPORT, , , ,CALHOUN,-85.38472222,30.52027778,16R FU 54980 77548,,,MARAN AIRPORT,22303 NW LONGLEAF  FOUNTAIN FL 32438,,Active,FL001108,68FD,Private,Private,30.52027777,-85.38472222,,AIRPORT,-9504983.799254157,3570603.547416987
STEEP HEAD FARM AIRPORT, ,CLARKSVILLE,32430,CALHOUN,-85.29930389,30.42088601,16R FU 63343 66652,,01-1S-11-0000-0006-0900,STEEP HEAD FARM AIRPORT,"MAYO, ROBERT P.O. BOX 49 CLARKSVILLE FL 32430",,Active,FL000304,FL15,Private,Private,30.42019444,-85.30047777,,AIRPORT,-9495475.074553927,3557766.355140212
CATTLE CREEK RANCH AIRPORT, ,ALTHA,32421,CALHOUN,-85.20733148,30.51413261,16R FU 72014 77124,,01-1N-10-0000-0010-0100,CATTLE CREEK RANCH AIRPORT,"BYRD, ANDREW 23620 NW STATE ROAD 73  ALTHA FL 32421",,Active,FL000227,50FD,Private,Private,30.51824999,-85.19881111,,AIRPORT,-9485236.751999142,3569809.4724094677
RON WOOD AIRPORT, ,ALTHA,32421,CALHOUN,-85.2904409,30.43088491,16R FU 64178 67773,,01-1S-11-0000-0001-0100,RON WOOD AIRPORT,"WOOD, RONAL P.O. BOX 150 6036 STATE ROAD 20 WEST CLARKSVILLE FL 32430",,Active,FL000306,5FD1,Private,Private,30.43194444,-85.28888888,,AIRPORT,-9494488.45045413,3559057.195396095
ADANA AIRFIELD, , , ,CHARLOTTE,-81.87094167,26.95258056,17R MK 13551 81480,,,ADANA AIRFIELD,5640 ACORN RANCH RD  PUNTA GORDA FL 33982,,Active,FL001450,40FL,Private,Private,26.95258055,-81.87094166,,AIRPORT,-9113831.537170146,3117548.564237039
CORAL CREEK AIRPORT, ,PLACIDA,33946,CHARLOTTE,-82.25000667,26.8557479,17R LK 75816 71070,,422106100008,CORAL CREEK AIRPORT,11901 GASSPARILLA ROAD  PLACIDA FL 33946,,Active,FL000710,FA54,Private,Private,26.85450833,-82.25120555,,AIRPORT,-9156028.860645618,3105460.886581974
PAYSON RANCH AIRPORT, ,PUNTA GORDA,33982,CHARLOTTE,-81.56679916,26.93729855,17R MK 43733 79616,,412701100001,PAYSON RANCH AIRPORT,"EDWARDS, RONALD 660 BEACHLAND BLVD  VERO BEACH FL 32963",,Active,FL000725,6FL3,Private,Private,26.93728055,-81.56702222,,AIRPORT,-9079974.548349818,3115640.2128708544
J. R.S STOLPORT,N HOLYOAK TER,DUNNELLON,34433,CITRUS,-82.55534021,29.00402551,17R LN 48505 09428,,17E17S14      12400,J. R.S STOLPORT,"RIZZO, JOHN P.O. BOX 2171 DUNNELLON FL 34433",,Active,FL000320,66FD,Private,Private,29.00361111,-82.55527777,,AIRPORT,-9190018.434956405,3376158.4024802633
TWELVE OAKS AIRPORT,8091 N FAIRWIND LOOP,HERNANDO,34442,CITRUS,-82.36351004,28.97924617,17R LN 67160 06452,,19E17S25      3B000 0070,TWELVE OAKS AIRPORT,"GILBERT, BEN P.O. BOX 34  HOLDER FL 34445",,Active,FL000427,5FL7,Private,Private,28.98827777,-82.37294444,,AIRPORT,-9168663.997422159,3373004.802147421
POST OAK RANCH AIRPORT,7000 W SEVEN RIVERS DR,HOMOSASSA,34448,CITRUS,-82.55293492,28.8545291,17R LM 48522 92859,,17E19S02      11000,POST OAK RANCH AIRPORT,"GROSS, GEORGE 101 VALARE LANE  CRYSTAL RIVER FL 34429-4730",,Active,FL000321,1FA1,Private,Private,28.85611111,-82.55511111,,AIRPORT,-9189750.679209957,3357143.8458320736
SEVEN FEATHERS AIRPORT, , , ,CITRUS,-82.40457,29.00664111,17R LN 63196 09534,,,SEVEN FEATHERS AIRPORT,"FAUNCE, JOHN 1786 EAST WITHLACOOCHEE TRAIL  DUNNELLON FL 34434",,Active,FL001081,10FD,Private,Private,29.00664111,-82.40456999,,AIRPORT,-9173234.771416247,3376491.326612452
HALLERS AIRPARK,OFF US HWY 17 S,GREEN COVE SPRINGS,32043,CLAY,-81.68517679,29.9045513,17R MP 33852 08406,,10-07-26-015830-013-00,HALLERS AIRPARK,BERNARD (BUZZ) GLADE 1692 VILLAGE WAY ORANGE PARK FL 32073,,Active,FL000409,7FL4,Private,Private,29.90431944,-81.68512499,,AIRPORT,-9093152.285938002,3491286.6936873426
Williams Field Airport,OFF BLUEBERRY ST,MIDDLEBURG,32068,CLAY,-81.88533691,30.04344733,17R MP 14646 23929,,22-05-24-006417-008-00,Williams Field Airport,"WILLIAMS, KENT 4273 BLUEBERRY STREET  MIDDLEBURG FL 32068",,Active,FL000599,11FL,Private,Private,30.04370833,-81.88516666,,AIRPORT,-9115434.008475268,3509135.8154974496
SPENCERS AIRPARK,5543-1 CARTER SPENCER RD,MIDDLEBURG,32068,CLAY,-81.96695322,30.06412733,17R MP 06797 26285,,13-05-23-000560-000-00,SPENCERS AIRPARK,"SPENCER, PHILLIP 5543-1 CARTER SPENCER ROAD  MIDDLEBURG FL 32068",,Active,FL000598,FL13,Private,Private,30.06404166,-81.96759722,,AIRPORT,-9124519.494264761,3511795.479397262
CLAY COUNTY / REYNOLDS AIRPARK,LEONARD C TAYLOR PKY,GREEN COVE SPRINGS,32043,CLAY,-81.66092622,29.97246341,17R MP 36236 15917,,38-06-26-016453-000-00,CLAY COUNTY / REYNOLDS AIRPARK,"BROWN, JOHN P.O. BOX 477 1065 BULKHEAD ROAD GREEN COVE SPRINGS FL 32043",,Active,FL000408,FL60,Private,Private,29.97141666,-81.65727777,,AIRPORT,-9090452.724939788,3500010.7629370326
CAMP BLANDING AAF/NG,5629 STATE ROAD 16 W,STARKE,32091,CLAY,-81.97981728,29.95185698,17R MP 05450 13854,STATE,22-06-23-000721-000-00,CAMP BLANDING AAF/NG,OPERATIONS CENTER 904-823-0461 ARMY NATIONAL GUARD STARKE FL ,,Active,FL000282,2CB,Private,Military National Guard,29.96690833,-81.98315833,,AIRPORT,-9125951.515046347,3497363.006657119
CALUSA RANCH AIRPORT, ,OCHOPEE,34141,COLLIER,-81.06447495,26.05751464,17R MJ 93550 82054,,00997560006,CALUSA RANCH AIRPORT,"DRAKE, WAYNE 662 NOTTINGHAM FOREST CIRCLE  JACKSONVILLE FL 32259",,Active,FL000601,FL77,Private,Private,26.05453611,-81.06784722,,AIRPORT,-9024056.073009321,3006206.123113702
LITTLE DEER AIRPORT, ,OCHOPEE,34141,COLLIER,-81.04208612,26.03387396,17R MJ 95789 79435,,01000040001,LITTLE DEER AIRPORT,"MUNZ, PINKY 23600 SW 162ND AVENUE  HOMESTEAD FL 33031",,Active,FL000645,16FA,Private,Private,26.030925,-81.03868055,,AIRPORT,-9021563.759156294,3003276.983107424
WING SOUTH AIRPORT, ,NAPLES,34112,COLLIER,-81.70232917,26.11651082,17R MJ 29780 88776,,00425960000,WING SOUTH AIRPORT,"WING SOUTH, INC. 4130 SKYWAY DRIVE  NAPLES FL 34112",,Active,FL000615,FA37,Private,Private,26.11675833,-81.70314166,,AIRPORT,-9095061.6800786,3013518.4780543074
ROMOR RANCH AIRPORT, ,OCHOPEE,34141,COLLIER,-81.05792019,25.98011095,17R MJ 94202 73482,,01004120008,ROMOR RANCH AIRPORT,98610 OVERSEAS HWY.  KEY LARGO FL 33037,,Active,FL000646,FA74,Private,Private,25.98092777,-81.05673611,,AIRPORT,-9023326.400449371,2996617.8073377805
WELLBORN STOLPORT, ,LAKE CITY,32055,COLUMBIA,-82.77852658,30.24527446,17R LP 28874 47302,,11-3S-15-00150-002,WELLBORN STOLPORT,"SMITH, KENNETH 10512 NW LAKE JEFFERY ROAD  WELLBORN FL 32094",,Active,FL000807,7FL2,Private,Private,30.24566666,-82.77861111,,AIRPORT,-9214863.427954575,3535116.7102911095
BRADLEY AIRSTRIP, ,FORT WHITE,32038,COLUMBIA,-82.69316732,29.92613807,17R LP 36565 11805,,34-6S-16-04057-000,BRADLEY AIRSTRIP,"BRADLEY, JUANITA P.O. BOX 337  FORT WHITE FL 32038",,Active,FL000387,FD31,Private,Private,29.92591666,-82.69309722,,AIRPORT,-9205361.277590832,3494059.109990088
LAZY S FARMS AIRPORT, ,FORT WHITE,32038,COLUMBIA,-82.64122904,29.87591793,17R LP 41499 06167,,20-7S-17-10028-000,LAZY S FARMS AIRPORT,"POPIEL, ROBERT 698 SW RASBERRY COURT  FT. WHITE FL 32038",,Active,FL000433,7FL7,Private,Private,29.87598611,-82.63888888,,AIRPORT,-9199579.535230303,3487610.2006673417
ROSSI FIELD, ,LAKE CITY,32025,COLUMBIA,-82.56922392,30.14734373,17R LP 48866 36151,,13-4S-17-08337-000,ROSSI FIELD,"ROSSI DRIVE, LLC 3025 MIDDLESEX ROAD ORLANDO FL 32803",,Active,FL000941,FL50,Private,Private,30.14719444,-82.56888888,,AIRPORT,-9191563.961740237,3522503.601030393
LAKE CITY AIRPARK, ,LAKE CITY,32025,COLUMBIA,-82.60317618,30.04445823,17R LP 45436 24794,,22-5S-17-09322-025,LAKE CITY AIRPARK,P.O. BOX 1902  LAKE CITY FL 32056,,Active,FL000509,FL27,Private,Private,30.04384722,-82.60391666,,AIRPORT,-9195343.509794513,3509265.8149705264
CANNON CREEK AIRPORT, ,LAKE CITY,32024,COLUMBIA,-82.66720611,30.15652933,17R LP 39443 37303,,12-4S-16-02941-123,CANNON CREEK AIRPORT,"SESSIONS, RAYMOND 2409 SW SISTER'S WELCOME RD STE101  LAKE CITY FL 32025",,Active,FL000507,15FL,Private,Private,30.15573611,-82.66734722,,AIRPORT,-9202471.290005047,3523686.139197709
SUNNY BREEZE AIRPORT, , , ,DESOTO,-81.97055556,27.05555556,17R MK 03750 92959,,,SUNNY BREEZE AIRPORT,SUNNYBREEZE AIRPORT LLC 8355 SW LIVERPOOL DRIVE  ARCADIA FL 34269,,Active,FL000892,09FL,Private,Private,27.05555555,-81.97055555,,AIRPORT,-9124920.504563125,3130414.3978531645
LAKE SUZY ESTATES AIRPORT, ,ARCADIA,34269,DESOTO,-82.043701,27.04255652,17R LK 96484 91577,,31-39-23-0000-0207-0000,LAKE SUZY ESTATES AIRPORT,GERALD DOWNS 11970 SW KINGSWAY CIR LAKE SUZY FL 34269,,Active,FL000720,20FL,Private,Private,27.04255555,-82.04369999,,AIRPORT,-9133063.017957205,3128789.6303322506
CARLSTROM FIELD, ,ARCADIA,34266,DESOTO,-81.85422719,27.12321565,17R ML 15338 00370,,31-38-25-0000-0050-0000,CARLSTROM FIELD,"THOMPSON, HALDEN 7115 SE AIRFIELD AVENUE  ARCADIA FL 34266",,Active,FL000236,92FL,Private,Private,27.12060833,-81.84980555,,AIRPORT,-9111970.89052731,3138874.367845734
BRIGHT HOUR RANCH AIRPORT, , , ,DESOTO,-81.74972222,27.20027778,17R ML 25747 08840,,,BRIGHT HOUR RANCH AIRPORT,"BATEMAN, ROWDY 2100 SE BRIGHT HOUR GRADE  ARCADIA FL 34266",,Active,FL000232,,Private,Private,27.20027777,-81.74972222,,AIRPORT,-9100337.450233169,3148516.171099033
FRIERSON GROVE AIRPORT, ,ARCADIA,34266,DESOTO,-81.8808105,27.30384189,17R ML 12844 20396,,35-36-24-0000-0063-0000,FRIERSON GROVE AIRPORT,"SLATER, FRENNACE 2144 N. W. BROWNSVILLE ST & N.WJERRY TER.. ARCADIA FL 34265",,Active,FL000234,0FA1,Private,Private,27.30393333,-81.88036111,,AIRPORT,-9114930.130261542,3161484.335239972
MCDONALDS FIELD, ,ARCADIA,34266,DESOTO,-81.91232895,27.19877441,17R ML 09640 08780,,04-38-24-0000-0010-0000,MCDONALDS FIELD,"MCDONALD, RONALD 1529 SW CR 661 ARCADIA FL 34266",,Active,FL000235,8FL1,Private,Private,27.19699444,-81.91563888,,AIRPORT,-9118438.748317694,3148328.0095857787
HENNESSY AIRPORT, ,ARCADIA,34266,DESOTO,-81.84793733,27.05594846,17R MK 15911 92915,,30-39-25-0000-0100-0000,HENNESSY AIRPORT,11751 SE HEAD AVE  ARCADIA FL 34266,,Active,FL000233,26FD,Private,Private,27.05116666,-81.84813888,,AIRPORT,-9111270.706216156,3130463.5099338396
DEEP FOREST AIRPORT,3702 SANS PAREIL ST,JACKSONVILLE,32256,DUVAL,-81.45005086,30.24463813,17R MP 56700 45979,,1677714000R,DEEP FOREST AIRPORT,"CATHEY, JOHN P.O. BOX 16771  JACKSONVILLE FL 32245",,Active,FL000454,FD48,Private,Private,30.24098611,-81.44990277,,AIRPORT,-9066978.186350409,3535034.71297541
MAYPORT NS (ADM DAVID L. MCDONALD FIELD),MAYPORT RD,JACKSONVILLE,32227,DUVAL,-81.42369794,30.39190653,17R MP 59296 62289,FEDERAL,1682950000R,MAYPORT NS (ADM DAVID L. MCDONALD FIELD),BASE OPERATIONS 904-270-6130 U.S. NAVY MAYPORT FL ,,Active,FL000568,NRB,Private,Military Navy,30.39190555,-81.42369722,,AIRPORT,-9064044.593496019,3554025.9006865527
JACKSONVILLE NAS /TOWERS FIELD/, ,JACKSONVILLE,32212,DUVAL,-81.67236509,30.23701506,17R MP 35305 45240,FEDERAL,0984050000R,JACKSONVILLE NAS /TOWERS FIELD/,BASE OPERATIONS 904-542-2511 U.S. NAVY JACKSONVILLE FL ,,Active,FL000461,NIP,Private,Military Navy,30.23468333,-81.67648333,,AIRPORT,-9091726.093752341,3534052.4455807656
WHITEHOUSE NOLF,N HALSEMA RD,JACKSONVILLE,32220,DUVAL,-81.87852181,30.35302125,17R MP 15568 58231,,0013610000R,WHITEHOUSE NOLF,QUARTERDECK 904-270-5401 U.S. NAVY JACKSONVILLE FL ,,Active,FL000462,NEN,Private,Military Navy,30.35023888,-81.88316111,,AIRPORT,-9114675.354993187,3549008.6238357183
RIVERGATE LANDING, , , ,DUVAL,-81.67280123,30.15873638,17R MP 35212 36565,,,RIVERGATE LANDING,"GREEN, ALAN 12918 RIVERPLACE COURT  JACKSONVILLE FL 32223",,Active,FL000993,,Private,Private,30.15869444,-81.67294444,,AIRPORT,-9091774.644694384,3523970.28681535
SAUFLEY FIELD NOLF, ,PENSACOLA,32526,ESCAMBIA,-87.34111465,30.47020571,16R DU 67256 70939,,361S311100000000,SAUFLEY FIELD NOLF,OPERATIONS CENTER 850-623-7333 U.S. NAVY PENSACOLA FL ,,Active,FL001020,NUN,Private,Military Navy,30.46972222,-87.33805555,,AIRPORT,-9722768.407830168,3564134.726725315
MCKINNON AIRPARK,6001 S HWY 99,WALNUT HILL,32568,ESCAMBIA,-87.47421854,30.81569019,16R DV 54641 09272,,314N324100000001,MCKINNON AIRPARK,"SIMARD, THOMAS 6001 SOUTH HIGHWAY 99  WALNUT HILL FL 32568",,Active,FL000798,48FL,Private,Private,30.81407499,-87.47498055,,AIRPORT,-9737585.465361224,3608836.068054447
COLLIER PINE BARREN AIRPORT, ,MC DAVID,32568,ESCAMBIA,-87.35824267,30.8267346,16R DV 65738 10454,,284N313301003001,COLLIER PINE BARREN AIRPORT,"COLLIER, NEAL 3251 SOUTH PINE BARREN ROAD  MCDAVID FL 32568",,Active,FL000290,FD89,Private,Private,30.82713055,-87.35831111,,AIRPORT,-9724675.090495616,3610267.717249378
PENSACOLA NAS / FORREST SHERMAN FIELD,PENSACOLA NAS,PENSACOLA,32508,ESCAMBIA,-87.31723828,30.34969126,16R DU 69510 57577,,013S311000000002,PENSACOLA NAS / FORREST SHERMAN FIELD,OPERATIONS CENTER 850-452-3100 U.S. NAVY PENSACOLA FL ,,Active,FL001021,NPA,Private,Military Navy,30.35297777,-87.32024999,,AIRPORT,-9720110.502608476,3548579.05595437
DOG ISLAND AIRPORT,BEACH ROAD ,CARRABELLE,32322,FRANKLIN,-84.58797045,29.80953057,16R GU 33112 00120,,,DOG ISLAND AIRPORT,"CANNON, RANDY HC 63, BOX 5037  CARRABELLE FL 32322",,Active,FL000287,FA43,Private,Private,29.80978055,-84.58809444,,AIRPORT,-9416289.797570884,3479090.1947445795
WATSON FARM AIRPORT, , , ,GADSDEN,-84.64166667,30.61194444,16R GU 26078 88967,,,WATSON FARM AIRPORT,"WATSON, DAVID 3403 SOLOMON DAIRY ROAD  QUINCY FL 32352",,Active,FL000786,49FD,Private,Private,30.61194444,-84.64166666,,AIRPORT,-9422267.23324744,3582454.626677281
RUTTEN DUSTING STRIP, ,HAVANA,32333,GADSDEN,-84.36902572,30.67887791,16R GU 52049 96968,,2-07-3N-1W-0000-00121-0000,RUTTEN DUSTING STRIP,"RUTTEN, LOUIS ""DANNY"" 1836 CONCORD BAINBRIDGE ROAD  HAVANA FL 32333",,Active,FL000425,FD55,Private,Private,30.67936111,-84.36907222,,AIRPORT,-9391916.982163474,3591115.1731068557
SARANAC FARM AIRPORT, , , ,GADSDEN,-84.47472222,30.6525,16R GU 41985 93811,,,SARANAC FARM AIRPORT,"POINT MILLIGAN ROAD, COUNTY ROAD 161  HAVANA FL N/A",,Active,FL000960,9FL2,Private,Private,30.6525,-84.47472222,,AIRPORT,-9403683.062685275,3587701.409891538
DOGWOOD  FARMS AIRPORT, , , ,GADSDEN,-84.42194444,30.59527778,16R GU 47190 87581,,,DOGWOOD  FARMS AIRPORT,"VALDENE, GUY 606 ROBIN LANE  HAVANA FL 32333",,Active,FL000426,FA26,Private,Private,30.59527777,-84.42194444,,AIRPORT,-9397807.867265211,3580299.0518195424
SAW WHET FARMS AIRPORT, ,BELL,32619,GILCHRIST,-82.87299321,29.69186128,17R LN 18782 86109,,24-09-14-0000-0008-0000,SAW WHET FARMS AIRPORT,"WORTHMANN, THOMAS 4009 COUNTY ROAD 232 WEST  BELL FL 32619",,Active,FL000247,6FL9,Private,Private,29.68988888,-82.87277777,,AIRPORT,-9225379.405034639,3464002.659300434
FOX FIELD, ,BRANFORD,32008,GILCHRIST,-82.79873608,29.88940044,17R LP 26309 07889,,10-07-15-0000-0010-0010,FOX FIELD,"MANNA, RONALD 10350 NE 5TH AVENUE  BRANFORD FL 32008",,Active,FL000272,FL02,Private,Private,29.88851388,-82.79781944,,AIRPORT,-9217113.13879521,3489341.2088518217
SHADY BEND AIRPORT, ,BELL,32619,GILCHRIST,-82.92587342,29.81391612,17R LN 13890 99721,,05-08-14-0633-0000-0001,SHADY BEND AIRPORT,"CROOK, TRACY 5500 NW 72ND WAY  BELL FL 32619",,Active,FL000246,9FL5,Private,Private,29.81362499,-82.92583333,,AIRPORT,-9231266.003055364,3479652.8509277115
RUSH AIRFIELD, , , ,GILCHRIST,-82.72916667,29.69233333,17R LN 32700 85944,,,RUSH AIRFIELD,"RUSH, VIRGIL 3319 SE 40TH WAY  TRENTON FL 32693",,Active,FL001140,35FD,Private,Private,29.69233333,-82.72916666,,AIRPORT,-9209368.707087431,3464063.150363429
FLYING HARNESS FARM AIRPORT,SW 22 CT/AIRSTRIP,BELL,32619,GILCHRIST,-82.84411169,29.71956996,17R LN 21625 89135,,07-09-15-0000-0002-0010,FLYING HARNESS FARM AIRPORT,1710 SW 15TH STREET  BELL FL 32619,,Active,FL000249,37FL,Private,Private,29.71944444,-82.84406944,,AIRPORT,-9222164.328296017,3467553.8676001574
LYKES MOORE HAVEN AIRPORT, , , ,GLADES,-81.14007639,26.87816083,17R MK 86087 72948,,,LYKES MOORE HAVEN AIRPORT,"ZAHN, WAYNE 106 SW CR 721  OKEECHOBEE FL 34974",,Active,FL001149,,Private,Private,26.87816083,-81.14007638,,AIRPORT,-9032471.986525152,3108257.7844918356
FLYING L AIRPORT, , , ,GLADES,-81.525,26.79777778,17R MK 47818 64145,,,FLYING L AIRPORT,"LUMLEY, WILLIAM 7320 SKYLINE DRIVE  DELRAY BEACH FL 33446",,Active,FL000891,,Private,Private,26.79777777,-81.525,,AIRPORT,-9075321.486941049,3098229.3927002023
LYKES SILVER LAKE PRIVATE AIRPORT, , , ,GLADES,-81.56244444,26.91916667,17R MK 44156 77606,,,LYKES SILVER LAKE PRIVATE AIRPORT,"ZAHN, WAYNE 106 SW CR 721  OKEECHOBEE FL 34974",,Active,FL001287,,Private,Private,26.91916666,-81.56244444,,AIRPORT,-9079489.783365011,3113376.316983085
LYKES BRIGHTON AIRPORT, ,OKEECHOBEE,34974,GLADES,-81.08687775,27.19051392,17R ML 91394 07539,,A11-38-32-A00-0010-0000,LYKES BRIGHTON AIRPORT,106 SW CR 721  OKEECHOBEE FL 34974,,Active,FL000649,8FD5,Private,Private,27.18893611,-81.08701111,,AIRPORT,-9026549.94168647,3147294.1750349808
SUNDANCE FARMS AIRPORT, ,LABELLE,33935,GLADES,-81.48563215,26.79753286,17R MK 51731 64102,,A23-42-28-A00-0070-0000,SUNDANCE FARMS AIRPORT,"MUNZ, CHARLES 23600 SW 162 AVE  HOMESTEAD FL 33031",,Active,FL000498,FD20,Private,Private,26.80034166,-81.48507777,,AIRPORT,-9070939.077856857,3098198.8487099092
SQUIRES AVIATION RANCH AIRPORT, , , ,HAMILTON,-83.18358167,30.50021056,17R KP 90438 76242,,,SQUIRES AVIATION RANCH AIRPORT,"SQUIRES, ROBIN 3414 NW 44TH STREET  JASPER FL 32052",,Active,FL001139,FD63,Private,Private,30.50021055,-83.18358166,,AIRPORT,-9259953.953562837,3568010.6589879617
DJ FARM AIRPORT, , , ,HAMILTON,-83.14777778,30.46027778,17R KP 93790 71749,,,DJ FARM AIRPORT,6299 SW 52 LANE  JASPER FL 32052,,Active,FL001283,,Private,Private,30.46027777,-83.14777777,,AIRPORT,-9255968.282801446,3562852.5301191257
BIRD FIELD, ,JENNINGS,32053,HAMILTON,-83.25931507,30.62243048,17R KP 83439 89934,,5064-000,BIRD FIELD,"BIRD, FRANK 435 NW 18TH PLACE  JENNINGS FL 32053",,Active,FL000472,FA11,Private,Private,30.62186111,-83.25947222,,AIRPORT,-9268384.557912726,3583811.0236389893
CREWS HOMESTEAD RANCH AIRPORT, ,WAUCHULA,33873,HARDEE,-81.61091779,27.62204591,17R ML 39724 55484,,10-33-27-0000-10010-0000,CREWS HOMESTEAD RANCH AIRPORT,"CREWS, CHRISTY P.O. BOX 1669  AVON PARK FL 33826-1669",,Active,FL000241,FL01,Private,Private,27.62083333,-81.61083333,,AIRPORT,-9084885.81119329,3201405.454175858
GRIFFINS PEACE RIVER RANCH AIRPORT, ,ZOLFO SPRINGS,33890,HARDEE,-81.83146801,27.41432881,17R ML 17808 32601,,20-35-25-0000-10010-0000,GRIFFINS PEACE RIVER RANCH AIRPORT,"HURST, STEWART P.O. BOX 127  FROSTPROOF FL 33843",,Active,FL000840,FL00,Private,Private,27.41893055,-81.83258333,,AIRPORT,-9109437.349986289,3175332.7125522387
MCDANIEL RANCH AIRPORT, ,CLEWISTON,33440,HENDRY,-81.02305605,26.39388852,17R MK 97700 19305,,1 33 47 15 A00 0001.0000,MCDANIEL RANCH AIRPORT,"MCDANIEL, DAVID (PARTNER/PILOT) 32595 COUNTY ROAD 833  CLEWISTON FL 33440",,Active,FL000927,0FL9,Private,Private,26.39388888,-81.02305555,,AIRPORT,-9019445.341645205,3047948.079279512
DEVILS GARDEN STRIP, , , ,HENDRY,-81.00055556,26.45083333,17R MK 99944 25612,,,DEVILS GARDEN STRIP,"ZIPPERER, R DOUGLAS P.O. BOX 640  FORT MYERS FL 33902",,Active,FL000886,FA18,Private,Private,26.45083333,-81.00055555,,AIRPORT,-9016940.598503381,3055026.5808448973
WILLIAMS SKY MANOR AIRPORT, ,ALVA,33920,HENDRY,-81.50622108,26.73859196,17R MK 49659 57582,,1 28 43 15 A00 0009.0000,WILLIAMS SKY MANOR AIRPORT,"WILLIAMS, WILLIAM 4205 FORT DENAUD ROAD  LA BELLE FL 33935",,Active,FL000497,FA51,Private,Private,26.73895555,-81.50618888,,AIRPORT,-9073231.027544416,3090850.0585398134
COTTON STRIP, ,LABELLE,33935,HENDRY,-81.53384192,26.71326598,17R MK 46900 54788,,1 28 43 28 A00 0006.0000,COTTON STRIP,"SHULTS, MICHAEL 6190A WEST STATE ROAD 80  LABELLE FL 33935",,Active,FL000502,17FA,Private,Private,26.7134,-81.53535555,,AIRPORT,-9076305.765238725,3087693.569178735
BIG CYPRESS AIRFIELD, ,CLEWISTON,33440,HENDRY,-80.99040917,26.32646318,17R NK 00957 11838,,1 33 48 12 A00 0001.0000,BIG CYPRESS AIRFIELD,35201 EAGLES LANDING  CLEWISTON FL 33440,,Active,FL000444,59FD,Private,Private,26.32027777,-80.98777777,,AIRPORT,-9015811.10800212,3039571.313726685
HARPERS FLY-IN RANCH AIRPORT, ,CLEWISTON,33440,HENDRY,-81.16383583,26.72915289,17R MK 83706 56447,,1 32 43 19 A00 0010.0000,HARPERS FLY-IN RANCH AIRPORT,"HARPER, ROBERT 14825 CENTER AVENUE  CLEWISTON FL 33440",,Active,FL001113,0FL0,Private,Private,26.73055555,-81.16388888,,AIRPORT,-9035116.875422452,3089673.5428301147
CHARLTON STRIP, ,LABELLE,33935,HENDRY,-81.40428048,26.52151336,17R MK 59720 33503,,1 29 45 34 A00 0013.0000,CHARLTON STRIP,"CHARLTON, JOHN P.O. BOX 56  FELDA FL 33930",,Active,FL000206,05FL,Private,Private,26.52305555,-81.40833333,,AIRPORT,-9061883.050907325,3063817.302891737
SOUTHPOINT AIRPORT, ,ALVA,33920,HENDRY,-81.53894983,26.76860816,17R MK 46418 60920,,1 28 43 05 A00 0001.0200,SOUTHPOINT AIRPORT,"MORRISION, ROBERT 110 KIRBY THOMPSON ROAD  FORT DENAUD FL 33935",,Active,FL000501,95FD,Private,Private,26.76833333,-81.53888888,,AIRPORT,-9076874.375347769,3094592.021330819
DUDA AIRSTRIP, ,LABELLE,33935,HENDRY,-81.48608305,26.58011067,17R MK 51595 40021,,1 28 45 11 A00 0001.0000,DUDA AIRSTRIP,TRACY DUDA CHAPMAN 12250 SOUTH HWY. 29  FELDA FL 33930,,Active,FL000496,08FA,Private,Private,26.57944444,-81.48388888,,AIRPORT,-9070989.271539586,3071109.3586688302
CHINESEGUT AIRPORT,PILOTS PATH,BROOKSVILLE,34601,HERNANDO,-82.36800044,28.61142452,17R LM 66254 65700,,R35 421 19 7051 0000 0070,CHINESEGUT AIRPORT,"SELPH, DEBRA D. SELPH 22270 PILOTS PATH BROOKSVILLE FL 34601",,Active,FL000276,5FD7,Private,Private,28.61930555,-82.36888888,,AIRPORT,-9169163.86620879,3326281.4342983747
GRAND VISTA RANCH, , , ,HERNANDO,-82.30472222,28.53972222,17R LM 72355 57686,,,GRAND VISTA RANCH,26756 MONDON HILL ROAD  BROOKSVILLE FL 34601,,Active,FL001462,,Private,Private,28.53972222,-82.30472222,,AIRPORT,-9162119.76760157,3317192.4088492463
LYKES FT. BASINGER AIRSTRIP, , , ,HIGHLANDS,-81.15,27.37888889,17R ML 85167 28410,,,LYKES FT. BASINGER AIRSTRIP,"TODD, THOMAS 490 BUCKHORN ROAD  LORIDA FL 33857",,Active,FL000890,,Private,Private,27.37888888,-81.15,,AIRPORT,-9033576.6778761,3170889.1841855873
PLACID LAKES AIRPORT, ,LAKE PLACID,33852,HIGHLANDS,-81.41332881,27.24523986,17R ML 59080 13665,,C14372919000100420,PLACID LAKES AIRPORT,215 SENECA DR NW  LAKE PLACID FL 33852,,Active,FL000522,09FA,Private,Private,27.24560277,-81.41312777,,AIRPORT,-9062890.306837866,3154144.781912669
LAKE PERSIMMON AIRSTRIP, ,LAKE PLACID,33852,HIGHLANDS,-81.41106578,27.35443305,17R ML 59344 25759,,,LAKE PERSIMMON AIRSTRIP,"SNAVELY, BILL 115 HEINLEY ROAD  LAKE PLACID FL 33852-8137",,Active,FL000520,03FA,Private,Private,27.35309722,-81.40812777,,AIRPORT,-9062638.387648845,3167823.6916264025
VINCES AIRPORT, ,LAKE PLACID,33852,HIGHLANDS,-81.38701134,27.23886194,17R ML 61683 12951,,C23372902000C0002C,VINCES AIRPORT,"PETERS, TRACY 3950 PLACID VIEW DRIVE  LAKE PLACID FL 33852",,Active,FL000523,FA60,Private,Private,27.23805555,-81.39055555,,AIRPORT,-9059960.659002822,3153346.2189431377
BLUE HEAD RANCH, ,VENUS,33960,HIGHLANDS,-81.54261463,27.15936819,17R ML 46240 04203,,C023828A0000200000,BLUE HEAD RANCH,"BUNCE, YVONNE PO BOX 1318  LAKE WALES FL 33859",,Active,FL000521,90FD,Private,Private,27.16255,-81.54285555,,AIRPORT,-9077282.338623995,3143396.847077318
MACDILL AFB,6000 N COMMERCE ST,TAMPA,33621,HILLSBOROUGH,-82.52148425,27.84919137,17R LL 50186 81426,OTHER PUBLIC,183020ZZZ000005565000A,MACDILL AFB,COMMAND POST 813-828-4361 U.S. AIR FORCE TAMPA FL ,,Active,FL000780,MCF,Private,Military USAF,27.84919166,-82.52148333,,AIRPORT,-9186249.605940958,3229973.54241481
GYRO TOWN USA STOLPORT, , , ,HILLSBOROUGH,-82.24416667,27.68444444,17R LL 77310 62866,,,GYRO TOWN USA STOLPORT,19242 GRANGE HALL LP  WIMAUMA FL 33598,,Active,FL001037,23FL,Private,Private,27.68444444,-82.24416666,,AIRPORT,-9155378.75408998,3209247.3914197832
STANCHESTER AIRPORT, , , ,HILLSBOROUGH,-82.14,27.80583333,17R LL 87707 76214,,,STANCHESTER AIRPORT,"DEWHURST, SEBASTIAN 12722 MANNHURST OAK LANE  LITHIA FL 33547",,active,FL001074,0FL6,Private,Private,27.80583333,-82.14,,AIRPORT,-9143782.973755235,3224515.796908884
WIMAUMA AIRPARK, ,LITHIA,33547,HILLSBOROUGH,-82.28286714,27.71197447,17R LL 73525 65955,,203211ZZZ000003222300U,WIMAUMA AIRPARK,"MCCRAW, PEARL 6505 HWY 674 WIMAUMA FL 33598",,Active,FL000823,FD77,Private,Private,27.71166666,-82.28305555,,AIRPORT,-9159686.870937765,3212708.651867754
BLACKWATER CREEK ULTRALIGHT PARK, , , ,HILLSBOROUGH,-82.16111111,28.14444444,17R LM 85984 13748,,,BLACKWATER CREEK ULTRALIGHT PARK,"CANNON, ROY BLACKWATER ULTRALIGHT FLIGHTPARK, INC. 9002 STATE  PLANT CITY FL 33566",,Active,FL000711,9FD2,Private,Private,28.14444444,-82.16111111,,AIRPORT,-9146133.05187674,3267197.1650813296
MIDWAY LAKE AIRPORT, , , ,HILLSBOROUGH,-82.0925,28.04166667,17R LM 92620 02299,,,MIDWAY LAKE AIRPORT,"VERNER, EDWARD P.O. BOX 1118  PLANT CITY FL 33564",,Active,FL001145,79FD,Private,Private,28.04166666,-82.0925,,AIRPORT,-9138495.297979794,3254228.019357387
FELLSMERE AIRPORT, ,FELLSMERE,32948,INDIAN RIVER,-80.66617558,27.7402504,17R NL 32900 68473,,31370000001210000001.0,FELLSMERE AIRPORT,"CHANDLER, DAVID 7735 COUNTY ROAD 512  FELLSMERE FL 32948",,Active,FL000348,4FL3,Private,Private,27.74169444,-80.66616666,,AIRPORT,-8979717.590290828,3216264.6030758703
FLY IN RANCHES AIRPORT, ,VERO BEACH,32968,INDIAN RIVER,-80.49881364,27.56250928,17R NL 49475 48840,,33383500002000000011.0,FLY IN RANCHES AIRPORT,"YOUNGBLOOD, BOB 2450 84TH AVENUE SW  VERO BEACH FL 32968",,Active,FL000794,FD25,Private,Private,27.56253611,-80.49977499,,AIRPORT,-8961086.943960864,3193927.3516175454
INDIAN RIVER AERODROME,WEST OF RANCH RD ON 5TH ST. SW,VERO BEACH,32968,INDIAN RIVER,-80.50219727,27.59841283,17R NL 49125 52816,,,INDIAN RIVER AERODROME,"IRAPOA, INC. 460 SOPWITH DR. VERO BEACH FL 32968",,Active,FL000792,FL74,Private,Private,27.59864444,-80.50199722,,AIRPORT,-8961463.607689522,3198436.5335074523
BROOCKE AIRPATCH, ,VERO BEACH,32967,INDIAN RIVER,-80.454416,27.70860563,17R NL 53787 65042,,32390800001011000001.0,BROOCKE AIRPATCH,"BROOCKE, W 6185 65TH STREET  VERO BEACH FL 32967",,Active,FL000824,FL95,Private,Private,27.70864166,-80.45283055,,AIRPORT,-8956144.621416729,3212285.0525650643
LAWRENCE AIRPORT, ,GRAND RIDGE,32442,JACKSON,-85.02593525,30.7150261,16R FU 89032 99684,,27-4N-08-0000-0150-0070,LAWRENCE AIRPORT,"LAWRENCE, GODFREY 6835 HIWAY  90  GRAND RIDGE FL 32442",,Active,FL000407,1FD0,Private,Private,30.71527777,-85.02444444,,AIRPORT,-9465043.816485511,3595794.897226564
CHIPOLA AIRPARK, ,GREENWOOD,32443,JACKSON,-85.16368313,30.8863727,16R FV 75527 18453,,30-6N-09-0000-0110-0000,CHIPOLA AIRPARK,"BAKER, BOBBY P.O. BOX 5729  MARIANNA FL 32447-5729",,Active,FL001121,5FL8,Private,Private,30.88824388,-85.16770722,,AIRPORT,-9480377.8398033,3618001.250624724
YODER AIRPORT, , , ,JACKSON,-85.02583333,30.6075,16R FU 89251 87764,,,YODER AIRPORT,620 HIGHWAY 69  GRAND RIDGE FL 32442,,Active,FL000986,,Private,Private,30.6075,-85.02583333,,AIRPORT,-9465032.470886445,3581879.7705302713
KILPATRICK FARM AIRPORT, ,SNEADS,32460,JACKSON,-84.91770114,30.72741241,16R FV 99373 01244,,22-4N-07-0000-0020-0000,KILPATRICK FARM AIRPORT,"KILPATRICK, KEN 158 RICE ROAD  CHATTAHOOCHEE FL 32324",,Active,FL000759,6FL2,Private,Private,30.72527777,-84.9177,,AIRPORT,-9452995.249961251,3597398.8252239204
WATSON AIRPORT, ,GRACEVILLE,32440,JACKSON,-85.41587785,30.95232412,16R FV 51314 25394,,03-6N-12-0000-0030-0020,WATSON AIRPORT,"WATSON, DAVID 2178 HIGHWAY 2  GRACEVILLE FL 32440",,Active,FL000283,27FL,Private,Private,30.95268333,-85.41743333,,AIRPORT,-9508452.028374372,3626559.0692584338
KIRKLAND AIRPORT, ,GRACEVILLE,32440,JACKSON,-85.49221141,30.9799013,16R FV 43980 28349,,25-7N-13-0000-0080-0000,KIRKLAND AIRPORT,"5673 HWY  GRACEVILLE, FL 32440",,Active,FL000406,FD26,Private,Private,30.98184999,-85.49243333,,AIRPORT,-9516949.44147678,3630139.219010568
LANDS FIELD, ,MARIANNA,32448,JACKSON,-85.31076004,30.69463654,16R FU 61787 96978,,02-3N-11-0000-0030-0000,LANDS FIELD,"LAND, LINDA 3457 MYSTERY SPRINGS ROAD  MARIANNA FL 32448",,Active,FL000565,21FD,Private,Private,30.69463888,-85.31076111,,AIRPORT,-9496750.366529763,3593155.0610296694
FOLSOM AIRPORT, , , ,JACKSON,-85.08333333,30.6725,16R FU 83615 94874,,,FOLSOM AIRPORT,"FOLSOM, GARY & SHIRLEY 6155 ROCKY CREEK ROAD  MARIANNA FL 32448",,Active,FL001038,2FL3,Private,Private,30.6725,-85.08333333,,AIRPORT,-9471433.34160315,3590289.6747426
NORTH AMERICAN FARMS AIRPORT, ,BASCOM,32423,JACKSON,-85.06952519,30.96487781,16R FV 84378 27308,,31-7N-08-0000-0010-0000,NORTH AMERICAN FARMS AIRPORT,"HALL, JOSEPH 5559 CONCORD ROAD  BASCOM FL 32423",,Active,FL000558,56FD,Private,Private,30.98111111,-85.06833333,,AIRPORT,-9469896.226121936,3628188.698052498
FINLAYSON FARMS AIRPORT, ,GREENVILLE,32331,JEFFERSON,-83.65296997,30.61584846,17R KP 45677 90029,,32-3N-7E-0000-0020-0000,FINLAYSON FARMS AIRPORT,"FINLAYSON, JOHN 25 FINCREST CIRCLE  GREENVILLE FL 32331",,Active,FL000410,9FL8,Private,Private,30.61659166,-83.65238055,,AIRPORT,-9312206.020148024,3582959.6039449815
JEFFERSON LANDINGS AIRPORT, ,GREENVILLE,32331,JEFFERSON,-83.70609761,30.58659397,17R KP 40504 86907,,10-2N-6E-0510-000A-0190,JEFFERSON LANDINGS AIRPORT,13 EAST 10TH WAY  GREENVILLE FL 32331,,Active,FL000607,74FL,Private,Private,30.58684722,-83.70601944,,AIRPORT,-9318120.162657332,3579176.0830336367
CHARLOTTES FIELD, ,TALLAHASSEE,32317,JEFFERSON,-84.03454433,30.47744847,16R GU 84694 75431,,21-1N-3E-0000-0121-0000,CHARLOTTES FIELD,"BRAGDON, JIM 424 GREATER ELIZABETH  MONTICELLO FL 32344",,Active,FL000770,53FD,Private,Private,30.4775,-84.03472222,,AIRPORT,-9354682.684209945,3565070.2144034733
FORT ATKINSON PLANTATION AIRPARK, , , ,LAFAYETTE,-83.30638889,30.19638889,17R KP 77963 42795,,,FORT ATKINSON PLANTATION AIRPARK,ROB HARPER IV 4485 NORTH CR 53 MAYO FL 32066,,Active,FL001247,9FD7,Private,Private,30.19638888,-83.30638888,,AIRPORT,-9273624.790916558,3528818.864716941
R. O. RANCH AIRPORT, ,MAYO,32066,LAFAYETTE,-83.26766767,29.91481974,17R KP 81073 11508,,3106110000000000200,R. O. RANCH AIRPORT,SUWANNEE RIVER WATER MANAGEMENT DISTRICT 9225 COUNTY ROAD 49  LIVE OAK FL 32060,,ACTIVE,FL000567,33FD,Private,Private,29.91461111,-83.26759722,,AIRPORT,-9269314.364819191,3492605.4071688573
KINGS FIELD, , , ,LAKE,-81.80027778,28.50861111,17R MM 21685 53806,,,KINGS FIELD,"KING, JACK 11320 MONTE VISTA ROAD  CLERMONT FL 34711",,Active,FL001327,21FL,Private,Private,28.50861111,-81.80027777,,AIRPORT,-9105965.268987319,3313250.6710159443
FLYING H AIRPORT, ,FRUITLAND PARK,34731,LAKE,-81.88896905,28.87609856,17R MM 13309 94583,,341824000400004100,FLYING H AIRPORT,"HUMPHREY, DEAN 35800 GRAYS AIRPORT ROAD  FRUITLAND PARK FL 34731",,Active,FL000394,FL99,Private,Private,28.87609722,-81.88896944,,AIRPORT,-9115838.33592937,3359885.589563703
FLORIDA FLYING GATORS ULTRALIGHT PARK, , , ,LAKE,-81.80299827,28.62766854,17R MM 21507 66999,,,FLORIDA FLYING GATORS ULTRALIGHT PARK,"GRUENER, JOHN PO BOX 38  CASSELBERRY FL 32718",,Active,FL000606,3FD4,Private,Private,28.627775,-81.80285555,,AIRPORT,-9106268.112721402,3328341.3985084896
SHEETS AIRPORT, ,GROVELAND,34736,LAKE,-81.84671716,28.53286653,17R MM 17160 56525,,012224510000500000,SHEETS AIRPORT,"MENEFEE, FRANK 2444 BAR HARBOR BAY  MOUNT DORA FL 32757",,Active,FL000413,FA42,Private,Private,28.53361111,-81.84702222,,AIRPORT,-9111134.877010792,3316323.701902955
TEX MERRITT PRIVATE AIRSTRIP, ,GROVELAND,34736,LAKE,-81.91813606,28.66777156,17R MM 10287 71523,,092124000300000400,TEX MERRITT PRIVATE AIRSTRIP,"MERRITT, TEX P.O. BOX 86  OKAHUMPA FL 34762",,Active,FL000537,51FD,Private,Private,28.66777222,-81.91813611,,AIRPORT,-9119085.192773871,3333428.373616752
DEEP WOODS RANCH AIRPORT, ,PAISLEY,32767,LAKE,-81.44701306,29.03026148,17R MN 56473 11420,,071729000100000500,DEEP WOODS RANCH AIRPORT,"SCHMALE, JOHN K 46800 DEEP WOODS ROAD  PAISLEY FL 32767",,Active,FL000332,FD86,Private,Private,29.03026111,-81.44701111,,AIRPORT,-9066640.02059641,3379498.2069784654
GRASS ROOTS AIRPARK, , , ,LAKE,-81.885,28.64166667,17R MM 13503 68606,,,GRASS ROOTS AIRPARK,"GAY, DAVID 20201 WHISTLING WIRE LANE GROVELAND FL 34736",,Active,FL001054,06FD,Private,Private,28.64166666,-81.885,,AIRPORT,-9115396.503603218,3330116.8069140846
FLYING PALOMINO RANCH AIRPORT, ,FRUITLAND PARK,34731,LAKE,-81.94091822,28.87804144,17R MM 08245 94837,,311824000400003300,FLYING PALOMINO RANCH AIRPORT,"ISAACS, STEVE 36422 MICRO RACETRACK ROAD  FRUITLAND PARK FL 34731",,Active,FL000393,5FA1,Private,Private,28.87804166,-81.94091666,,AIRPORT,-9121621.29139555,3360132.581867303
OSBORN AIRFIELD, ,GROVELAND,34736,LAKE,-81.87480123,28.52666649,17R MM 14407 55858,,012224130003900000,OSBORN AIRFIELD,"OSBORN, DARLENE 12155 MATTIODA ROAD  GROVELAND FL 34736",,Active,FL000414,02FA,Private,Private,28.52666666,-81.8748,,AIRPORT,-9114261.181914937,3315538.1222291314
FLYING BARON ESTATES AIRPORT, ,LEESBURG,34748,LAKE,-81.93591313,28.7974885,17R MM 08662 85908,,321924000200001302,FLYING BARON ESTATES AIRPORT,"STRIMENOS, PETER 1048 STRIMENOS LANE  LEESBURG FL 34748",,Active,FL000535,10FA,Private,Private,28.79748888,-81.93591388,,AIRPORT,-9121064.127786186,3349896.0209622914
BRADSHAW FARMS AIRPORT, ,EUSTIS,32736,LAKE,-81.41312404,28.94859849,17R MN 59741 02361,,041829020000006700,BRADSHAW FARMS AIRPORT,"BRADSHAW, J 32502 PINE ROAD  EUSTIS FL 32736",,Active,FL000329,FL62,Private,Private,28.94859722,-81.41312222,,AIRPORT,-9062867.512556719,3369105.399835604
BRITT BROWN & PORTER RANCH AIRPORT, ,EUSTIS,32736,LAKE,-81.43312002,28.90498851,17R MM 57775 97536,,201829000400001200,BRITT BROWN & PORTER RANCH AIRPORT,"ROSE, MELANIE 31614 BOTTANY WOOD DRIVE  EUSTIS FL 32736",,Active,FL000346,6FD6,Private,Private,28.90498888,-81.43312222,,AIRPORT,-9065093.453913178,3363558.750371771
EAGLES LANDING AIRPORT, ,BOKEELIA,33922,LEE,-82.13528779,26.6776156,17R LK 87038 51231,,0544220100003003A,EAGLES LANDING AIRPORT,"DEAN WISH, LLC PO BOX 1839 PLANT CITY FL 33564",,Active,FL000358,69FL,Private,Private,26.67729444,-82.13648055,,AIRPORT,-9143258.41248353,3083251.493315184
WOODSTOCK AIRPORT, ,SAINT JAMES CITY,33956,LEE,-82.09784617,26.58275572,17R LK 90673 40691,,03452201008000030,WOODSTOCK AIRPORT,"VALCARCEL, FRANK 4370 WOODSTOCK ROAD  ST. JAMES CITY FL 33956",,Active,FL000369,FL86,Private,Private,26.582575,-82.098425,,AIRPORT,-9139090.43045777,3071438.6056173313
CORKSCREW TRACE AIRPARK, ,ESTERO,33928,LEE,-81.60720155,26.4451801,17R MK 39462 25129,,27462700001000000,CORKSCREW TRACE AIRPARK,BARBARA WHIDDEN 21230 CORKSCREW ROAD ESTERO FL 33928,,Active,FL000344,1FD4,Private,Private,26.44535555,-81.60730277,,AIRPORT,-9084472.122133879,3054323.701237443
PINE SHADOWS AIRPARK, ,NORTH FORT MYERS,33917,LEE,-81.89852126,26.73370088,17R MK 10641 57255,,154324010000A00CE,PINE SHADOWS AIRPARK,"ELLIS, JERRY 18500 BASELEG AVENUE  FORT MYERS FL 33917",,Active,FL000370,94FL,Private,Private,26.73284722,-81.89730833,,AIRPORT,-9116901.683654116,3090240.4066603463
PINE ISLAND AIRPORT, ,BOKEELIA,33922,LEE,-82.12087222,26.65788498,17R LK 88453 49033,,09442200000170030,PINE ISLAND AIRPORT,"REED, E 13350 MORNINGSTAR LANE  BOKEELIA FL 33922",,Active,FL000365,1FA3,Private,Private,26.65618333,-82.12120277,,AIRPORT,-9141653.679288764,3080793.6340448447
STRAYHORN RANCH AIRPORT, ,FORT MYERS,33905,LEE,-81.77029391,26.6614342,17R MK 23346 49168,,12442500000070020,STRAYHORN RANCH AIRPORT,ALIWANNA LANE  FT. MYERS FL 33905,,Active,FL000360,47FD,Private,Private,26.66284999,-81.77063888,,AIRPORT,-9102627.480023108,3081235.7320224927
SALTY APPROACH AIRSTRIP, ,CAPTIVA,33924,LEE,-82.22006044,26.60363719,17R LK 78524 43114,,32442100000023300,SALTY APPROACH AIRSTRIP,P. O. BOX 3031   NORTH CAPTIVA FL 33945,,Active,FL000359,FL90,Private,Private,26.60340833,-82.22009444,,AIRPORT,-9152695.261102019,3074038.1314030993
BUCKINGHAM FIELD, ,FORT MYERS,33905,LEE,-81.70818765,26.64607819,17R MK 29517 47431,MUNICIPAL,15442601000170110,BUCKINGHAM FIELD,15191 HOMESTEAD ROAD  LEHIGH ACRES FL 33971,,Active,FL000371,FL59,Private,Private,26.64340499,-81.71035972,,AIRPORT,-9095713.843136907,3079323.055340338
ANGELS FIELD STOLPORT, ,TALLAHASSEE,32317,LEON,-84.08703841,30.48244648,16R GU 79638 75854,,1213206010000,ANGELS FIELD STOLPORT,"MAJORS, LEE 11215 TURKEY ROOST ROAD  TALLAHASSEE FL 32317",,Active,FL000864,FL52,Private,Private,30.47916666,-84.075,,AIRPORT,-9360526.297904696,3565715.8070431356
INGALLS FIELD AIRPORT, ,TALLAHASSEE,32309,LEON,-84.03044904,30.59047648,16R GU 84757 87975,,1609206180000,INGALLS FIELD AIRPORT,"YOWN, KENT 11418 CHEROKEE PLANTATION COURT  TALLAHASSEE FL 32312",,Active,FL000597,FL12,Private,Private,30.59047777,-84.03044722,,AIRPORT,-9354226.798094092,3579678.1474502278
BLACK CREEK PASS AIRPORT, , , ,LEON,-84.08330556,30.51583333,16R GU 79901 79565,,,BLACK CREEK PASS AIRPORT,11903 WADESBORO ROAD  TALLAHASSEE FL 32317,,Active,FL001336,FA25,Private,Private,30.51583333,-84.08330555,,AIRPORT,-9360110.758687356,3570029.233931393
THE CEDARS AIRFIELD,6541 SW STATE ROAD 24,CEDAR KEY,32625,LEVY,-82.94307401,29.22869713,17R LN 11143 34887,,1149100000,THE CEDARS AIRFIELD,MARVIN FRANKS 6831 SW 105TH AV  CEDAR KEY FL 32625,,Active,FL000289,FA71,Private,Private,29.22848611,-82.94306944,,AIRPORT,-9233180.763119752,3404786.3812432415
REDTAIL AIRFIELD, ,MORRISTON,32668,LEVY,-82.50063505,29.27829878,17R LN 54222 39753,,045510030C,REDTAIL AIRFIELD,"MUNOZ, JESSE 3951 SE 160TH AVENUE  MORRISTON FL 32268",,Active,FL000611,FA30,Private,Private,29.27722222,-82.50056944,,AIRPORT,-9183928.683992963,3411115.1434528166
NEAL FIELD, ,CHIEFLAND,32626,LEVY,-82.86930699,29.55720509,17R LN 18898 71179,,0053200200,NEAL FIELD,"NEAL, PAULETTE P.O. BOX 716  TRENTON FL 32693",,Active,FL000295,79FL,Private,Private,29.55583333,-82.86916666,,AIRPORT,-9224969.056821207,3446758.7256984464
CHIEFLAND SKY RANCH AIRPORT, ,CHIEFLAND,32626,LEVY,-82.86978105,29.39494465,17R LN 18563 53196,,011420010C,CHIEFLAND SKY RANCH AIRPORT,"PITTS, FRANK 4771 NW 60TH AVENUE  CHIEFLAND FL 32626",,Active,FL000296,51FL,Private,Private,29.39548055,-82.86977777,,AIRPORT,-9225021.828240976,3426010.3175601233
WINDY ACRES AIRPORT, ,TRENTON,32693,LEVY,-82.86909114,29.5658564,17R LN 18934 72137,,0052700800,WINDY ACRES AIRPORT,"FULMER, RUSSELL 5650 NW165TH ST.  TRENTON FL 32693",,Active,FL000297,6FD0,Private,Private,29.56588888,-82.86905555,,AIRPORT,-9224945.028708428,3447865.91096625
AMES FIELD, ,TRENTON,32693,LEVY,-82.87127502,29.58708591,17R LN 18760 74494,,0045500000,AMES FIELD,"HAYNES, BILL 9520 SOUTHWEST 126TH STREET  ARCHER FL 32618",,Active,FL000787,6FL8,Private,Private,29.58745833,-82.87123333,,AIRPORT,-9225188.136814004,3450583.244270562
WINGS FIELD, ,MORRISTON,32668,LEVY,-82.54558422,29.23822373,17R LN 49797 35368,,0462301200,WINGS FIELD,"OBERT, ROBERT 8053 SE 140TH LANE  INGLIS FL 34449",,Active,FL000822,96FL,Private,Private,29.23779166,-82.54561111,,AIRPORT,-9188932.403130352,3406001.6586652417
BLUE CREEK AIRPORT, , , ,LIBERTY,-84.74158611,30.35058889,16R GU 17076 59796,,,BLUE CREEK AIRPORT,"LORD, JEAN 9169 NEW BERLIN ROAD  JACKSONVILLE FL 32226",,Active,FL001296,,Private,Private,30.35058888,-84.74158611,,AIRPORT,-9433390.214914307,3548694.8485350125
BLUE SPRINGS AIRPORT, , , ,MADISON,-83.25833333,30.48333333,17R KP 83224 74512,,,BLUE SPRINGS AIRPORT,ROUTE 1  LEE FL 32059,,Active,FL000557,38FA,Private,Private,30.48333333,-83.25833333,,AIRPORT,-9268275.27093778,3565830.364841248
MOUNT OLIVE FARM AIRPORT, , , ,MADISON,-83.78361111,30.33638889,17R KP 32385 59345,,,MOUNT OLIVE FARM AIRPORT,16131 HWY 19  LAMONT FL 32336,,Active,FL001254,2FA9,Private,Private,30.33638888,-83.78361111,,AIRPORT,-9326748.925667461,3546863.19832908
ESTHERBROOK AERODROME, ,PINETTA,32350,MADISON,-83.28548452,30.62353501,17R KP 80933 90107,,00-3N-10-6125-003-000,ESTHERBROOK AERODROME,"DECKER, SHELLY 357 NE WILLOWRUN WAY  PINETTA FL 32350",,Active,FL000554,7FD9,Private,Private,30.62284722,-83.28565277,,AIRPORT,-9271297.726957517,3583953.90504607
MADISON COUNTY AIRPORT, ,LEE,32059,MADISON,-83.31227453,30.44281804,17R KP 77953 70125,,34-1N-10-5784-000-000,MADISON COUNTY AIRPORT,"THIGPEN, LONNIE P.O. BOX 237  MADISON FL 32341",,Active,FL000533,99FL,Private,Private,30.44281944,-83.31162499,,AIRPORT,-9274279.977647198,3560597.91550638
THOMSON AIRFIELD, ,PALMETTO,34221,MANATEE,-82.53009806,27.54420447,17R LL 48918 47646,,748200059,THOMSON AIRFIELD,"CIPRIANI, FRANK 3135 37TH STREET EAST  PALMETTO FL 34221",,Active,FL000343,6FD7,Private,Private,27.54420277,-82.53009722,,AIRPORT,-9187208.49073381,3191628.990285919
MYAKKA HEAD AIRPORT, ,MYAKKA CITY,34251,MANATEE,-82.10500314,27.45555449,17R LL 90808 37379,,58700451,MYAKKA HEAD AIRPORT,"TAYLOR, J / PATTY TOFT 1350 DUETTE ROAD  MYAKKA FL 34251",,Active,FL000208,67FL,Private,Private,27.45527777,-82.10722222,,AIRPORT,-9139887.141120907,3180503.4657360106
DRAKE RANCH STOLPORT,13210 SW STATE ROAD 200,DUNNELLON,34432,MARION,-82.32857537,28.99126448,17R LN 70579 07745,,40866-000-00,DRAKE RANCH STOLPORT,"DRAKE, GEORGE AND ANN LOUISE 1120 AZALEA LANE  WINTER PARK FL 32789",,Active,FL000428,7FD2,Private,Private,28.99025555,-82.33037222,,AIRPORT,-9164775.087645454,3374534.245818062
THOMPSONS GOINBROKE AERO RANCH AIRPORT,300 NW 165TH ST,CITRA,32113,MARION,-82.14285027,29.38610451,17R LN 89098 51306,,07598-000-00,THOMPSONS GOINBROKE AERO RANCH AIRPORT,"THOMPSON, LANNY 94  NW 165TH STREET  CITRA FL 32113",,Active,FL000302,9FD5,Private,Private,29.38555555,-82.1425,,AIRPORT,-9144100.263886856,3424880.872573447
CROSSWIND FARM AIRPORT,14028 NW COUNTY ROAD 464B,MORRISTON,32668,MARION,-82.35370338,29.24126739,17R LN 68450 35475,,12226-001-01,CROSSWIND FARM AIRPORT,"REISS, JOHN 14024 NW HIGHWAY 464B  MORRISTON FL 32668",,Active,FL000640,FL19,Private,Private,29.24083333,-82.35416666,,AIRPORT,-9167572.325575612,3406389.952669
RELUCTANT GREMLIN AIRPORT,8549 NW 130TH ST,REDDICK,32686,MARION,-82.26416,29.34071782,17R LN 77271 46398,,05976-001-00,RELUCTANT GREMLIN AIRPORT,RICHARD HELMS 8549 NW 130TH ST.  REDDICK FL 32686,,Active,FL000347,FA09,Private,Private,29.34080555,-82.26370833,,AIRPORT,-9157604.40211254,3419083.6662783218
JUMBOLAIR-GREYSTONE AIRPORT,8851 W ANTHONY RD,OCALA,34479,MARION,-82.12506213,29.27983468,17R LN 90711 39514,,14105-000-00,JUMBOLAIR-GREYSTONE AIRPORT,1201 NE 77TH STREET    OCALA FL 34479,,Active,FL000633,17FL,Private,Private,29.28025277,-82.12481388,,AIRPORT,-9142120.097940389,3411311.160568118
WINGS-N-WHEELS AIRFIELD,950 W COUNTY ROAD 316,CITRA,32113,MARION,-82.14962787,29.36330406,17R LN 88416 48786,,07764-000-00,WINGS-N-WHEELS AIRFIELD,"NELSON, EDWARD 2102 NE 145TH AVENUE ROAD  SILVER SPRINGS FL 34488",,Active,FL000730,FA50,Private,Private,29.36136111,-82.14981666,,AIRPORT,-9144854.743557826,3421968.2660614643
LEE FARMS AIRPORT,2323 W COUNTY ROAD 329,REDDICK,32686,MARION,-82.16591889,29.33408339,17R LN 86802 45564,,07270-001-00,LEE FARMS AIRPORT,"LEE, C. K. 2323 W. HIGHWAY 329 CITRA FL 32113",,Active,FL000546,FL80,Private,Private,29.33469444,-82.16676111,,AIRPORT,-9146668.251203349,3418236.4711276116
WOODS AND LAKE AIRPARK,1 WOODS & LAKES AIRSTRIP,OCKLAWAHA,32179,MARION,-81.88714659,29.12432459,17R MN 13693 22085,,39430-16-018,WOODS AND LAKE AIRPARK,DWAINE BERRY 6504 SE 159TH COURT  OCKLAWAHA FL 32179,,Active,FL000657,FA38,Private,Private,29.12358888,-81.88702777,,AIRPORT,-9115635.46087149,3391479.3055632655
SKIPPERS AIRPORT, , , ,MARION,-81.95,28.98333333,17R MN 07452 06510,,,SKIPPERS AIRPORT,"SKIPPER, SCOTT 17025 SE 19TH COURT  SUMMERFIELD FL 34491",,active,FL001087,,Private,Private,28.98333333,-81.95,,AIRPORT,-9122632.27053122,3373524.912504427
JOHARY AIRPORT,13250 SE 100TH AVE,BELLEVIEW,34420,MARION,-81.98786111,29.02636847,17R MN 03804 11309,,45504-000-00,JOHARY AIRPORT,"JOHARY, C 13250 SE 100TH AVE BELLEVIEW FL 34420",,Active,FL000255,FL58,Private,Private,29.02636944,-81.98786388,,AIRPORT,-9126846.949473573,3379002.5785772717
LEEWARD AIR RANCH AIRPORT,8492  LEEWARD AIR RANCH CIR,OCALA,34472,MARION,-82.03227003,29.08855138,17R LN 99539 18236,,37511-002-01,LEEWARD AIR RANCH AIRPORT,P O BOX 1476  OCALA FL 34478,,Active,FL000634,FD04,Private,Private,29.08414722,-82.03230833,,AIRPORT,-9131790.528846623,3386921.475868454
LOVE FIELD, ,WEIRSDALE,32195,MARION,-81.89108413,28.96199264,17R MN 13174 04101,,5011-000-000,LOVE FIELD,"LOVE, JOHN 10835 SE SUNSET HARBOR ROAD  SUMMERFIELD FL 34491",,Active,FL000803,97FL,Private,Private,28.96192777,-81.89146944,,AIRPORT,-9116073.785796624,3370809.437712484
BACK ACHERS AIRPORT,1  BACK ACRES AIRSTRIP,OCALA,34472,MARION,-81.99975175,29.07319884,17R MN 02690 16508,,37847-000-00,BACK ACHERS AIRPORT,"FAMBROUGH, THOMAS 9215 SE 110TH ST RD BELLEVIEW FL 34420",,Active,FL000253,8FL3,Private,Private,29.07303611,-81.99953055,,AIRPORT,-9128170.610024428,3384965.910111384
FLYING DUTCHMAN RANCH AIRPORT,1547 SE 59TH ST,OCALA,34480,MARION,-82.11997555,29.13155894,17R LN 91049 23079,,36016-003-03,FLYING DUTCHMAN RANCH AIRPORT,P.O. BOX 3068  OCALA FL 34478,,Active,FL000636,FD29,Private,Private,29.13055555,-82.11916666,,AIRPORT,-9141553.862221884,3392401.2196471505
MONROE AIRPARK, , , ,MARION,-82.1137,29.01886944,17R LN 91541 10587,,,MONROE AIRPARK,"MONROE, DENNIS 1770 SE 140TH STREET  SUMMERFIELD FL 34491",,Active,FL000252,2FA2,Private,Private,29.01886944,-82.11369999,,AIRPORT,-9140855.271124711,3378047.9115099115
DALLAS AIRPORT, , , ,MARION,-82.03314167,28.97915,17R LN 99348 06115,,,DALLAS AIRPORT,"CANGELOSI ,JOHN M. 7280 SE HWY 42 SUMMERFIELD FL 34491",,Active,FL000765,,Private,Private,28.97914999,-82.03314166,,AIRPORT,-9131887.558545707,3372992.5645744866
MCGINLEY AIRPORT,5495 SW COUNTY ROAD 484,OCALA,34473,MARION,-82.21272739,29.02980436,17R LN 81909 11894,,,MCGINLEY AIRPORT,"MCGINLEY, RICHARD 5700 SW HIGHWAY 484  OCALA FL 34473",,Active,FL000635,FL61,Private,Private,29.02608888,-82.21231388,,AIRPORT,-9151878.949535403,3379440.009366717
IDLE WILD AIRPORT,9420 NW 125TH AVE,OCALA,34482,MARION,-82.32229399,29.28929121,17R LN 71562 40762,,12315-000-00,IDLE WILD AIRPORT,"HAMBLETON, SARAH J 9420 NW 125TH AVENUE  OCALA FL 34482",,Active,FL000638,FL63,Private,Private,29.28913888,-82.32232222,,AIRPORT,-9164075.84734799,3412518.102417525
NORTON AIRPORT,2780 SE 150TH ST,SUMMERFIELD,34491,MARION,-82.10041922,29.00031213,17R LN 92816 08519,,44685-001-00,NORTON AIRPORT,"NORTON, HUGH 15010 SE 28TH COURT  SUMMERFIELD FL 34491",,Active,FL000254,8FL2,Private,Private,29.00109166,-82.10064444,,AIRPORT,-9139376.861725805,3375685.761582311
PANIOLA SKY RANCH AIRPORT,6301 E COUNTY ROAD 316,CITRA,32113,MARION,-82.05659543,29.36872217,17R LN 97451 49301,,07655-030-00,PANIOLA SKY RANCH AIRPORT,"DIERSCHKE, WOLF 6301 E. HIGHWAY 316 CITRA FL 32113",,Active,FL000303,FD14,Private,Private,29.37524999,-82.05814722,,AIRPORT,-9134498.419254882,3422660.334724681
HOBBY HILL AIRPORT,14070 SE COUNTY ROAD 42,WEIRSDALE,32195,MARION,-81.91909317,28.9769886,17R MN 10458 05784,,49681-000-00,HOBBY HILL AIRPORT,"WIMBERLY, GARY P.O. BOX 33  EAST LAKE WEIR FL 32133",,Active,FL000804,2FD1,Private,Private,28.97553888,-81.91869444,,AIRPORT,-9119191.738277161,3372717.5255030617
SHADY INTERNATIONAL AIRPORT,3060 SW 85TH ST,OCALA,34476,MARION,-82.17763415,29.09692348,17R LN 85401 19296,,35610-003-04,SHADY INTERNATIONAL AIRPORT,"ZURAWSKI, JOE 3504 SW 85TH ST  OCALA FL 34476",,Active,FL000639,FA49,Private,Private,29.09608888,-82.17898055,,AIRPORT,-9147972.387946393,3387988.015185099
TROPICAL PLANTATION AIRPORT, ,PALM CITY,34990,MARTIN,-80.29338,27.10282851,17R NK 70044 98021,,553841000007000101,TROPICAL PLANTATION AIRPORT,"MADONIA, STEVE 3655 SW 96 STREET STUART FL 34990",,Active,FL000684,18FA,Private,Private,27.10282777,-80.29338055,,AIRPORT,-8938218.175426941,3136324.6969142566
NAKED LADY RANCH AIRPORT, ,PALM CITY,34990,MARTIN,-80.33782917,27.14282754,17R NL 65615 02427,,283840000015000103,NAKED LADY RANCH AIRPORT,"6100 SW. MOORE ST.,  PALM CITY FL 34990",,Active,FL000764,64FA,Private,Private,27.14282777,-80.33782777,,AIRPORT,-8943166.234988268,3141327.522991011
TAILWINDS AIRPARK, ,JUPITER,33478,MARTIN,-80.21865811,26.9794995,17R NK 77536 84404,,234041002000002106,TAILWINDS AIRPARK,TAILWINDS HOMEOWNERS ASSOCIATION 2400 SE DOWNWINDS RD JUPITER FL 33478,,Active,FL000477,FD15,Private,Private,26.9795,-80.21865555,,AIRPORT,-8929900.173046185,3120910.715851498
HORSESHOE ACRES AIRPARK, ,INDIANTOWN,34956,MARTIN,-80.61222004,27.09333356,17R NK 38442 96832,,113937000000008287,HORSESHOE ACRES AIRPARK,26110 SW 86TH STREET  INDIANTOWN FL 34956,,Active,FL000446,FA24,Private,Private,27.09333333,-80.61222222,,AIRPORT,-8973711.286596265,3135137.3908763183
BRADY RANCH AIRPORT, ,INDIANTOWN,34956,MARTIN,-80.63339208,27.11338351,17R NK 36336 99046,,043937000000000100,BRADY RANCH AIRPORT,"BRADY, FRANK P.O. BOX 536  OKEECHOBEE FL 34973",,Active,FL000445,80FD,Private,Private,27.11338333,-80.63338888,,AIRPORT,-8976068.146928255,3137644.676643395
BURRS STRIP, ,MIAMI,33177,MIAMI-DADE,-80.3997801,25.57010657,17R NJ 60286 28213,,3069110080540,BURRS STRIP,"BURR, CHARLES 21100 SW 127TH AVENUE  MIAMI FL 33177",,Active,FL000586,14FA,Private,Private,25.56961111,-80.39877777,,AIRPORT,-8950062.581093872,2945933.490421804
LINDBERGHS LANDING AIRSTRIP, ,MIAMI,33187,MIAMI-DADE,-80.48867015,25.61952752,17R NJ 51336 33649,,3058250000570,LINDBERGHS LANDING AIRSTRIP,"TORRES, RAMON 17705 SW 158TH STREET  MIAMI FL 33187-1208",,Active,FL000852,FA35,Private,Private,25.61965833,-80.49231666,,AIRPORT,-8959957.776007647,2952033.5995877986
HOMESTEAD ARB, ,HOMESTEAD,33039,MIAMI-DADE,-80.38366667,25.48844167,17R NJ 61946 19177,,3079120000100,HOMESTEAD ARB,COMMAND POST 305-224-7023 USAF RESERVE HOMESTEAD FL 33030,,Active,FL000002,HST,Private,Military USAF,25.48844166,-80.38366666,,AIRPORT,-8948268.84147854,2935858.9698925605
RICHARDS FIELD , ,MIAMI,33170,MIAMI-DADE,-80.51506004,25.55871947,17R NJ 48711 26905,,3068150000051,RICHARDS FIELD ,22001 SW 202 AVE  MIAMI FL 33170,,Active,FL000442,04FA,Private,Private,25.55966666,-80.51473611,,AIRPORT,-8962895.48495729,2944528.318258187
MACS FIELD, 23799 SW 167th Ave,HOMESTEAD,33031,MIAMI-DADE,-80.46561403,25.54649637,17R NJ 53684 25570,,3069190000091,MACS FIELD,"MUNZ, CHARLES 23600 SW 162 AVENUE  HOMESTEAD FL 33031",,Active,FL000439,78FD,Private,Private,25.54678333,-80.46538055,,AIRPORT,-8957391.180306878,2943020.1329129348
MJD STOLPORT, ,MIAMI,33170,MIAMI-DADE,-80.5539471,25.55455149,17R NJ 44807 26429,,3068170000090,MJD STOLPORT,"DUREIKO, MARTIN 22361 SW 232ND STREET  MIAMI FL 33170",,Active,FL000575,FL31,Private,Private,25.55217499,-80.55581944,,AIRPORT,-8967224.372775074,2944014.022101339
THE WRIGHT PLACE STOLPORT, , , ,MIAMI-DADE,-80.5,25.52777778,17R NJ 50237 23484,,,THE WRIGHT PLACE STOLPORT,"WRIGHT, GEORGE P.O. BOX 1751  HOMESTEAD FL 33090",,Active,FL001135,4FD3,Private,Private,25.52777777,-80.5,,AIRPORT,-8961219.008878931,2940710.779232036
Tavernier Airport Site, ,TAVERNIER,33070,MONROE,-80.53534598,25.0045698,17R NH 46886 65534,,3362 38 00437493006600,TAVERNAERO AIRPARK,P.O. BOX 171  TAVERNIER FL 33070,,Active,FL000783,FA81,Private,Private,25.00493333,-80.53290555,,AIRPORT,-8965153.705627687,2876305.931107415
SUMMERLAND KEY COVE AIRPORT, ,SUMMERLAND KEY,33042,MONROE,-81.44780207,24.66079972,17R MH 54688 27463,,3566 28 00189500000000,SUMMERLAND KEY COVE AIRPORT,AIRPORT DRIVE SOUTH & NORTH P.O. BOX  420290  SUMMERLAND KEY FL 33042,,Active,FL000766,FD51,Private,Private,24.65916111,-81.44566666,,AIRPORT,-9066727.852203649,2834138.672214931
KEY WEST NAS / BOCA CHICA FIELD,OVERSEAS HWY & SARATOGA AVE ,KEY WEST,33040,MONROE,-81.68870271,24.57583394,17R MH 30265 18156,,3067 26 00122630000000,KEY WEST NAS / BOCA CHICA FIELD,BASE OPERATIONS 305-293-2770 U.S. NAVY KEY WEST FL ,,Active,FL001015,NQX,Private,Military Navy,24.5757,-81.68897777,,AIRPORT,-9093544.789490638,2823734.6271296735
OCEAN REEF CLUB AIRPORT, ,KEY LARGO,33037,MONROE,-80.27772399,25.32136712,17R NJ 72695 00729,,0759 41 00081720000303,OCEAN REEF CLUB AIRPORT,JANIS SMYLY 35 OCEAN REEF DRIVE  KEY LARGO FL 33037,,Active,FL000481,07FA,Private,Private,25.32539166,-80.274775,,AIRPORT,-8936475.35649146,2915269.2522843587
SUGAR LOAF AIRPORT, ,SUMMERLAND KEY,33042,MONROE,-81.57387393,24.64857071,17R MH 41926 26156,,3366 27 00117910000100,SUGAR LOAF AIRPORT,"GOOD,  JOHN 17001 OVERSEAS HIGHWAY SUGARLOAF KEY FL 33042",,Active,FL000485,7FA1,Private,Private,24.64883611,-81.57759444,,AIRPORT,-9080762.107622419,2832640.7964078556
FLYING A RANCH AIRPORT, ,YULEE,32097,NASSAU,-81.57046932,30.6006517,17R MP 45313 85484,,42-2N-27-0000-0005-0010,FLYING A RANCH AIRPORT,"ARNETT, FREDDY 85454 FLYING A RANCH DRIVE  YULEE FL 32097",,Active,FL000350,FL84,Private,Private,30.60058333,-81.57083333,,AIRPORT,-9080383.108265378,3580994.0446055615
NASSAU PRIVATE FIELD, ,YULEE,32097,NASSAU,-81.53446628,30.62675018,17R MP 48778 88359,,25-2N-28-231W-0001-0000,NASSAU PRIVATE FIELD,"HANCOCK, STEPHEN 96541 CESSNA DRIVE  YULEE FL 32097",,Active,FL000351,83FL,Private,Private,30.62686111,-81.53476388,,AIRPORT,-9076375.268943897,3584369.8304077014
DOTSON FARMS AIRPORT, ,BAKER,32531,OKALOOSA,-86.6880163,30.81860845,16R EV 29840 09541,,30-4N-24-0000-0006-0000,DOTSON FARMS AIRPORT,"DOTSON, GLENN 1250 HIGHWAY C4A  BAKER FL 32531",,Active,FL000243,55FD,Private,Private,30.81851944,-86.68801111,,AIRPORT,-9650065.832293082,3609214.3364044693
SKY PARK ESTATES AIRPORT, ,BAKER,32531,OKALOOSA,-86.66717503,30.8540745,16R EV 31821 13477,,17-4N-24-0100-000A-0120,SKY PARK ESTATES AIRPORT,"WILLIAMS, REDDOCH 1493 SKY RANCH LANE BAKER FL 32531",,Active,FL000242,18FD,Private,Private,30.85388888,-86.66722222,,AIRPORT,-9647745.792506421,3613812.404805785
FIVE OAKS ESTATE, ,CRESTVIEW,32539,OKALOOSA,-86.43659331,30.80295022,16R EV 53896 07899,,34-4N-22-0000-0001-0000,FIVE OAKS ESTATE,"SCOTT, RONALD 4274 POVERTY CREEK ROAD  CRESTVIEW FL 32539",,Active,FL000319,FD03,Private,Private,30.80018611,-86.43550555,,AIRPORT,-9622077.552847482,3607184.8326825793
EGLIN TEST SITE B6, ,EGLIN AFB,32542,OKALOOSA,-86.74281308,30.62949727,16R EU 24647 88570,,31-2N-25-0000-0001-0000,EGLIN TEST SITE B6,COMMAND POST 850-883-4020 U.S. AIR FORCE VALPARAISO FL ,,Active,FL001007,FL34,Private,Military USAF,30.63185833,-86.74717777,,AIRPORT,-9656165.781507498,3584725.214305536
EGLIN AF AUX NR 3 DUKE, ,EGLIN AFB,32542,OKALOOSA,-86.52292618,30.6524773,16R EU 45708 91185,,07-2N-23-0000-0001-0010,EGLIN AF AUX NR 3 DUKE,COMMAND POST 850-884-8100 U.S. AIR FORCE VALPARAISO FL ,,Active,FL001010,EGI,Private,Military USAF,30.65185833,-86.52300555,,AIRPORT,-9631688.083942857,3587698.4727629833
HURLBURT FIELD, ,HURLBURT FIELD,32544,OKALOOSA,-86.68862596,30.42512095,16R EU 29902 65934,,05-2S-24-0000-0001-0000,HURLBURT FIELD,COMMAND POST 850-884-8100 U.S. AIR FORCE MARY ESTHER FL ,,Active,FL001003,HRT,Private,Military USAF,30.42881111,-86.68884444,,AIRPORT,-9650133.699515905,3558313.0621127863
YELLOW RIVER VALLEY AIRSTRIP, ,HOLT,32564,OKALOOSA,-86.74746101,30.68645721,16R EU 24187 94881,,09-2N-25-0000-0024-0060,YELLOW RIVER VALLEY AIRSTRIP,THOMAS H JULIAN P.O. BOX 85  HOLT FL 32564,,Active,FL000436,FD93,Private,Private,30.68546944,-86.74717777,,AIRPORT,-9656683.187460795,3592096.2401501485
TRIPLE B AIRPARK STOLPORT, ,CRESTVIEW,32539,OKALOOSA,-86.46600426,30.78213547,16R EV 51094 05579,,05-3N-22-0000-0004-0030,TRIPLE B AIRPARK STOLPORT,5706 MOUNT OLIVE RD  CRESTVIEW FL 32539,,Active,FL000318,FL81,Private,Private,30.78185277,-86.46717222,,AIRPORT,-9625351.56464094,3604487.491354178
RUCKEL AIRPORT, ,NICEVILLE,32578,OKALOOSA,-86.43844339,30.51964872,16R EU 53876 76503,,03-1S-22-0000-0001-0000,RUCKEL AIRPORT,"RUCKEL PROPERTIES, INC. 1003C JOHN SIMS PARKWAY EAST NICEVILLE FL 32578",,Active,FL000623,FL17,Private,Private,30.51964166,-86.43828055,,AIRPORT,-9622283.503021177,3570522.259197823
INDIAN HAMMOCK AIRPORT,32801 HWY 441 N,OKEECHOBEE,34972,OKEECHOBEE,-80.84242635,27.53783492,17R NL 15558 46017,,1-04-34-35-0010-00000-2500,INDIAN HAMMOCK AIRPORT,"MARILYN KLUEGEL 32801 US HIGHWAY 441 NORTH,  #268  OKEECHOBEE FL 34972",,Active,FL000353,FL75,Private,Private,27.54198055,-80.83311666,,AIRPORT,-8999337.735354288,3190829.3163468884
RUSSAKIS RANCH 441 AIRPORT, ,OKEECHOBEE,34972,OKEECHOBEE,-80.84339502,27.59525469,17R NL 15454 52377,,1-20-33-35-0A00-00001-0000,RUSSAKIS RANCH 441 AIRPORT,8801 INDRIO ROAD  FT. PIERCE FL 34951,,ACTIVE,FL000655,33FA,Private,Private,27.59777777,-80.84611111,,AIRPORT,-8999445.568128953,3198039.8392938157
FLYING COW AIR RANCH, ,OKEECHOBEE,34974,OKEECHOBEE,-80.69344388,27.1588925,17R NL 30372 04071,,1-24-38-36-0A00-00007-0000,FLYING COW AIR RANCH,"WESTGATE & BEYOND, INC. 10151 SE 126TH BLVD  OKEECHOBEE FL 34974",,Active,FL000380,FD39,Private,Private,27.15555555,-80.69166666,,AIRPORT,-8982753.082606439,3143337.3317230316
PAXTON AIRPORT, ,OKEECHOBEE,34972,OKEECHOBEE,-80.76173566,27.35604465,17R NL 23564 25893,,1-07-36-36-0A00-00001-A000,PAXTON AIRPORT,"PAXTON, JOHN 6333 NE 120TH STREET  OKEECHOBEE FL 34972",,Active,FL000653,90FL,Private,Private,27.36115277,-80.76089166,,AIRPORT,-8990355.28889948,3168025.682623938
BASS FAMILY INC. AIRPORT, , , ,OKEECHOBEE,-80.99718611,27.45692222,17R NL 00278 37045,,,BASS FAMILY INC. AIRPORT,COUNTY ROAD 724 & 700A  OKEECHOBEE FL 34972,,Active,FL001234,,Private,Private,27.45692222,-80.99718611,,AIRPORT,-9016565.513528075,3180675.0472118002
RANCH-AERO AIRPORT, , , ,OKEECHOBEE,-80.74111111,27.24111111,17R NL 25630 13167,,,RANCH-AERO AIRPORT,"CUNNINGHAM, FRANK 810 SE 80TH AVENUE  OKEECHOBEE FL 34974",,Active,FL000929,,Private,Private,27.24111111,-80.74111111,,AIRPORT,-8988059.374955727,3153627.8267125688
CITRUS HEDGING RANCH AIRPORT, ,OKEECHOBEE,34972,OKEECHOBEE,-80.73660484,27.33228383,17R NL 26055 23267,,1-16-36-36-0A00-00006-B000,CITRUS HEDGING RANCH AIRPORT,9000 NE 120TH STREET  OKEECHOBEE FL 34972,,Active,FL000652,96FD,Private,Private,27.333375,-80.73616944,,AIRPORT,-8987557.73956207,3165047.914637937
GOODBREAD RANCH AIRPORT, , , ,OKEECHOBEE,-80.70416667,27.29583333,17R NL 29274 19236,,,GOODBREAD RANCH AIRPORT,"GOODBREAD, BRADLEY 12575 HWY 70 E  OKEECHOBEE FL 34972",,Active,FL001173,,Private,Private,27.29583333,-80.70416666,,AIRPORT,-8983946.73828025,3160481.082935506
RIVER ACRES AIRPORT, ,OKEECHOBEE,34972,OKEECHOBEE,-81.03109272,27.32902263,17R ML 96924 22878,,1-21-36-33-0010-00000-0790,RIVER ACRES AIRPORT,"BUSSELL, JAN 19840 NW 94TH DRIVE  OKEECHOBEE FL 34972",,Active,FL000650,FD70,Private,Private,27.32531944,-81.02867499,,AIRPORT,-9020339.98044749,3164639.261809827
RIVER OAK ACRES AIRPORT, ,OKEECHOBEE,34974,OKEECHOBEE,-80.96946697,27.23165255,17R NL 03023 12093,,1-20-37-34-0A00-00002-0000,RIVER OAK ACRES AIRPORT,13525 SW 144TH PKWY   OKEECHOBEE FL 34974,,Active,FL000648,00FL,Private,Private,27.23088055,-80.96923055,,AIRPORT,-9013479.832904045,3152443.6045606127
LAKE MONTAZA AIRPORT, , , ,OKEECHOBEE,-80.81527778,27.58027778,17R NL 18232 50722,,,LAKE MONTAZA AIRPORT,1494 NE 342ND TRAIL  OKEECHOBEE FL 34972,,Active,FL001059,83FD,Private,Private,27.58027777,-80.81527777,,AIRPORT,-8996315.570548093,3196158.740271359
SUNNILAND RANCH AIRPORT, ,OKEECHOBEE,34972,OKEECHOBEE,-80.77204902,27.37085192,17R NL 22541 27532,,1-06-36-36-0A00-00002-0000,SUNNILAND RANCH AIRPORT,"MALONE, WILLIAM 12245 NE 56TH STREET  OKEECHOBEE FL 34972",,Active,FL000651,08FD,Private,Private,27.36309722,-80.77283611,,AIRPORT,-8991503.367023619,3169881.690460109
SUNSET STRIP AIRPARK, , , ,OKEECHOBEE,-80.90367222,27.23421389,17R NL 09537 12380,,,SUNSET STRIP AIRPARK,DEWEY DANIEL 7589 SW 13TH ST OKEECHOBEE FL 34973,,Active,FL000654,32FA,Private,Private,27.23421388,-80.90367222,,AIRPORT,-9006155.595096005,3152764.277386713
RYBOLT RANCH AIRPORT, ,ORLANDO,32820,ORANGE,-81.14423304,28.58944253,17R MM 85896 62509,,322208000000001,RYBOLT RANCH AIRPORT,"LAMAR, MARY P.O. BOX 3350  WINTER PARK FL 32790",,Active,FL000668,01FA,Private,Private,28.58944444,-81.14423055,,AIRPORT,-9032934.702779127,3323494.325624207
TANGERINE AIRPORT, ,MOUNT DORA,32757,ORANGE,-81.60590317,28.76027055,17R MM 40848 81576,,272010000000007,TANGERINE AIRPORT,"KIMBALL, JIM P.O. BOX 849  ZELLWOOD FL 32798",,Active,FL000837,FL97,Private,Private,28.76027222,-81.60590555,,AIRPORT,-9084327.58615347,3345169.0869140136
LAKE BUENA VISTA STOLPORT, , , ,ORANGE,-81.56590555,28.39611944,17R MM 44563 41214,,,LAKE BUENA VISTA STOLPORT,"MOUSSEAU, JEFFEREY P.O. BOX 10,000; ATTN: LEGAL DEPARTMENT  LAKE BUENA VISTA FL 32830",,Active,FL000667,,Private,Private,28.39611944,-81.56590555,,AIRPORT,-9079875.072433492,3299007.8072176827
CARTER AIRPORT, ,ORLANDO,32818,ORANGE,-81.50868214,28.6188886,17R MM 50273 65868,,282134000000022,CARTER AIRPORT,"CARTER, BYRON P.O. BOX 2635  WINTER PARK FL 32790",,Active,FL000230,FL57,Private,Private,28.61888888,-81.50868333,,AIRPORT,-9073504.991219265,3327227.9425496673
ORLANDO NORTH AIRPARK, ,MOUNT DORA,32757,ORANGE,-81.65090916,28.72638239,17R MM 36434 77845,COUNTY,272030000000003,ORLANDO NORTH AIRPARK,"LOOMIS, BOB 2849 LUST ROAD  APOPKA FL 32703",,Active,FL000835,FA83,Private,Private,28.72527777,-81.65083333,,AIRPORT,-9089337.630964743,3340866.524153093
BLANKET BAY AIRPORT, ,KENANSVILLE,34739,OSCEOLA,-81.10532459,27.78088604,17R ML 89623 72934,,15-31-32-0000-0010-0000,BLANKET BAY AIRPORT,"ADAMS, MIKE P.O. BOX 12909  FT. PIERCE FL 34979-2909",,Active,FL000833,6FD5,Private,Private,27.77863888,-81.09978888,,AIRPORT,-9028603.433578216,3221376.514114614
FOREVER FLORIDA AIRPORT, ,SAINT CLOUD,34773,OSCEOLA,-81.02292922,28.04290409,17R MM 97746 01955,,16-28-33-0000-0020-0000,FOREVER FLORIDA AIRPORT,"BROUSSARD, WILLIAM 4755 KENANSVILLE ROAD  ST. CLOUD FL 34773",,Active,FL000570,31FL,Private,Private,28.04335277,-81.01923055,,AIRPORT,-9019431.223643491,3254384.091264275
ESCAPE RANCH AIRPORT, ,KENANSVILLE,34739,OSCEOLA,-80.95749018,27.8608799,17R NL 04185 81792,,19-30-34-0000-0020-0000,ESCAPE RANCH AIRPORT,RANDY HOOPER P.O. BOX 58  KENANSVILLE FL 34739,,Active,FL000877,4FL1,Private,Private,27.86277777,-80.95805555,,AIRPORT,-9012146.582822692,3231445.2226690543
STOUT INTERNATIONAL AIRPORT & SPB, ,KISSIMMEE,34744,OSCEOLA,-81.38395706,28.25862241,17R MM 62338 25911,,26-25-29-3140-0005-0110,STOUT INTERNATIONAL AIRPORT & SPB,1575 PINE ISLAND RD  KISSIMMEE FL 34744,,Active,FL000493,FD83,Private,Private,28.25862222,-81.38395833,,AIRPORT,-9059620.659037907,3281619.460478323
GENTRY AIRPORT, ,SAINT CLOUD,34772,OSCEOLA,-81.26126262,28.13412275,17R MM 74343 12087,,13-27-30-4950-0001-0810,GENTRY AIRPORT,"SESSIONS, RAYMOND 2409 SW SISTER'S WELCOME RD SUITE 101 LAKE CITY FL 32025",,Active,FL000741,FD37,Private,Private,28.13723888,-81.26340277,,AIRPORT,-9045962.375776356,3265894.147091876
EL MAXIMO RANCH AIRPORT, , , ,OSCEOLA,-81.11333333,27.69416667,17R ML 88825 63329,,,EL MAXIMO RANCH AIRPORT,"WILSON, LATIMER T. P.O. BOX 3737  LAKE WALES FL 33859",,Active,FL000831,,Private,Private,27.69416666,-81.11333333,,AIRPORT,-9029494.963144822,3210469.6352405655
LAKE X AIRPORT,7975 OLD MELBOURNE HWY,SAINT CLOUD,34771,OSCEOLA,-81.11998196,28.21021292,17R MM 88226 20494,,,LAKE X AIRPORT,DAVE UNDERWOOD 7555 OLD MELBOURNE HWY  ST. CLOUD FL 34771,,Active,FL000742,57FA,Private,Private,28.20862499,-81.11923055,,AIRPORT,-9030235.085407225,3275502.7736335867
DUDA AIRSTRIP , ,SOUTHWEST PALM BEACH CO,00053,PALM BEACH,-80.6372751,26.58784656,17R NK 36118 40837,,00374503000009000,DUDA AIRSTRIP ,"CHAPMAN, TRACY P.O. BOX 620257  OVIEDO FL 32762-0257",,Active,FL000251,FA69,Private,Private,26.58784722,-80.63727777,,AIRPORT,-8976500.403046748,3072072.318650538
WILLIS GLIDERPORT AIRPARK, , , ,PALM BEACH,-80.21476944,26.548125,17R NK 78217 36627,,,WILLIS GLIDERPORT AIRPARK,"ROBERTSON, TERRY 10640 DENOEU ROAD  BOYNTON BEACH FL 33472",,Active,FL000265,FA44,Private,Private,26.548125,-80.21476944,,AIRPORT,-8929467.288567789,3067128.4870868293
WILLIAM P GWINN AIRPORT, ,LOXAHATCHEE,33470,PALM BEACH,-80.32821331,26.9082083,17R NK 66706 76445,,00404113000003010,WILLIAM P GWINN AIRPORT,"HARRIS, TREVOR P.O. BOX 109610  WEST PALM BEACH FL 33410-9610",,Active,FL000474,06FA,Private,Private,26.90839166,-80.32893611,,AIRPORT,-8942095.801548453,3112008.2621379
LOXAHATCHEE AIRPORT, ,LOXAHATCHEE,33470,PALM BEACH,-80.30532811,26.62256758,17R NK 69151 44820,,73404424000005010,LOXAHATCHEE AIRPORT,4153 160TH AVENUE SOUTH  WELLINGTON FL 33414,,Active,FL000529,7FD6,Private,Private,26.62256666,-80.305325,,AIRPORT,-8939548.232973306,3076395.1772829574
ANTIQUERS AERODROME, ,DELRAY BEACH,33446,PALM BEACH,-80.15162662,26.46538605,17R NK 84567 27503,,00424615010030000,ANTIQUERS AERODROME,"LUMLEY, WILLIAM 7320 SKYLINE DRIVE  DELRAY BEACH FL 33446",,Active,FL000335,FD08,Private,Private,26.46534999,-80.14976666,,AIRPORT,-8922438.26142392,3056836.1117766844
WELLINGTON AERO CLUB AIRPORT, ,WEST PALM BEACH,33414,PALM BEACH,-80.29421199,26.64645552,17R NK 70243 47471,,73414418010000020,WELLINGTON AERO CLUB AIRPORT,3461B FAIRLANE FARMS RD.   WELLINGTON FL 33414,,Active,FL000809,FD38,Private,Private,26.64645555,-80.29421388,,AIRPORT,-8938310.79268363,3079370.0508562867
OKEELANTA AIRPORT, ,SOUTHWEST PALM BEACH CO,00053,PALM BEACH,-80.7557118,26.58094537,17R NK 24326 40045,,00364509000009000,OKEELANTA AIRPORT,JOSE GONZALEZ 21250 US HIGHWAY 27 S SOUTH BAY FL 33493,,Active,FL000760,FL41,Private,Private,26.58083333,-80.75611111,,AIRPORT,-8989684.715902714,3071213.2586553055
CUB HAVEN STOLPORT, ,DADE CITY,33523,PASCO,-82.21487515,28.45334074,17R LM 81049 48023,,2123280000004000020,CUB HAVEN STOLPORT,"SPRIGG, JAMES 38102 MERIDIAN AVENUE  DADE CITY FL 33525",,Active,FL000916,FD53,Private,Private,28.45416666,-82.21555555,,AIRPORT,-9152118.036920264,3306250.851395186
TWO JS FLYING RANCH AIRPORT, , , ,PASCO,-82.217,28.45147222,17R LM 80838 47818,,,TWO JS FLYING RANCH AIRPORT,"WERME, JAMES P.O. BOX 508  TRILBY FL 33593",,Active,FL000878,3FL1,Private,Private,28.45147222,-82.217,,AIRPORT,-9152354.574587088,3306014.273394504
GERACI FIELD, , , ,PASCO,-82.48777778,28.175,17R LM 53945 17483,,,GERACI FIELD,20005 COUNTY LINE ROAD  LUTZ FL 33558,,Active,FL001274,FL35,Private,Private,28.175,-82.48777777,,AIRPORT,-9182497.418886341,3271055.2552718637
HIDDEN LAKE AIRPORT, ,NEW PORT RICHEY,34654,PASCO,-82.64565214,28.28250863,17R LM 38606 29596,,1725300010000000310,HIDDEN LAKE AIRPORT,"UNGAR, ED 8901 AIRWAY BLVD  NEW PORT RICHEY FL 34654",,Active,FL000620,FA40,Private,Private,28.28222222,-82.64583333,,AIRPORT,-9200071.91305628,3284638.5807539574
FIELD OF DREAMS AIRPORT, , , ,PASCO,-82.25194444,28.4725,17R LM 77441 50183,,,FIELD OF DREAMS AIRPORT,"MILLER, LARRY 21412 FIELD OF DREAMS LANE  DADE CITY FL 33523",,Active,FL000789,,Private,Private,28.4725,-82.25194444,,AIRPORT,-9156244.572276967,3308676.8969153236
DUSTY AIRPATCH, ,DADE CITY,33523,PASCO,-82.2234192,28.41305443,17R LM 80167 43568,,2124080000001000080,DUSTY AIRPATCH,"RHODE, H W 35731 BLANTON ROAD  DADE CITY FL 33523",,Active,FL000859,5FL0,Private,Private,28.41305555,-82.22341666,,AIRPORT,-9153069.156313168,3301151.0220990106
DAVID WINES AIRSTRIP, , , ,POLK,-81.43916667,27.84444444,17R ML 56757 80048,,,DAVID WINES AIRSTRIP,"HETTINGER, WILLIAM 2600 CEDARWOOD DRIVE  LAKE WALES FL 33898",,Active,FL000956,62FL,Private,Private,27.84444444,-81.43916666,,AIRPORT,-9065766.563987149,3229375.9107972714
EAGLES NEST LANDING, , , ,POLK,-81.84413074,28.03952334,17R MM 17031 01867,,,EAGLES NEST LANDING,"GROOVER, LARRY 1633 TAYLOR STREET  AUBURNDALE FL 33823",,Active,FL000201,FA53,Private,Private,28.04388888,-81.85138888,,AIRPORT,-9110846.9580883,3253957.693015325
GORE AIRPORT, , , ,POLK,-81.64701945,28.14335,17R MM 36467 13251,,,GORE AIRPORT,"GORE, DAVID P.O. BOX 519  DAVENPORT FL 33836",,Active,FL000418,4FL9,Private,Private,28.14335,-81.64701944,,AIRPORT,-9088904.62944254,3267058.995768571
GREEN SWAMP AERODROME, ,LAKELAND,33809,POLK,-81.9979268,28.21154563,17R MM 02070 21039,,232616000000011010,GREEN SWAMP AERODROME,"ARALDI, SUZANNE 11465 IRONHEAD TRAIL  LAKELAND FL 33809",,Active,FL000517,FD33,Private,Private,28.21167777,-81.99869166,,AIRPORT,-9127967.457485668,3275671.1290290956
LAKE CLINCH AIRPARK, ,FROSTPROOF,33843,POLK,-81.55945254,27.75515331,17R ML 44868 70205,,283130000000043290,LAKE CLINCH AIRPARK,"AMATO, LOUIS 446 AIRPORT ROAD  FROSTPROOF FL 33843",,Active,FL000391,52FL,Private,Private,27.75030555,-81.55951944,,AIRPORT,-9079156.726633988,3218139.148365802
FLANDERS FIELD, ,POLK CITY,33868,POLK,-81.82781074,28.20286776,17R MM 18758 19952,,252620000000024020,FLANDERS FIELD,"NEWBERRY, ROBERT P.O. BOX 2003  LAKELAND FL 33806",,Active,FL000715,4FD7,Private,Private,28.20640277,-81.82785555,,AIRPORT,-9109030.224389704,3274574.932682773
VILLA CHAR MAR AIRPORT, , , ,POLK,-81.64972222,27.78972222,17R ML 35993 74078,,,VILLA CHAR MAR AIRPORT,1901 BUFFUM LAKE TRAIL  FT MEADE FL 33841,,Active,FL001395,1FA9,Private,Private,27.78972222,-81.64972222,,AIRPORT,-9089205.501140958,3222488.346546135
SOUTHERLY AIRPORT, ,HAINES CITY,33844,POLK,-81.53685074,28.01420859,17R ML 47221 98892,,282829935955002410,SOUTHERLY AIRPORT,"DREWNIANY, FRANK 971 SAN PEDRO AVENUE  CORAL GABLES FL 33156",,Active,FL000339,58FD,Private,Private,28.01416666,-81.54055555,,AIRPORT,-9076640.70481415,3250765.285874907
BURNTWOOD RANCH AIRPORT, ,LAKELAND,33809,POLK,-81.93025052,28.27357676,17R MM 08765 27859,,242605000000033010,BURNTWOOD RANCH AIRPORT,ALEJANDRO VILLANUEVA 6225 DEEN STILL ROAD  LAKELAND FL 33809,,Active,FL000218,FL43,Private,Private,28.28166666,-81.94111111,,AIRPORT,-9120433.768350424,3283509.5492652897
RIDGE LANDING AIRPORT, , , ,POLK,-81.60055556,27.75722222,17R ML 40819 70453,,,RIDGE LANDING AIRPORT,"FAZZINI, JOHN 101 EAST STUART AVENUE  LAKE WALES FL 33853",,Active,FL001295,4FL5,Private,Private,27.75722222,-81.60055555,,AIRPORT,-9083732.292965336,3218399.403824603
BENT WILLIES AIRPORT, , , ,POLK,-81.43202778,27.93961111,17R ML 57498 90587,,,BENT WILLIES AIRPORT,9605 CAMP MACK ROAD  LAKE WALES FL 33898,,Active,FL001304,52FA,Private,Private,27.93961111,-81.43202777,,AIRPORT,-9064971.866493499,3241362.2634358453
MARKET WORLD AIRPORT, , , ,POLK,-81.81638889,28.05861111,17R MM 19772 03963,,,MARKET WORLD AIRPORT,"TO, VINCENT 1053 HIGHWAY 92 WEST  AUBURNDALE FL 33823",,Active,FL000942,FL16,Private,Private,28.05861111,-81.81638888,,AIRPORT,-9107758.749670275,3256365.3213713123
MACDILL AFB AUX FLD, ,FROSTPROOF,33843,POLK,-81.34892164,27.65051375,17R ML 65582 58537,,303232000000000000,MACDILL AFB AUX FLD,COMMAND POST 813-828-4361 U.S. AIR FORCE AVON PARK FL ,,Active,FL001011,AGR,Private,Military USAF,27.65058611,-81.34951666,,AIRPORT,-9055720.53338433,3204982.5958134113
GATOR AIRPARK STOLPORT, , , ,POLK,-81.56813056,28.15751667,17R MM 44220 14782,,,GATOR AIRPARK STOLPORT,"ALBRITTON, ROBERT 4525 ALBRITTON ROAD  ST CLOUD FL 34772",,Active,FL000740,72FL,Private,Private,28.15751666,-81.56813055,,AIRPORT,-9080122.758416096,3268847.591476547
"ORLAMPA, INC. AIRPORT", ,POLK CITY,33868,POLK,-81.80919253,28.16829165,17R MM 20560 16109,,252704000000011030,"ORLAMPA, INC. AIRPORT",1400 BROADWAY BLVD. SE  POLK CITY FL 33868,,Active,FL000716,FA08,Private,Private,28.16695833,-81.80813333,,AIRPORT,-9106957.654261583,3270208.1325041004
EAGLES NEST AIRPORT & SPB,561 GEORGETOWN SHORTCUT RD,CRESCENT CITY,32112,PUTNAM,-81.60275445,29.42784168,17R MN 41534 55539,,29-12-27-0000-0040-0000,EAGLES NEST AIRPORT & SPB,521 GEORGETOWN SHORTCUT RD  CRESCENT CITY FL 32112,,Active,FL000312,FD44,Private,Private,29.42707027,-81.60423833,,AIRPORT,-9083977.07227676,3430214.213448707
LIB FIELD, , , ,PUTNAM,-81.66647222,29.52060556,17R MN 35412 65851,,,LIB FIELD,"BRENNER, DONALD 119 ASHLEY LANE  SATSUMA FL 32189-3101",,Active,FL000805,2FD8,Private,Private,29.52060555,-81.66647222,,AIRPORT,-9091070.102641953,3442075.803090687
SANDERS RANCH AIRPORT,1591 BADEN POWELL RD,HAWTHORNE, ,PUTNAM,-82.0090002,29.66244401,17R MN 02354 81807,,,SANDERS RANCH AIRPORT,SANDERS DRIVE S 1611 BADEN POWELL ROAD  HAWTHORNE FL 32640,,Active,FL000572,39FA,Private,Private,29.66246666,-82.00926111,,AIRPORT,-9129200.143043082,3460233.5453373035
OAK RIDGE AIR PARK, , , ,PUTNAM,-81.85013889,29.56680556,17R MN 17650 71086,,,OAK RIDGE AIR PARK,160 OAK RIDGE DRIVE  INTERLACHEN FL 32148,,Active,FL001132,FL82,Private,Private,29.56680555,-81.85013888,,AIRPORT,-9111515.782459514,3447987.389261949
MOUNT ROYAL AIRPORT,TIMUCUAN TRL,CRESCENT CITY,32112,PUTNAM,-81.66057579,29.43418788,17R MN 35929 56272,,37-12-26-6086-0000-1110,MOUNT ROYAL AIRPORT,JASON I. SHEFFIELD 111 INDIAN MOUND DRIVE CRESCENT CITY FL 32112,,Active,FL000806,3FL0,Private,Private,29.43491666,-81.65676388,,AIRPORT,-9090413.714927262,3431025.34684951
JIM FINLAY FARM AIRPORT,1584 COUNTY ROAD 308,CRESCENT CITY,32112,PUTNAM,-81.58443137,29.44120618,17R MN 43319 57011,,21-12-27-0000-0040-0010,JIM FINLAY FARM AIRPORT,"ABBING, FRITS P.O. BOX 774  CRESCENT CITY FL 32112",,Active,FL000316,28FL,Private,Private,29.44123611,-81.58443055,,AIRPORT,-9081937.356570123,3431922.444589885
THUNDERBIRD AIRPARK,118 CESSNA ST,CRESCENT CITY,32112,PUTNAM,-81.57202119,29.47219461,17R MN 44539 60438,,09-12-27-0000-0110-0000,THUNDERBIRD AIRPARK,"SAULS, IVESON P.O. BOX 27 118 CESSNA STREET LAKE COMO FL 32157",,Active,FL000313,2FA5,Private,Private,29.47348611,-81.57095833,,AIRPORT,-9080555.862333594,3435884.2068575365
MELROSE LANDING AIRSTRIP ,126 MELROSE LANDING DR,HAWTHORNE,32640,PUTNAM,-81.95566978,29.66442712,17R MN 07517 81983,,36-09-23-5740-0160-0410,MELROSE LANDING AIRSTRIP ,267 MELROSE LANDING DRIVE  HAWTHORNE FL 32640,,Active,FL000573,FD22,Private,Private,29.66770833,-81.95204166,,AIRPORT,-9123263.42708696,3460487.598761249
CRESCENT LAKE FARMS AIRPORT,398 CLIFTON RD,CRESCENT CITY,32112,PUTNAM,-81.49589781,29.40485292,17R MN 51888 52943,,05-13-28-0000-0010-0000,CRESCENT LAKE FARMS AIRPORT,"C/O MIDNIGHT FLORIDA LAND, LLC 350 CLIFTON ROAD  CRESCENT CITY  FL 32112",,Active,FL000315,16FD,Private,Private,29.40483333,-81.49655555,,AIRPORT,-9072081.846076526,3427276.3476926074
POMONA LANDING AIRPORT,119 POMONA LANDING RD,CRESCENT CITY,32181,PUTNAM,-81.57645481,29.50490778,17R MN 44127 64065,,33-11-27-0000-0030-0000,POMONA LANDING AIRPORT,"WARREN, ROBERT 113 POMONA LANDING RD.  POMONA PARK FL 32181",,Active,FL000717,78FL,Private,Private,29.50230555,-81.57743055,,AIRPORT,-9081049.409672076,3440067.7861753483
MARJORIE KENNAN RAWLINGS AIRPORT, , , ,PUTNAM,-82.05334722,29.47926389,17R LN 97877 61547,,,MARJORIE KENNAN RAWLINGS AIRPORT,"STRANG, CARL P.O. BOX 194  WINTER HAVEN FL 33882-5558",,Active,FL000999,2FD2,Private,Private,29.47926388,-82.05334722,,AIRPORT,-9134136.830622297,3436788.1595581584
EARLE AIRPARK,8575 BARREL FACTORY RD,HASTINGS,32145,ST. JOHNS,-81.50680556,29.68969444,17R MN 50968 84509,,0489700000,EARLE AIRPARK,"EARLE, NORMAN 8701 HASTINGS BLVD  HASTINGS FL 32145",,Active,FL000422,13FA,Private,Private,29.68969444,-81.50680555,,AIRPORT,-9073296.090713711,3463724.993644409
TATER FARMS STRIP,9600 HASTINGS BLVD,HASTINGS,32145,ST. JOHNS,-81.499,29.67643056,17R MN 51716 83036,,0488400000,TATER FARMS STRIP,5625 KELLY RD.  HASTINGS FL 32145,,Active,FL000421,46FD,Private,Private,29.67643055,-81.499,,AIRPORT,-9072427.180174999,3462025.4462780617
HUTSON AIRFIELD,4050 W STATE ROAD 206,ELKTON,32033,ST. JOHNS,-81.44147335,29.72864442,17R MN 57305 88799,,0382300000,HUTSON AIRFIELD,SR 206 WEST  ST. AUGUSTINE FL 32033,,Active,FL000424,8FL0,Private,Private,29.72833055,-81.43879444,,AIRPORT,-9066023.34318106,3468717.0840719477
EVANS PROPERTIES AIRPORT,Bluefield Rd,PORT SAINT LUCIE,34988,ST. LUCIE,-80.58589099,27.27782249,17R NL 40984 17275,,4101-111-0002-010-0,EVANS PROPERTIES AIRPORT,"EDWARDS, RONALD 660 BEACHLAND BLVD, #301  VERO BEACH FL 32963",,Active,FL000384,FL67,Private,Private,27.27782222,-80.58588888,,AIRPORT,-8970780.350622654,3158225.083073523
WILLIAMS HAWGWILD AIRPORT, ,FORT PIERCE,34945,ST. LUCIE,-80.42783306,27.40892942,17R NL 56561 31859,,2327-601-0006-000-7,WILLIAMS HAWGWILD AIRPORT,"GORDY, JAMES 500 PULITZER ROAD  FT. PIERCE FL 34945",,Active,FL000376,FL56,Private,Private,27.40892777,-80.42783055,,AIRPORT,-8953185.421658114,3174655.6338891312
AERO ACRES AIRPORT, ,PORT SAINT LUCIE,34987,ST. LUCIE,-80.52199516,27.34198749,17R NL 47281 24405,,3215-801-0031-000-4,AERO ACRES AIRPORT,"OWEN, BEBE 18506 MACH ONE DRIVE  PORT ST. LUCIE FL 34987-3211",,Active,FL000378,FD88,Private,Private,27.34198611,-80.522,,AIRPORT,-8963667.498698954,3166263.9251615754
DRAGONFLY AIRPORT, ,FORT PIERCE,34945,ST. LUCIE,-80.56505513,27.44392762,17R NL 42982 35681,,2207-411-0001-000-0,DRAGONFLY AIRPORT,"ADAMS, MIKE P.O. BOX 12909  FT. PIERCE FL 34979-2909",,Active,FL000374,7FL8,Private,Private,27.44392777,-80.56505555,,AIRPORT,-8968460.913013155,3179044.9634574903
SCOTT 2000 AIRPORT, ,FORT PIERCE,34945,ST. LUCIE,-80.66200207,27.54725761,17R NL 33370 47096,,1105-331-0001-000-9,SCOTT 2000 AIRPORT,"EDWARDS, RONALD 660 BEACHLAND BLVD, SUITE 301  VERO BEACH FL 32963",,Active,FL000796,23FD,Private,Private,27.54725833,-80.66200277,,AIRPORT,-8979252.99653771,3192012.317367999
ADAMS RANCH AIRPORT, ,FORT PIERCE,34945,ST. LUCIE,-80.58422001,27.44198352,17R NL 41089 35459,,2112-411-0050-000-7,ADAMS RANCH AIRPORT,"ADAMS, MIKE P.O. BOX 12909  FT. PIERCE FL 34979-2909",,Active,FL000373,7FL3,Private,Private,27.44198333,-80.58422222,,AIRPORT,-8970594.337477012,3178801.1056460245
TREASURE COAST AIRPARK, ,PORT SAINT LUCIE,34987,ST. LUCIE,-80.48865029,27.24085123,17R NL 50625 13215,,4224-501-0075-000-4,TREASURE COAST AIRPARK,12301 RANGE LINE ROAD  PORT SAINT LUCIE FL 34987,,Active,FL000379,FL37,Private,Private,27.24875,-80.494,,AIRPORT,-8959955.564490302,3153595.287730205
HALE 700 AIRPORT, ,PORT SAINT LUCIE,34988,ST. LUCIE,-80.57089205,27.36115234,17R NL 42437 26510,,3205-323-0026-000-8,HALE 700 AIRPORT,"EDWARDS, RONALD 660 BEACHLAND BLVD, SUITE 301  VERO BEACH FL 32963",,Active,FL000375,FL29,Private,Private,27.36115277,-80.57088888,,AIRPORT,-8969110.675547117,3168665.874728164
SOUTHEASTERN AIRPORT, ,FORT PIERCE,34945,ST. LUCIE,-80.5261681,27.41142759,17R NL 46839 32095,,2222-333-0026-000-9,SOUTHEASTERN AIRPORT,"STONE, CHARLES 2720 SNEED ROAD  FORT PIERCE FL 34945-4711",,Active,FL000372,FD30,Private,Private,27.41142777,-80.52616666,,AIRPORT,-8964132.028904129,3174968.8982737525
THOMAS FARMS AIRPORT, ,JAY,32565,SANTA ROSA,-87.0557539,30.96903826,16R DV 94675 26171,,05-5N-28-0000-00300-0000,THOMAS FARMS AIRPORT,6220 TALL PNE ROAD  JAY FL 32565,,Active,FL000466,85FL,Private,Private,30.96934999,-87.05722222,,AIRPORT,-9691002.19512453,3628728.8240063507
CHOCTAW NOLF, ,EGLIN AFB,32542,SANTA ROSA,-86.95978365,30.49837914,16R EU 03859 74012,,24-1S-27-0000-00100-0000,CHOCTAW NOLF,OPERATIONS CENTER 850-623-7333 U.S. NAVY MILTON FL ,,Active,FL001023,NFJ,Private,Military Navy,30.50694444,-86.95972222,,AIRPORT,-9680318.835116372,3567774.048383208
SPENCER NOLF, ,MILTON,32571,SANTA ROSA,-87.13990497,30.62531187,16R DU 86591 88086,,03-1N-29-0000-00100-0000,SPENCER NOLF,OPERATIONS CENTER 850-623-7333 U.S. NAVY PACE FL ,,Active,FL001017,NRQ,Private,Military Navy,30.61666666,-87.13333333,,AIRPORT,-9700369.849190861,3584183.7642274527
GARCON FIELD AIRPORT, ,MILTON,32583,SANTA ROSA,-87.08689905,30.4956086,16R DU 91660 73708,,17-1S-28-0000-01313-0000,GARCON FIELD AIRPORT,"HENRY, EDWIN 1637 PEARSON ROAD  MILTON FL 32583",,Active,FL000604,24FL,Private,Private,30.49519722,-87.0858,,AIRPORT,-9694469.256746804,3567416.1155922664
PACE NOLF, , , ,SANTA ROSA,-87.19195967,30.70255471,16R DU 81617 96654,,,PACE NOLF,OPERATIONS CENTER 850-623-7333 U.S. NAVY WALLACE FL ,,Active,FL001026,NVI,Private,Military Navy,30.69965277,-87.19564722,,AIRPORT,-9706164.552242817,3594180.1606849884
BUCHANAN AIRPORT, , , ,SANTA ROSA,-87.20746944,30.87601667,16R DV 80168 15880,,,BUCHANAN AIRPORT,"BUCHANAN, GARY 2951 BUD DIAMOND ROAD  JAY FL 32565",,Active,FL001034,56FL,Private,Private,30.87601666,-87.20746944,,AIRPORT,-9707891.09189387,3616657.993512654
HOLLEY NOLF, ,NAVARRE,32566,SANTA ROSA,-86.89436532,30.4253738,16R EU 10144 65926,,18-2S-26-0000-00300-0000,HOLLEY NOLF,OPERATIONS CENTER 850-623-7333 U.S. NAVY FORT WALTON BEACH FL ,,Active,FL001022,NKL,Private,Military Navy,30.42519722,-86.89385,,AIRPORT,-9673036.499680912,3558345.7038953784
WHITING FIELD NAS - NORTH, ,MILTON,32570,SANTA ROSA,-87.02591199,30.72089901,16R DU 97519 98671,,35-3N-28-0000-00100-0000,WHITING FIELD NAS - NORTH,OPERATIONS CENTER 850-623-7333 U.S. NAVY MILTON FL ,,Active,FL001025,NSE,Private,Military Navy,30.72416666,-87.02194444,,AIRPORT,-9687680.208245188,3596555.3669462753
J-22 RANCH AIRPORT, , , ,SANTA ROSA,-87.20136111,30.72518889,16R DU 80721 99163,,,J-22 RANCH AIRPORT,"COOK, CHARLES 7869 SKYHAWK ROAD  PACE FL 32571",,Active,FL000603,16FL,Private,Private,30.72518888,-87.20136111,,AIRPORT,-9707211.11538101,3597110.8818374597
ODOMS FLYING SERVICE AIRPORT, , , ,SANTA ROSA,-87.23552778,30.85268611,16R DV 77480 13299,,,ODOMS FLYING SERVICE AIRPORT,"ODOM, DOUGLAS 1870 MINERAL SPRINGS ROAD  JAY FL 32565",,Active,FL000469,50FL,Private,Private,30.85268611,-87.23552777,,AIRPORT,-9711014.53131323,3613632.3723063464
WHITING FIELD NAS - SOUTH, ,MILTON,32570,SANTA ROSA,-87.01647608,30.69691154,16R DU 98422 96013,,11-2N-28-0000-00100-0000,WHITING FIELD NAS - SOUTH,OPERATIONS CENTER 850-623-7333 U.S. NAVY MILTON FL ,,Active,FL001019,NDZ,Private,Military Navy,30.69713611,-87.01635277,,AIRPORT,-9686629.807686916,3593449.577086032
BLACKWATER AIRFIELD, ,MILTON,32570,SANTA ROSA,-86.85370276,30.87634491,16R EV 13984 15907,,04-4N-26-0000-00100-0000,BLACKWATER AIRFIELD,FLORIDA FOREST SERVICE 11650 MUNSON HWY MILTON FL 32570,,Active,FL000614,8FD3,Private,Private,30.87768611,-86.85440555,,AIRPORT,-9668509.964440532,3616700.566700537
JAY FLYING SERVICE AIRPORT, , , ,SANTA ROSA,-87.17441389,30.90212778,16R DV 83332 18768,,,JAY FLYING SERVICE AIRPORT,"NELSON, JIMMY 3110 PINE LEVEL CHURCH ROAD  JAY FL 32565",,Active,FL000468,09FL,Private,Private,30.90212777,-87.17441388,,AIRPORT,-9704211.364327619,3620045.0844802074
HAROLD NOLF, , , ,SANTA ROSA,-86.88679042,30.67995741,16R EU 10843 94139,,,HAROLD NOLF,OPERATIONS CENTER 850-623-7333 U.S. NAVY HAROLD FL ,,Active,FL001018,NZX,Private,Military Navy,30.68074722,-86.88718333,,AIRPORT,-9672193.266706428,3591254.900064642
SANTA ROSA NOLF, ,MILTON,32583,SANTA ROSA,-86.93917415,30.60855562,16R EU 05830 86222,,10-1N-27-0000-00100-0000,SANTA ROSA NOLF,OPERATIONS CENTER 850-623-7333 U.S. NAVY MILTON FL ,,Active,FL001024,NGS,Private,Military Navy,30.61083333,-86.94,,AIRPORT,-9678024.596770136,3582016.305174977
MCCUTCHAN AIRSTRIP, ,MILTON,32583,SANTA ROSA,-86.85190523,30.67352448,16R EU 14185 93430,,16-2N-26-0000-00405-0000,MCCUTCHAN AIRSTRIP,11175 HIGHWAY 90  MILTON FL 32583,,Active,FL000419,8FL6,Private,Private,30.673525,-86.85190277,,AIRPORT,-9668309.864315854,3590422.2699381313
SCHWARTZ FARMS AIRPORT, ,SARASOTA,34240,SARASOTA,-82.3175935,27.34366888,17R LL 69667 25189,,0536-02-0001,SCHWARTZ FARMS AIRPORT,"SCHWARTZ, MICHAEL 13011 FRUITVILLE ROAD  SARASOTA FL 34240",,Active,FL000750,4FL8,Private,Private,27.34365555,-82.31731388,,AIRPORT,-9163552.591409208,3166474.638383869
HIDDEN RIVER AIRPORT, ,SARASOTA,34240,SARASOTA,-82.27307998,27.30224796,17R LL 74024 20554,,0574-01-1000,HIDDEN RIVER AIRPORT,"MARTENEY, DON 3776 HIDDEN RIVER RD.  SARASOTA FL 34240",,Active,FL000753,22FA,Private,Private,27.30310277,-82.27259166,,AIRPORT,-9158597.369289612,3161284.6538043953
SOUTHERLAND STRIP, ,GENEVA,32732,SEMINOLE,-81.07867409,28.73277043,17R MM 92317 78381,,2420325UZ00000070,SOUTHERLAND STRIP,"SHAW, DAN 244 NORTH JUNGLE ROAD  GENEVA FL 32732",,Active,FL000404,FD92,Private,Private,28.7325,-81.07888888,,AIRPORT,-9025636.713370375,3341677.4668831322
BIG OAKS RANCH AIRPORT, ,OVIEDO,32766,SEMINOLE,-81.08450324,28.66694047,17R MM 91743 71089,,142132300001A0000,BIG OAKS RANCH AIRPORT,"GREEN, QUENTIN 623 GRAND CHENIER COVE CHULUOTA FL 32766",,Active,FL000301,6FD2,Private,Private,28.66694166,-81.08450555,,AIRPORT,-9026285.612130638,3333322.9313089214
CEDAR KNOLL FLYING RANCH AIRPORT, ,GENEVA,32732,SEMINOLE,-81.15922515,28.7819365,17R MM 84459 83836,,06203230001500000,CEDAR KNOLL FLYING RANCH AIRPORT,"LOWERY, WILLIAM 3000 WEST OSCEOLA ROAD  GENEVA FL 32732",,Active,FL000921,01FL,Private,Private,28.78194444,-81.15916666,,AIRPORT,-9034603.61717542,3347920.6056404463
FREE FLIGHT INTERNATIONAL AIRPORT,2327 TAYLOR AVE,WILDWOOD,34785,SUMTER,-82.06848075,28.80401881,17R LM 95731 86741,PRIVATE,F25=092,FREE FLIGHT INTERNATIONAL AIRPORT,"ARENAS, FRANK P.O. BOX 600 1511 TAYLOR AVE. COLEMAN FL 33521",,Active,FL000311,2FA6,Private,Private,28.81109999,-82.06536388,,AIRPORT,-9135821.487141423,3350725.5891687884
GRASS PATCH AIRPORT, ,BUSHNELL,33513,SUMTER,-82.2221356,28.64493854,17R LM 80554 69259,PRIVATE,M21=014,GRASS PATCH AIRPORT,"WADE, JAMES 7787 SW 70TH DRIVE  BUSHNELL FL 33513",,Active,FL001208,00FA,Private,Private,28.64527777,-82.21888888,,AIRPORT,-9152926.267260652,3330531.8190918616
CHERYL-LANE LANDINGS,1008 COUNTY ROAD 548,BUSHNELL,33513,SUMTER,-82.08649993,28.67213258,17R LM 93839 72144,PRIVATE,N11=043,CHERYL-LANE LANDINGS,"PURCELL, CHERYL P O BOX 1233  BUSHNELL FL 33513",,Active,FL000279,09FD,Private,Private,28.67110277,-82.08730555,CR 548,AIRPORT,-9137827.373086382,3333981.6760324673
KO-KEE AIRPORT,3031 COUNTY ROAD 673,WEBSTER,33597,SUMTER,-82.15465839,28.60278794,17R LM 87104 64523,,S07=079,KO-KEE AIRPORT,"JEFFERSON, KENNETH 37305 VERO LANE  DADE CITY FL 33525",,Active,FL000280,4FL2,Private,Private,28.59499444,-82.14980833,,AIRPORT,-9145414.73858119,3325186.3284528283
FLYING W AIRRANCH AIRPORT, , , ,SUMTER,-82.16010881,28.68170286,17R LM 86656 73272,,,FLYING W AIRRANCH AIRPORT,"WILLIAMS, ROBBY 5020 COUNTY ROAD 316A  BUSHNELL FL 33513",,Active,FL000281,9FL1,Private,Private,28.68333333,-82.16361111,,AIRPORT,-9146021.476644065,3335195.9810517514
S & S AVION RANCH AIRPORT, , , ,SUMTER,-82.13416667,28.95916667,17R LN 89484 03991,,,S & S AVION RANCH AIRPORT,"DOLLEN, STANLEY 1120 COUNTY ROAD 245 NORTH  OXFORD FL 34484",,Active,FL000953,31FA,Private,Private,28.95916666,-82.13416666,,AIRPORT,-9143133.610101204,3370449.8923660526
TCB AIRPORT, , , ,SUMTER,-81.98166667,28.91916667,17R MM 04308 99426,,,TCB AIRPORT,"BOWLING, CARL 8480 NW 130TH ST  REDDICK FL 32686",,Active,FL000848,,Private,Private,28.91916666,-81.98166666,,AIRPORT,-9126157.387738762,3365361.780139582
CONNELLS WAHOO AIRPORT, , , ,SUMTER,-82.15777778,28.63194444,17R LM 86831 67757,,,CONNELLS WAHOO AIRPORT,"CONNELL, PATRICIA 8400 COUNTY ROAD 614A  BUSHNELL FL 33513",,Active,FL000851,25FL,Private,Private,28.63194444,-82.15777777,,AIRPORT,-9145761.986935202,3328883.6937998338
THE TRAILS AIRPORT, ,LIVE OAK,32060,SUWANNEE,-83.1887084,30.10975439,17R KP 89111 32968,,2604S11E12071000000,THE TRAILS AIRPORT,THE TRAILS P.O.A. 18400 211  ROAD  LIVE OAK FL 32060,,Active,FL000566,FD50,Private,Private,30.10911111,-83.18874722,,AIRPORT,-9260524.659328233,3517665.562408091
OBRIEN AIRPARK, , , ,SUWANNEE,-82.967975,30.03568056,17R LP 10242 24370,,,OBRIEN AIRPARK,"VANSPRONSEN, PIETER P.O. BOX 257  O'BRIEN FL 32071",,Active,FL000270,FD71,Private,Private,30.03568055,-82.967975,,AIRPORT,-9235952.729150625,3508137.0711752498
MOSS MEADOWS AIRPORT, , , ,SUWANNEE,-82.90619444,30.237,17R LP 16573 46584,,,MOSS MEADOWS AIRPORT,"MOSS, RONALD 11620 75TH DRIVE  LIVE OAK FL 32060",,Active,FL000957,45FL,Private,Private,30.23699999,-82.90619444,,AIRPORT,-9229075.34909487,3534050.505506996
RED BARN ACRES AIRPORT, ,LIVE OAK,32060,SUWANNEE,-82.99788681,30.17635718,17R LP 07630 40013,,3403S13E08791001003,RED BARN ACRES AIRPORT,12153 CR 252  LIVE OAK FL 32060,,Active,FL000543,FD61,Private,Private,30.17751388,-82.99755555,,AIRPORT,-9239282.496568438,3526239.1163749895
BUDDY'S AG SERVICE AIRPORT, ,MC ALPIN,32062,SUWANNEE,-82.96842721,30.12434858,17R LP 10368 34199,,2404S13E09001000000,BUDDY'S AG SERVICE AIRPORT,10791 184TH STREET  MCALPIN FL 32062,,Active,FL000550,9FD9,Private,Private,30.12244722,-82.96790833,,AIRPORT,-9236003.068813661,3519543.728338759
SPIRIT OF SUWANNEE AIRPORT, , , ,SUWANNEE,-82.95617222,30.4016,17R LP 12078 64911,,,SPIRIT OF SUWANNEE AIRPORT,3076 95TH DRIVE  LIVE OAK FL 32060,,Active,FL001134,,Private,Private,30.4016,-82.95617222,,AIRPORT,-9234638.84993712,3555276.9378619464
FLYING C FARM AIRPORT, , , ,SUWANNEE,-82.87361111,29.96416667,17R LP 19213 16291,,,FLYING C FARM AIRPORT,"CASSUBE, ROBERT P O BOX 266 26859 63RD. PL BRANFORD FL 32008",,Active,FL001263,FD16,Private,Private,29.96416666,-82.87361111,,AIRPORT,-9225448.189098155,3498944.633647701
LITTLE RIVER AIRPORT, ,MC ALPIN,32062,SUWANNEE,-82.90812006,30.11819631,17R LP 16167 33418,,2704S14E03216001000,LITTLE RIVER AIRPORT,P.O.BOX 81  MCALPIN FL 32062,,Active,FL000551,FL10,Private,Private,30.11494999,-82.90901666,,AIRPORT,-9229289.708165092,3518751.9430373497
AARON COLLINS AIRPORT, ,LIVE OAK,32060,SUWANNEE,-83.05302391,30.21128137,17R LP 02390 43979,,1903S13E08666000000,AARON COLLINS AIRPORT,"COLLINS, AARON 12544 BASS ROAD  LIVE OAK FL 32060",,Active,FL000538,FD42,Private,Private,30.21129166,-83.05379166,,AIRPORT,-9245420.330921441,3530737.1062977994
SUWANNEE FARMS AIRPORT, ,MC ALPIN,32062,SUWANNEE,-83.05522942,30.09021798,17R LP 01936 30563,,3104S13E09057000000,SUWANNEE FARMS AIRPORT,"HALL, JOSEPH 19620 COUNTY ROAD 349 NORTH  O'BRIEN FL 32071",,Active,FL000629,FL18,Private,Private,30.09024999,-83.05472222,,AIRPORT,-9245665.84685221,3515151.80259892
BUCKNER AIRSTRIP, ,MC ALPIN,32062,SUWANNEE,-82.92246187,30.09773889,17R LP 14747 31174,,3304S14E03266001000,BUCKNER AIRSTRIP,"HOLTZCLAW, J 21809 93RD DRIVE  O'BRIEN FL 32071",,Active,FL000549,8FD1,Private,Private,30.09883888,-82.92762777,,AIRPORT,-9230886.230798507,3516119.463232444
THOMPSON AIRFIELD, ,O BRIEN,32071,SUWANNEE,-82.83542316,29.98186253,17R LP 22930 18193,,0806S15E01282000000,THOMPSON AIRFIELD,"BOSSERMAN, TERRY 4541 256TH ST. O'BRIEN FL 32071",,Active,FL000897,0FL1,Private,Private,29.98188888,-82.83555555,,AIRPORT,-9221197.12609674,3501218.6542305304
SUWANNEE BELLE AIRPORT, ,O BRIEN,32071,SUWANNEE,-83.08427814,30.09536803,17R KP 99146 31185,,3504S12E10762000000,SUWANNEE BELLE AIRPORT,"RIKANSRUD, ERIC 10121 SNUG HARBOR ROAD  ST. PETERSBURG FL 33702",,Active,FL000541,9FL0,Private,Private,30.09379166,-83.08488888,,AIRPORT,-9248899.535613857,3515814.4140005675
PITTMAN OAKS AIRPORT, , , ,SUWANNEE,-83.04846944,30.42504167,17R LP 03256 67666,,,PITTMAN OAKS AIRPORT,1253 145TH ROAD  LIVE OAK FL 32060,,Active,FL001097,FA88,Private,Private,30.42504166,-83.04846944,,AIRPORT,-9244913.329773594,3558302.826769094
KITTY HAWK ESTATES AIRPORT, ,LIVE OAK,32060,SUWANNEE,-83.14316358,30.33867468,17R KP 93978 58261,,0502S12E09847004004,KITTY HAWK ESTATES AIRPORT,"CAUDILL, KELLY 18786 60TH PLACE A  LIVE OAK FL 32060",,Active,FL000545,FL09,Private,Private,30.33898611,-83.14370833,,AIRPORT,-9255454.632687068,3547158.0236068857
FLORIDA SHERIFFS BOYS RANCH AIRPORT,1672 DON MCLEOD PL,LIVE OAK,32060,SUWANNEE,-83.01770252,30.41459316,17R LP 06191 66455,,0901S13E04594000000,FLORIDA SHERIFFS BOYS RANCH AIRPORT,"GOFF, BRUCE P.O. BOX 2000  BOYS RANCH FL 32064",,Active,FL000544,FL08,Private,Private,30.414625,-83.01776388,,AIRPORT,-9241488.371166999,3556954.0266719726
FLINTS FLYING RANCH AIRPORT, ,BRANFORD,32008,SUWANNEE,-82.90734803,29.97578358,17R LP 15978 17632,,1006S14E03873001000,FLINTS FLYING RANCH AIRPORT, 7779 264TH STREET  BRANFORD FL 32008,,Active,FL000271,2FD0,Private,Private,29.97518055,-82.90723611,,AIRPORT,-9229203.765366644,3500437.427809617
WINGS N SUNSETS AIRPORT, ,LIVE OAK,32060,SUWANNEE,-82.92439523,30.25031221,17R LP 14846 48089,,0403S14E02594000000,WINGS N SUNSETS AIRPORT,"WILLSON, CATHERINE 10852 89TH ROAD  LIVE OAK FL 32060",,Active,FL000540,FL07,Private,Private,30.25023611,-82.92408333,,AIRPORT,-9231101.451679435,3535765.8933571777
SYLVANMIR FARMS AIRPORT, ,PERRY,32348,TAYLOR,-83.57320532,29.8207162,17R KP 51332 01697,,36070706998050,SYLVANMIR FARMS AIRPORT,"KOHLER, WILLIAM 24087 TWISTER LANE  BROOKSVILLE FL 34602",,Active,FL000478,6FL4,Private,Private,29.82073611,-83.57315277,,AIRPORT,-9303326.660438238,3480525.33641079
STEINHATCHEE ANCIENT OAKS AIRPORT, ,SALEM,32356,TAYLOR,-83.35123869,29.72662116,17R KN 72576 90808,,06091010113500,STEINHATCHEE ANCIENT OAKS AIRPORT,"RICE, ALLEN P.O. BOX 279  STEINHATCHEE FL 32359",,Active,FL000762,39FD,Private,Private,29.72647222,-83.35127777,,AIRPORT,-9278617.447586041,3468457.7228236226
LUMARS STOLPORT, ,PERRY,32347,TAYLOR,-83.55166202,30.13016784,17R KP 54179 35957,,17040807396000,LUMARS STOLPORT,"TURNER, LUTHER 2150 ELLISON ROAD  PERRY FL 32347",,Active,FL000707,FA29,Private,Private,30.13045833,-83.55148611,,AIRPORT,-9300928.47080317,3520292.7029342
EZELL AIRPORT, ,KEATON BEACH,32348,TAYLOR,-83.60700649,29.90496643,17R KP 48277 11111,,03070706557125,EZELL AIRPORT,"EZELL, DANNY 15030 BEACH ROAD  PERRY FL 32348",,Active,FL000479,5FL1,Private,Private,29.90461111,-83.60722222,,AIRPORT,-9307089.389052333,3491340.0042844396
FLYING TIGER AIRPORT, ,LAKE BUTLER,32054,UNION,-82.41066716,29.93551546,17R LP 63849 12476,,28-06-19-00-000-0011-0,FLYING TIGER AIRPORT,J.D RIMES JR P.O. BOX 22 WORTHINGTON SPRINGS FL 32697,,Active,FL000215,FL54,Private,Private,29.93515277,-82.41077777,,AIRPORT,-9173913.504375033,3495263.6471820613
LAFAYETTE LANDINGS AIRPORT, ,DELAND,32724,VOLUSIA,-81.26478519,29.16859135,17R MN 74251 26693,,30152600000130,LAFAYETTE LANDINGS AIRPORT,"LONG, DENNIS 3151 LAFAYETTE LANDINGS DR.  DELEON SPRINGS FL 32130",,Active,FL000334,FD90,Private,Private,29.16859166,-81.26478333,,AIRPORT,-9046354.50637323,3397121.4858921343
SQUILLACOTE STOLPORT, , , ,VOLUSIA,-81.20145,29.25109167,17R MN 80426 35821,,,SQUILLACOTE STOLPORT,"SQUILLACOTE, STEVE 3120 WEST GRANADA BLVD  ORMOND BEACH FL 32174",,Active,FL000679,FD63,Private,Private,29.25109166,-81.20144999,,AIRPORT,-9039304.065647375,3407643.359796589
CROSS CREEK FARMS STOLPORT, ,ORMOND BEACH,32174,VOLUSIA,-81.22200716,29.23942353,17R MN 78426 34532,,30143600000010,CROSS CREEK FARMS STOLPORT,DAVID HIGGS 274 WOODHAVEN CIR W ORMOND BEACH FL 32174,,Active,FL000680,04FL,Private,Private,29.239425,-81.22200555,,AIRPORT,-9041592.478740897,3406154.72205169
HIGHLANDER AIRPORT, ,EDGEWATER,32141,VOLUSIA,-80.86643898,28.88804356,17R NM 13022 95589,,35183100000062,HIGHLANDER AIRPORT,MARK HAYNES 520 HIGHLANDER DRIVE  OAK HILL FL 32759,,Active,FL000627,2FD6,Private,Private,28.88804444,-80.86644166,,AIRPORT,-9002010.809168937,3361404.191372462
BLUE RIDGE FLIGHTPARK, ,OAK HILL,32759,VOLUSIA,-80.90699889,28.85721167,17R NM 09070 92169,,34184702070870,BLUE RIDGE FLIGHTPARK,"AURIGEMA, ANDREW 1685 MAYTOWN ROAD  OAK HILL FL 32759",,Active,FL000628,34FD,Private,Private,28.85721111,-80.907,,AIRPORT,-9006525.917890904,3357484.801759787
COE FIELD, , , ,VOLUSIA,-81.1322525,29.01070528,17R MN 87119 09178,,,COE FIELD,1300 E. INTL SPEEDWAY BLVD  DELAND FL 32724,,Active,FL001426,8FA4,Private,Private,29.01070527,-81.1322525,,AIRPORT,-9031601.035200896,3377008.6473701033
SPRUCE CREEK FLY-IN AIRPORT, ,PORT ORANGE,32128,VOLUSIA,-81.04666917,29.08016551,17R MN 95457 16868,,32162504002220,SPRUCE CREEK FLY-IN AIRPORT,"CUNNEEN, DICK 212-1 CESSNA BLVD  PORT ORANGE FL 32128",,Active,FL000323,7FL6,Private,Private,29.07803888,-81.0445,,AIRPORT,-9022073.942951828,3385853.2695543645
THE UNICORN PLACE AIRPORT, ,DEFUNIAK SPRINGS,32433,WALTON,-86.28199948,30.84519212,16R EV 68656 12666,,18-4N-20-29000-008-0010,THE UNICORN PLACE AIRPORT,"SOHN, RICHARD 8029 HIGHWAY 1087  NEW HARMONY FL 32433",,Active,FL000327,69FD,Private,Private,30.84472222,-86.28138888,,AIRPORT,-9604868.24700841,3612660.670891119
CEDAR LANE AIRPORT, ,DEFUNIAK SPRINGS,32435,WALTON,-86.21299717,30.73629947,16R EV 75339 00642,,23-3N-20-28000-023-0000,CEDAR LANE AIRPORT,"ESTATE OF ROBERTS, MAURICE W. 460 BOY SCOUT ROAD  DEFUNIAK SPRINGS FL 32435",,Active,FL000328,5FL9,Private,Private,30.7363,-86.21299999,,AIRPORT,-9597186.944928305,3598549.755436289
BREEZY KNOLL AIRPORT, , , ,WALTON,-86.34444444,30.82,16R EV 62701 09837,,,BREEZY KNOLL AIRPORT,"WATERMAN, VICTORIA 1359 LONG ROAD  DEFUNIAK SPRINGS FL 32433",,Active,FL001065,0FD5,Private,Private,30.82,-86.34444444,,AIRPORT,-9611819.588348674,3609394.71411917
SKYDIVE LIVE AIRPORT, , , ,WALTON,-86.21833333,30.91888889,16R EV 74686 20874,,,SKYDIVE LIVE AIRPORT,"NIPPER, MELANIE 5138 COUNTY HIGHWAY 0605  DE FUNIAK SPRINGS FL 32433",,active,FL001090,05FA,Private,Private,30.91888888,-86.21833333,,AIRPORT,-9597780.963710794,3622219.7955523273
DUGGER FIELD, , , ,WALTON,-86.09383333,30.49641667,16R EU 86961 74143,,,DUGGER FIELD,"BOGLE, MELODY 259 SAN JUAN AVENUE  SEAGROVE BEACH FL 32459",,Active,FL001079,0FD3,Private,Private,30.49641666,-86.09383333,,AIRPORT,-9583921.687054012,3567520.510064071
CUCHENS AIRPORT, , , ,WALTON,-86.11833333,30.64277778,16R EU 84482 90345,,,CUCHENS AIRPORT,219 SUCHENS LANE  DEFUNIAK SPRINGS FL 32435,,Active,FL001072,02FL,Private,Private,30.64277777,-86.11833333,,AIRPORT,-9586649.014595969,3586443.418982882
JOY FARMS AIRPORT, ,DEFUNIAK SPRINGS,32435,WALTON,-86.1116604,30.65391481,16R EU 85112 91584,,23-2N-19-18000-022-0000,JOY FARMS AIRPORT,"GOFF, BRIAN 4979 SOUTH HIGHWAY 331  DEFUNIAK SPRINGS FL 32435",,Active,FL000326,0FD9,Private,Private,30.65213611,-86.10938333,,AIRPORT,-9585906.186876103,3587884.487675597
CRYSTAL VILLAGE AIRPORT, ,CHIPLEY,32428,WASHINGTON,-85.68603514,30.45686155,16R FU 26149 70144,,00000000-00-3136-0093,CRYSTAL VILLAGE AIRPORT,"THOMAS, TERRY 5131 PANTHER TRAIL  CHIPLEY FL 32428",,Active,FL000801,2FL0,Private,Private,30.45111111,-85.67722222,,AIRPORT,-9538525.800427934,3562411.352943589
GARNER FIELD, ,BONIFAY,32425,WASHINGTON,-85.768333,30.77972163,16R FV 17856 05838,,00000000-00-4940-0001,GARNER FIELD,3849 HIGHWAY 90  BONIFAY FL 32425,,Active,FL001045,FA55,Private,Private,30.77916666,-85.76861111,,AIRPORT,-9547687.15569125,3604174.724666526
REDHEAD AIRPORT, ,VERNON,32462,WASHINGTON,-85.83959264,30.49048381,16R FU 11367 73709,,00000000-00-5174-0000,REDHEAD AIRPORT,"GARRETT, TOMMY 5801 HIGHWAY 79  VERNON FL 32462",,Active,FL000791,FD35,Private,Private,30.49027777,-85.83944444,,AIRPORT,-9555619.742218355,3566754.056753896
AERO VILLA AIRPORT, , , ,WASHINGTON,-85.70555556,30.61722222,16R FU 24071 87895,,,AERO VILLA AIRPORT,"LAND, LARRY P.O. BOX 365  VERNON FL 32462",,Active,FL000900,,Private,Private,30.61722222,-85.70555555,,AIRPORT,-9540698.802682173,3583137.3028057194
