Name,Address,City,Zip,COUNTY,X,Y,USNG,OWNERSHIP,PARCELID,NAME_OTHER,DESCRIPTION,LINK,FAC_STATUS,UAID,ACODE,AUSE,AOWNERSHIP,LAT,LONG,COMMENT,FACILITY_TYPE,x,y
NAPLES MUNICIPAL AIRPORT,160 AVIATION DR NORTH,NAPLES,34104,COLLIER,-81.7751231,26.15276862,17R MJ 22526 92833,MUNICIPAL,20764680005,NAPLES MUNICIPAL AIRPORT,160 AVIATION DRIVE NORTH  NAPLES FL 34104-3568,http://www.florida-aviation-database.com/Facility/PublicSearch.aspx?UAID=FL000049,Active,FL000049,APF,Public,Public,26.15262027,-81.77529444,,AIRPORT,-9103165.063367821,3018014.3271509996
AVON PARK EXECUTIVE AIRPORT, ,AVON PARK,33825,HIGHLANDS,-81.52671365,27.59191265,17R ML 48017 52108,MUNICIPAL,A2133280100210003A,AVON PARK EXECUTIVE AIRPORT,1545 STATE ROAD 64 WEST  AVON PARK FL 33825,http://www.florida-aviation-database.com/Facility/PublicSearch.aspx?UAID=FL000003,Active,FL000003,AVO,Public,Public,27.59114444,-81.52785277,,AIRPORT,-9075512.24926955,3197620.057150256
PETER PRINCE FIELD, ,MILTON,32583,SANTA ROSA,-86.99365205,30.63757157,16R EU 00608 89436,COUNTY,31-2N-27-0000-00100-0000,PETER PRINCE FIELD,5550 NORTH AIRPORT ROAD  MILTON FL 32583,http://www.florida-aviation-database.com/Facility/PublicSearch.aspx?UAID=FL000048,Active,FL000048,2R4,Public,Public,30.63762222,-86.99365277,,AIRPORT,-9684089.048350047,3585769.8219857304
NORTHWEST FLORIDA REGIONAL AIRPORT / EGLIN AFB,1701 STATE ROAD 85 N,EGLIN AFB, ,OKALOOSA,-86.54951454,30.49553588,16R EU 43231 73783,,,NORTHWEST FLORIDA REGIONAL AIRPORT / EGLIN AFB,1701 HWY 85 NORTH  EGLIN AIR FORCE BASE FL 32542-1413,http://www.florida-aviation-database.com/Facility/PublicSearch.aspx?UAID=FL000073,Active,FL000073,VPS,Public,Military USAF,30.48333333,-86.52533333,,AIRPORT,-9634647.886473885,3567406.7208865304
NORTH PERRY AIRPORT, ,HOLLYWOOD,33023,BROWARD,-80.2396479,26.00242056,17R NJ 76094 76173,,514115000051,NORTH PERRY AIRPORT,101 SOUTH WEST 77TH WAY  PEMBROKE PINES FL 33023,http://www.florida-aviation-database.com/Facility/PublicSearch.aspx?UAID=FL000026,Active,FL000026,HWO,Public,Public,26.00142416,-80.24052055,,AIRPORT,-8932236.746061165,2999380.7432374055
OAK TREE LANDING AIRPORT, ,NEWBERRY,32669,GILCHRIST,-82.66445792,29.72032272,17R LN 39007 88955,,12-09-16-0000-0004-0000,OAK TREE LANDING AIRPORT,1400 SOUTHEAST 80TH AVENUE  NEWBERRY FL 32669,http://www.florida-aviation-database.com/Facility/PublicSearch.aspx?UAID=FL000431,Active,FL000431,6J8,Public,Private,29.72013888,-82.66395833,,AIRPORT,-9202165.362411804,3467650.356630308
MID FLORIDA AIR SERVICE AIRPORT, ,MOUNT DORA,32757,LAKE,-81.63034812,28.84610151,17R MM 38512 91098,,081927000400001901,MID FLORIDA AIR SERVICE AIRPORT,19708 EUSTIS AIRPORT ROAD  EUSTIS FL 32736,http://www.florida-aviation-database.com/Facility/PublicSearch.aspx?UAID=FL000345,Active,FL000345,X55,Public,Private,28.84335111,-81.63002416,,AIRPORT,-9087048.78600908,3356072.749954456
HOMESTEAD GENERAL AVIATION AIRPORT,28700 SW 217 AVE,HOMESTEAD,33030,MIAMI-DADE,-80.55422211,25.49872135,17R NJ 44800 20247,,3078050000010,HOMESTEAD GENERAL AVIATION AIRPORT,28700 SOUTH WEST 217 AVENUE  HOMESTEAD FL 33030,http://www.florida-aviation-database.com/Facility/PublicSearch.aspx?UAID=FL000028,Active,FL000028,X51,Public,Public,25.49871944,-80.554225,,AIRPORT,-8967254.986081256,2937126.7372241
TAMPA NORTH AERO PARK, ,LUTZ,33559,PASCO,-82.37454912,28.22128056,17R LM 65120 22480,,1926140000002000090,TAMPA NORTH AERO PARK,4241 BIRDSONG BOULEVARD  LUTZ FL 33559,http://www.florida-aviation-database.com/Facility/PublicSearch.aspx?UAID=FL000781,Active,FL000781,X39,Public,Private,28.22128055,-82.37454722,,AIRPORT,-9169892.862556148,3276900.9587016674
ST LUCIE COUNTY INTERNATIONAL AIRPORT, ,FORT PIERCE,34946,ST. LUCIE,-80.36827804,27.49505547,17R NL 62400 41427,,1430-111-0001-000-2,ST LUCIE COUNTY INTERNATIONAL AIRPORT,3000 CURTIS KING BOULEVARD  FORT PIERCE FL 34946,http://www.florida-aviation-database.com/Facility/PublicSearch.aspx?UAID=FL000020,Active,FL000020,FPR,Public,Public,27.49506388,-80.36827222,,AIRPORT,-8946555.787386293,3185459.7109508254
CRYSTAL RIVER AIRPORT,718 N LINDBERGH DR,CRYSTAL RIVER,34429,CITRUS,-82.5713042,28.86727665,17R LM 46749 94295,COUNTY,17E18S34      12300,CRYSTAL RIVER AIRPORT,718 NORTH LINDBERGH DRIVE  CRYSTAL RIVER FL 34429,http://www.florida-aviation-database.com/Facility/PublicSearch.aspx?UAID=FL000090,Active,FL000090,CGC,Public,Public,28.86727777,-82.57130555,,AIRPORT,-9191795.537753146,3358764.146914711
NORTH PALM BEACH COUNTY GENERAL AVIATION AIRPORT, ,WEST PALM BEACH,33412,PALM BEACH,-80.2214811,26.84537243,17R NK 77347 69546,,,NORTH PALM BEACH COUNTY GENERAL AVIATION AIRPORT,11600 AVIATION BOULEVARD  WEST PALM BEACH FL 33412,http://www.florida-aviation-database.com/Facility/PublicSearch.aspx?UAID=FL000083,Active,FL000083,F45,Public,Public,26.84537305,-80.22148111,,AIRPORT,-8930214.42706238,3104166.3248841832
AIRGLADES AIRPORT, ,CLEWISTON,33440,HENDRY,-81.05147418,26.73552752,17R MK 94881 57144,COUNTY,1 33 43 17 A00 0001.0000,AIRGLADES AIRPORT,3200 AIRGLADES BOULEVARD  CLEWISTON FL 33440,http://www.florida-aviation-database.com/Facility/PublicSearch.aspx?UAID=FL000010,Active,FL000010,2IS,Public,Public,26.74200833,-81.04978888,,AIRPORT,-9022608.833881376,3090468.0867098505
OKEECHOBEE COUNTY AIRPORT, ,OKEECHOBEE,34972,OKEECHOBEE,-80.85449632,27.26605382,17R NL 14402 15912,COUNTY,1-08-37-35-0A00-00001-0000,OKEECHOBEE COUNTY AIRPORT,2800 NORTH WEST 20TH TRAIL  OKEECHOBEE FL 34972,http://www.florida-aviation-database.com/Facility/PublicSearch.aspx?UAID=FL000052,Active,FL000052,OBE,Public,Public,27.26611111,-80.85015555,,AIRPORT,-9000681.358958019,3156751.162392118
OPA-LOCKA EXECUTIVE AIRPORT,14201 NW 42ND AVE,OPA LOCKA,33054,MIAMI-DADE,-80.27905005,25.90512331,17R NJ 72210 65375,FEDERAL,0821200000010,OPA-LOCKA EXECUTIVE AIRPORT,14201 NORTHWEST  LEJEUNE ROAD  OPA-LOCKA FL 33054,http://www.florida-aviation-database.com/Facility/PublicSearch.aspx?UAID=FL000043,Active,FL000043,OPF,Public,Public,25.907025,-80.27838888,,AIRPORT,-8936622.972429488,2987334.79663481
VERO BEACH MUNICIPAL AIRPORT,3400 CHEROKEE DR,VERO BEACH,32960,INDIAN RIVER,-80.4218488,27.65558392,17R NL 57025 59184,,32392600011000000000.1,VERO BEACH MUNICIPAL AIRPORT,3400 CHEROKEE DRIVE P.O. BOX 1389 VERO BEACH FL 32961-1389,http://www.florida-aviation-database.com/Facility/PublicSearch.aspx?UAID=FL000075,Active,FL000075,VRB,Public,Public,27.65555833,-80.41794444,,AIRPORT,-8952519.257142603,3205619.7875238233
PLANT CITY AIRPORT,4007 N AIRPORT RD,PLANT CITY,33566,HILLSBOROUGH,-82.16423799,28.0002166,17R LL 85524 97772,,212836ZZZ000005982600P,PLANT CITY AIRPORT,4007 AIRPORT ROAD  PLANT CITY FL 33563,http://www.florida-aviation-database.com/Facility/PublicSearch.aspx?UAID=FL000059,Active,FL000059,PCM,Public,Public,28.00021666,-82.16424166,,AIRPORT,-9146481.133943932,3249001.098268973
ORLANDO SANFORD INTERNATIONAL AIRPORT,1 RED CLEVELAND BLVD,SANFORD,32773,SEMINOLE,-81.23486709,28.78176109,17R MM 77076 83829,,05203130000100000,ORLANDO SANFORD INTERNATIONAL AIRPORT,1200 RED CLEVELAND BOULEVARD  SANFORD FL 32773-6844,http://www.florida-aviation-database.com/Facility/PublicSearch.aspx?UAID=FL000062,Active,FL000062,SFB,Public,Public,28.77764,-81.23748944,,AIRPORT,-9043024.038907556,3347898.3267161762
TRI-COUNTY AIRPORT, ,BONIFAY,32425,HOLMES,-85.60102606,30.84766644,16R FV 33772 13557,,0511.00-000-000-004.000,TRI-COUNTY AIRPORT,1983 AIRPORT ROAD  BONIFAY FL 32425,http://www.florida-aviation-database.com/Facility/PublicSearch.aspx?UAID=FL000006,Active,FL000006,1J0,Public,Public,30.84577777,-85.60138888,,AIRPORT,-9529062.63200616,3612981.4933707346
HILLIARD AIRPARK, ,HILLIARD,32046,NASSAU,-81.90642958,30.68795277,17R MP 13184 95370,,09-3N-24-0000-0031-0010,HILLIARD AIRPARK,37776 EAST WOOD ROAD  HILLIARD FL 32046,http://www.florida-aviation-database.com/Facility/PublicSearch.aspx?UAID=FL000094,Active,FL000094,01J,Public,Public,30.68801111,-81.90594444,,AIRPORT,-9117782.033942608,3592289.8349847486
SUWANNEE COUNTY AIRPORT,13530 80TH TER,LIVE OAK,32060,SUWANNEE,-83.02466981,30.30036759,17R LP 05295 53805,COUNTY,2102S13E05267000000,SUWANNEE COUNTY AIRPORT,13308 80TH TERRACE  LIVE OAK FL 32060,http://www.florida-aviation-database.com/Facility/PublicSearch.aspx?UAID=FL000093,Active,FL000093,24J,Public,Public,30.30169999,-83.02359999,,AIRPORT,-9242263.966027765,3542218.0219126237
NEW SMYRNA BEACH MUNICIPAL AIRPORT,602 SKYLINE DR,NEW SMYRNA BEACH,32168,VOLUSIA,-80.94790484,29.05442385,17R NN 05071 14016,,33174001000010,NEW SMYRNA BEACH MUNICIPAL AIRPORT,600 SKYLINE DRIVE  NEW SMYRNA FL 32168,http://www.florida-aviation-database.com/Facility/PublicSearch.aspx?UAID=FL000621,Active,FL000621,EVB,Public,Public,29.05569444,-80.94890833,,AIRPORT,-9011079.547795849,3382574.796230657
ST GEORGE ISLAND AIRPORT,1501 LONG POINT ROAD,EASTPOINT,32328,FRANKLIN,-84.91197419,29.6413725,16R GT 02128 80869,,,ST GEORGE ISLAND AIRPORT,1501 LONG POINT ROAD  ST. GOERGE ISLAND FL 32328,http://www.florida-aviation-database.com/Facility/PublicSearch.aspx?UAID=FL000229,Active,FL000229,F47,Public,Private,29.64458402,-84.91559894,,AIRPORT,-9452357.729444206,3457534.4163041566
PALATKA MUNICIPAL AIRPORT,4015 REID ST,PALATKA,32177,PUTNAM,-81.68954526,29.65826129,17R MN 33267 81117,MUNICIPAL,03-10-26-0000-0010-0000,PALATKA MUNICIPAL-LT. KAY LARKIN FIELD,4015 REID STREET  PALATKA FL 32177,http://www.florida-aviation-database.com/Facility/PublicSearch.aspx?UAID=FL000056,Active,FL000056,28J,Public,Public,29.65858055,-81.68869444,,AIRPORT,-9093638.581045263,3459697.7204315336
QUINCY MUNICIPAL AIRPORT, ,QUINCY,32352,GADSDEN,-84.55741809,30.59785959,16R GU 34190 87577,MUNICIPAL,3-05-2N-3W-0000-00420-0000,QUINCY MUNICIPAL AIRPORT,1300 AIRPORT DRIVE  QUINCY FL 32351,http://www.florida-aviation-database.com/Facility/PublicSearch.aspx?UAID=FL000061,Active,FL000061,2J9,Public,Public,30.59786111,-84.55743888,,AIRPORT,-9412888.724514503,3580632.9452712894
BELLE GLADE STATE MUNICIPAL AIRPORT, ,BELLE GLADE,33430,PALM BEACH,-80.66595081,26.69830099,17R NK 33230 53063,,00374329000007010,BELLE GLADE STATE MUNICIPAL AIRPORT,250 GATOR BOULEVARD  BELLE GLADE FL 33430,http://www.florida-aviation-database.com/Facility/PublicSearch.aspx?UAID=FL000101,Active,FL000101,X10,Public,Public,26.69830555,-80.66080555,,AIRPORT,-8979692.568772664,3085828.7463717707
DADE-COLLIER TRAINING AND TRANSITION AIRPORT, ,OCHOPEE,34141,COLLIER,-80.89760428,25.86181438,17R NJ 10259 60384,,01233520000,DADE-COLLIER TRAINING AND TRANSITION AIRPORT,54757 EAST TAMIAMI TRAIL  OCHOPPI FL 34141,http://www.florida-aviation-database.com/Facility/PublicSearch.aspx?UAID=FL000044,Active,FL000044,TNT,Public,Public,25.86180555,-80.897,,AIRPORT,-9005480.114421694,2981976.104839176
MIAMI SEAPLANE BASE, , , ,MIAMI-DADE,-80.17722607,25.78338898,17R NJ 82493 51953,,,MIAMI SEAPLANE BASE,1000 MACAURTHUR CAUSEWAY  MIAMI FL 33132,http://www.florida-aviation-database.com/Facility/PublicSearch.aspx?UAID=FL000100,Active,FL000100,X44,Public,Public,25.77833333,-80.17027777,,AIRPORT,-8925287.978773892,2972277.3809777726
MERRITT ISLAND AIRPORT,900 AIRPORT RD,MERRITT ISLAND,32952,BREVARD,-80.68550106,28.34158861,17R NM 30824 35082,COUNTY,25 360100    4,MERRITT ISLAND AIRPORT,900 AIRPORT RD.  MERRITT ISLAND FL 32952,http://www.florida-aviation-database.com/Facility/PublicSearch.aspx?UAID=FL000011,Active,FL000011,COI,Public,Public,28.34158888,-80.68549722,,AIRPORT,-8981868.892449362,3292108.959075571
THE FLORIDA KEYS MARATHON AIRPORT,9400 OVERSEAS HWY,MARATHON,33050,MONROE,-81.05044031,24.72653649,17R MH 94898 34669,COUNTY,0166 32 00101160000000,THE FLORIDA KEYS MARATHON AIRPORT,"9400 OVERSEAS HIGHWAY, SUITE 200  MARATHON FL 33050",http://www.florida-aviation-database.com/Facility/PublicSearch.aspx?UAID=FL000040,Active,FL000040,MTH,Public,Public,24.72618277,-81.05136777,,AIRPORT,-9022493.744217198,2842192.9894193676
GAINESVILLE REGIONAL AIRPORT,3880 NE 39 AVE STE A,GAINESVILLE,32609,ALACHUA,-82.2720428,29.68900721,17R LN 76928 85002,,08161 000 000,GAINESVILLE REGIONAL AIRPORT,3880 NORTHEAST 39TH AVENUE  GAINESVILLE FL 32609,http://www.florida-aviation-database.com/Facility/PublicSearch.aspx?UAID=FL000025,Active,FL000025,GNV,Public,Public,29.69005555,-82.27177777,,AIRPORT,-9158481.911000136,3463636.9305681325
SARASOTA / BRADENTON INTERNATIONAL AIRPORT,"SARASOTA MANATEE ARPT AUTH, 6",SARASOTA,34243,MANATEE,-82.55378781,27.39429459,17R LL 46371 31066,SPECIAL TAXING DISTRICT,6844700129,SARASOTA / BRADENTON INTERNATIONAL AIRPORT,6000 AIRPORT CIRCLE  SARASOTA FL 34243-2105,http://www.florida-aviation-database.com/Facility/PublicSearch.aspx?UAID=FL000063,Active,FL000063,SRQ,Public,Public,27.39545277,-82.55438611,,AIRPORT,-9189845.62257399,3172820.607069875
DELAND MUNICIPAL - SIDNEY H TAYLOR FIELD,1725  LEXINGTON AVE,DELAND,32724,VOLUSIA,-81.28042581,29.06691164,17R MN 72704 15431,MUNICIPAL,30163400000020,DELAND MUNICIPAL - SIDNEY H TAYLOR FIELD,1777 LANGLEY AVE  DELAND FL 32724,http://www.florida-aviation-database.com/Facility/PublicSearch.aspx?UAID=FL000016,Active,FL000016,DED,Public,Public,29.06698055,-81.28394166,,AIRPORT,-9048095.612169065,3384165.1470959526
WINTER HAVEN'S GILBERT AIRPORT, ,WINTER HAVEN,33881,POLK,-81.75441965,28.05912767,17R MM 25862 03981,MUNICIPAL,262807000000011010,WINTER HAVEN'S GILBERT AIRPORT,2073 HIGHWAY 92 WEST  WINTER HAVEN FL 33881,http://www.florida-aviation-database.com/Facility/PublicSearch.aspx?UAID=FL000079,Active,FL000079,GIF,Public,Public,28.06291944,-81.75331666,,AIRPORT,-9100860.365883008,3256430.4834316587
SEBASTIAN MUNICIPAL AIRPORT, ,SEBASTIAN,32958,INDIAN RIVER,-80.49413731,27.81414946,17R NL 49823 76717,MUNICIPAL,30382200001000000000.1,SEBASTIAN MUNICIPAL AIRPORT,202 AIRPORT DRIVE EAST  SEBASTIAN FL 32958,http://www.florida-aviation-database.com/Facility/PublicSearch.aspx?UAID=FL000088,Active,FL000088,X26,Public,Public,27.81280277,-80.49560833,,AIRPORT,-8960566.377621163,3225562.430995147
CALHOUN COUNTY AIRPORT, ,BLOUNTSTOWN,32424,CALHOUN,-85.11378763,30.48774454,16R FU 81040 74345,COUNTY,14-1N-09-0000-0008-0100,CALHOUN COUNTY AIRPORT,16701 NORTHWEST AGRIPARK ROAD  ALTHA FL 32421,http://www.florida-aviation-database.com/Facility/PublicSearch.aspx?UAID=FL000097,Active,FL000097,F95,Public,Public,30.48822222,-85.11381944,,AIRPORT,-9474823.498241495,3566400.1925282557
LAKE WALES MUNICIPAL AIRPORT,440 S AIRPORT RD,LAKE WALES,33859,POLK,-81.62037161,27.89312538,17R ML 38942 85518,,273004000000021010,LAKE WALES MUNICIPAL AIRPORT,450 AIRPORT ROAD SOUTH  LAKE WALES FL 33859-1320,http://www.florida-aviation-database.com/Facility/PublicSearch.aspx?UAID=FL000037,Active,FL000037,X07,Public,Public,27.89380277,-81.62041111,,AIRPORT,-9085938.205475504,3235506.014937978
WAUCHULA MUNICIPAL AIRPORT, ,WAUCHULA,33873,HARDEE,-81.88180151,27.51301835,17R ML 12910 43568,MUNICIPAL,23-34-24-0000-07820-0000,WAUCHULA MUNICIPAL AIRPORT,1202 MAURICE SONNY CLAVEL ROAD  WAUCHULA FL 33873,http://www.florida-aviation-database.com/Facility/PublicSearch.aspx?UAID=FL000076,Active,FL000076,CHN,Public,Public,27.51364999,-81.88063888,,AIRPORT,-9115040.449590148,3187714.1278118514
CLEARWATER AIR PARK, ,CLEARWATER,33765,PINELLAS,-82.75874311,27.97668649,17R LL 27023 95865,MUNICIPAL,15 29 12 55836 001 0012,CLEARWATER AIR PARK,1000 NORTH HERCULES AVENUE  CLEARWATER FL 33765,http://www.florida-aviation-database.com/Facility/PublicSearch.aspx?UAID=FL000009,Active,FL000009,CLW,Public,Public,27.97668638,-82.75874027,,AIRPORT,-9212661.141607292,3246034.807229746
GEORGE T LEWIS AIRPORT,16751 SW AIRPORT RD,CEDAR KEY,32625,LEVY,-83.05025458,29.1344588,17R LN 00541 24620,,0042200000,GEORGE T LEWIS AIRPORT,14703 SOUTHWEST AIRPORT ROAD  CEDAR KEY FL 32625,http://www.florida-aviation-database.com/Facility/PublicSearch.aspx?UAID=FL000105,Active,FL000105,CDK,Public,Public,29.13424444,-83.05047222,,AIRPORT,-9245112.049710043,3392770.783140063
ST PETE-CLEARWATER INTERNATIONAL AIRPORT,14700 TERMINAL BLVD,CLEARWATER,33762,PINELLAS,-82.6883322,27.90948061,17R LL 33846 88321,COUNTY,16 29 34 00110 000 0000,ST PETE-CLEARWATER INTERNATIONAL AIRPORT,14700 TERMINAL BOULEVARD AIRPORT DIRECTOR'S OFFICE - SUITE 221 CLEARWATER FL 33762,http://www.florida-aviation-database.com/Facility/PublicSearch.aspx?UAID=FL000067,Active,FL000067,PIE,Public,Public,27.91076333,-82.68743944,,AIRPORT,-9204823.034795476,3237566.150879156
SEBRING REGIONAL AIRPORT, ,SEBRING,33870,HIGHLANDS,-81.34139353,27.45708705,17R ML 66266 37109,,C083530A0000100000,SEBRING REGIONAL AIRPORT,128 AUTHORITY LANE  SEBRING FL 33870,http://www.florida-aviation-database.com/Facility/PublicSearch.aspx?UAID=FL000064,Active,FL000064,SEF,Public,Public,27.45640277,-81.34239999,,AIRPORT,-9054882.5076904,3180695.7245859196
KISSIMMEE GATEWAY AIRPORT,301 DYER BLVD,KISSIMMEE,34741,OSCEOLA,-81.43774088,28.29048036,17R MM 57075 29458,MUNICIPAL,20-25-29-2360-0017-0010,KISSIMMEE GATEWAY AIRPORT,301 NORTH  DYER BOULEVARD SUITE 101 KISSIMMEE FL 34744-4613,http://www.florida-aviation-database.com/Facility/PublicSearch.aspx?UAID=FL000035,Active,FL000035,ISM,Public,Public,28.28980555,-81.43708333,,AIRPORT,-9065607.845565606,3285646.325836734
DAYTONA BEACH INTERNATIONAL AIRPORT,700 CATALINA DR,DAYTONA BEACH,32114,VOLUSIA,-81.05805556,29.17991667,17R MN 94355 27920,COUNTY,32153953010010,DAYTONA BEACH INTERNATIONAL AIRPORT,"700 CATALINA DRIVE, SUITE 300  DAYTONA BEACH FL 32114",http://www.florida-aviation-database.com/Facility/PublicSearch.aspx?UAID=FL000014,Active,FL000014,DAB,Public,Public,29.17991666,-81.05805555,,AIRPORT,-9023341.469284797,3398565.385400785
PENSACOLA INTERNATIONAL AIRPORT,2430 AIRPORT BLVD,PENSACOLA,32504,ESCAMBIA,-87.18796383,30.47279746,16R DU 81957 71192,,,PENSACOLA INTERNATIONAL AIRPORT,2430 AIRPORT BLVD SUITE 225 PENSACOLA FL 32504,http://www.florida-aviation-database.com/Facility/PublicSearch.aspx?UAID=FL000058,Active,FL000058,PNS,Public,Public,30.47330555,-87.18744444,,AIRPORT,-9705719.737153508,3564469.4739698987
DESTIN - FT WALTON BEACH AIRPORT, ,DESTIN,32541,OKALOOSA,-86.47178301,30.40036811,16R EU 50739 63269,COUNTY,00-2S-22-0000-0007-0000,DESTIN - FT WALTON BEACH AIRPORT,1001 AIRPORT ROAD  DESTIN FL 32541,http://www.florida-aviation-database.com/Facility/PublicSearch.aspx?UAID=FL000017,Active,FL000017,DTS,Public,Public,30.40005638,-86.47147416,,AIRPORT,-9625994.85269096,3555117.942972314
LA BELLE MUNICIPAL AIRPORT, ,LABELLE,33935,HENDRY,-81.4321496,26.74429673,17R MK 57027 58187,COUNTY,2 29 43 16 A00 0003.0000,LA BELLE MUNICIPAL AIRPORT,99 EAST COWBOY WAY  LABELLE FL 33975-1607,http://www.florida-aviation-database.com/Facility/PublicSearch.aspx?UAID=FL000084,Active,FL000084,X14,Public,Public,26.74423277,-81.43257555,,AIRPORT,-9064985.427162312,3091561.16579408
DEFUNIAK SPRINGS AIRPORT, ,DEFUNIAK SPRINGS,32435,WALTON,-86.15393669,30.73297071,16R EV 80995 00314,MUNICIPAL,28-3N-19-19000-005-0000,DEFUNIAK SPRINGS AIRPORT,1931 U.S. HIGHWAY 90 WEST  DEFUNIAK SPRINGS FL 32435-0685,http://www.florida-aviation-database.com/Facility/PublicSearch.aspx?UAID=FL000015,Active,FL000015,54J,Public,Public,30.7313,-86.15377777,,AIRPORT,-9590612.361932436,3598118.6474746754
VALKARIA AIRPORT,2985 FAIRGREEN ST,MALABAR,32950,BREVARD,-80.55824645,27.96333106,17R NL 43449 93218,COUNTY,29 381700  253,VALKARIA AIRPORT,2865 GREENBROOKE STREET  VALKARIA FL 32950,http://www.florida-aviation-database.com/Facility/PublicSearch.aspx?UAID=FL000087,Active,FL000087,X59,Public,Public,27.96086111,-80.55833333,,AIRPORT,-8967702.97372513,3244351.4614446624
SPACE COAST REGIONAL AIRPORT, ,TITUSVILLE,32780,BREVARD,-80.79922414,28.51479863,17R NM 19646 54247,COUNTY,23 350200    2,SPACE COAST REGIONAL AIRPORT,355 GOLDEN KNIGHTS BOULEVARD  TITUSVILLE FL 32780,http://www.florida-aviation-database.com/Facility/PublicSearch.aspx?UAID=FL000072,Active,FL000072,TIX,Public,Public,28.51479944,-80.7992275,,AIRPORT,-8994528.487224244,3314034.528655914
MELBOURNE INTERNATIONAL AIRPORT,1 AIR TERMINAL PKWY,MELBOURNE,32901,BREVARD,-80.63981374,28.10234868,17R NM 35381 08592,MUNICIPAL,27 373300    1,MELBOURNE INTERNATIONAL AIRPORT,ONE AIR TERMINAL PARKWAY SUITE 220 MELBOURNE FL 32901-1888,http://www.florida-aviation-database.com/Facility/PublicSearch.aspx?UAID=FL000042,Active,FL000042,MLB,Public,Public,28.10274999,-80.64580555,,AIRPORT,-8976783.003488153,3261883.755883415
PALM BEACH COUNTY PARK AIRPORT, ,LAKE WORTH,33462,PALM BEACH,-80.08476237,26.59111825,17R NK 91133 41474,COUNTY,00434429000020010,PALM BEACH COUNTY PARK AIRPORT,2633 LANTANA RD  LANTANA FL 33462,http://www.florida-aviation-database.com/Facility/PublicSearch.aspx?UAID=FL000078,Active,FL000078,LNA,Public,Public,26.59305555,-80.08506461,,AIRPORT,-8914994.967701834,3072479.5961202756
FERNANDINA BEACH MUNICIPAL AIRPORT,1000 AIRPORT RD,FERNANDINA BEACH,32034,NASSAU,-81.46186854,30.61046274,17R MP 55728 86523,,06-2N-28-0000-0001-0000,FERNANDINA BEACH MUNICIPAL AIRPORT,700 AIRPORT ROAD  FERNANDINA BEACH FL 32034,http://www.florida-aviation-database.com/Facility/PublicSearch.aspx?UAID=FL000019,Active,FL000019,FHB,Public,Public,30.60968333,-81.46064722,,AIRPORT,-9068293.724446114,3582262.9759535203
ORMOND BEACH MUNICIPAL AIRPORT,770 AIRPORT RD,ORMOND BEACH,32174,VOLUSIA,-81.11384915,29.30191263,17R MN 88943 41441,MUNICIPAL,32140700000010,ORMOND BEACH MUNICIPAL AIRPORT,AIRPORT ROAD  ORMOND BEACH FL 32174,http://www.florida-aviation-database.com/Facility/PublicSearch.aspx?UAID=FL000107,Active,FL000107,OMN,Public,Public,29.30114444,-81.11380833,,AIRPORT,-9029552.383678658,3414129.155442545
TAMPA EXECUTIVE AIRPORT,6582 EUREKA SPRINGS RD,TAMPA,33610,HILLSBOROUGH,-82.34324725,28.01652523,17R LL 67941 99760,COUNTY,202831ZZZ000002240700U,TAMPA EXECUTIVE AIRPORT,6582 EUREKA SPRINGS ROAD  TAMPA FL 33610,http://www.florida-aviation-database.com/Facility/PublicSearch.aspx?UAID=FL000081,Active,FL000081,VDF,Public,Public,28.00863055,-82.34981388,,AIRPORT,-9166408.354403019,3251057.403277052
BOB SIKES AIRPORT, ,CRESTVIEW,32539,OKALOOSA,-86.52187658,30.77742887,16R EV 45750 05033,COUNTY,11-3N-23-0000-0003-0000,BOB SIKES AIRPORT,5545 JOHN GIVENS ROAD  CRESTVIEW FL 32536,http://www.florida-aviation-database.com/Facility/PublicSearch.aspx?UAID=FL000012,Active,FL000012,CEW,Public,Public,30.77883611,-86.52211388,,AIRPORT,-9631571.242912613,3603877.6544756405
APALACHIACOLA REGIONAL - CLEVE RANDOLPH FIELD,28 AIRPORT RD,APALACHICOLA,32320,FRANKLIN,-85.02812057,29.72699048,16R FT 90720 90162,,,APALACHIACOLA REGIONAL - CLEVE RANDOLPH FIELD,8 AIRPORT ROAD  APALACHICOLA FL 32320,http://www.florida-aviation-database.com/Facility/PublicSearch.aspx?UAID=FL000001,Active,FL000001,AAF,Public,Public,29.72758055,-85.02740555,,AIRPORT,-9465287.0847007,3468505.0657120696
ORLANDO INTERNATIONAL AIRPORT,1 AIRPORT BLVD,ORLANDO,32827,ORANGE,-81.2969912,28.42294087,17R MM 70913 44091,MUNICIPAL,302403000000002,ORLANDO INTERNATIONAL AIRPORT,ONE JEFF FUQUA BLVD  ORLANDO FL 32827,http://www.florida-aviation-database.com/Facility/PublicSearch.aspx?UAID=FL000053,Active,FL000053,MCO,Public,Public,28.42888888,-81.31602777,,AIRPORT,-9049939.663412973,3302402.363111795
ORLANDO APOPKA AIRPORT, ,APOPKA,32703,ORANGE,-81.58174112,28.70721752,17R MM 43178 75687,,272035664501003,ORLANDO APOPKA AIRPORT,1321 APOPKA AIRPORT ROAD  APOPKA FL 32712,http://www.florida-aviation-database.com/Facility/PublicSearch.aspx?UAID=FL000712,Active,FL000712,X04,Public,Private,28.70747444,-81.58196444,,AIRPORT,-9081637.879506394,3338433.9016859178
LAKE CITY GATEWAY AIRPORT, ,LAKE CITY,32025,COLUMBIA,-82.57344264,30.18222524,17R LP 48513 40023,MUNICIPAL,35-3S-17-07322-000,LAKE CITY GATEWAY AIRPORT,3524 EAST U.S. HIGHWAY 90  LAKE CITY FL 32055,http://www.florida-aviation-database.com/Facility/PublicSearch.aspx?UAID=FL000505,Active,FL000505,LCQ,Public,Public,30.18203888,-82.57692777,,AIRPORT,-9192033.587289322,3526994.7705624863
MARION COUNTY AIRPORT,10575 SW 147TH CIR,DUNNELLON,34432,MARION,-82.37717542,29.06342135,17R LN 65938 15794,COUNTY,34801-000-00,MARION COUNTY AIRPORT,15070 SW 107TH ST DUNNELLON FL 34432,http://www.florida-aviation-database.com/Facility/PublicSearch.aspx?UAID=FL000106,Active,FL000106,X35,Public,Public,29.06178055,-82.37658333,,AIRPORT,-9170185.221225483,3383720.63077842
NORTHWEST FLORIDA-BEACHES INTERNATIONAL AIRPORT,6300 W BAY PKWY,PANAMA CITY,32409,BAY,-85.79457031,30.35580316,16R FU 15848 58828,,,NORTHWEST FLORIDA-BEACHES INTERNATIONAL AIRPORT,6300 WEST BAY PARKWAY  PANAMA CITY BEACH FL 32409,http://www.florida-aviation-database.com/Facility/PublicSearch.aspx?UAID=FL001385,Active,FL001385,ECP,Public,Public,30.35824166,-85.79560277,,AIRPORT,-9550607.879511472,3549367.50080064
LEESBURG INTERNATIONAL AIRPORT,32720 ECHO DR,LEESBURG,34788,LAKE,-81.80704126,28.82231056,17R MM 21258 88566,,211925000100000100,LEESBURG INTERNATIONAL AIRPORT,8807 AIRPORT BOULEVARD  LEESBURG FL 34788,http://www.florida-aviation-database.com/Facility/PublicSearch.aspx?UAID=FL000039,Active,FL000039,LEE,Public,Public,28.82279444,-81.80918888,,AIRPORT,-9106718.176301342,3353049.531028929
IMMOKALEE REGIONAL AIRPORT, ,IMMOKALEE,34142,COLLIER,-81.40015166,26.43215434,17R MK 60101 23605,,00088800002,IMMOKALEE REGIONAL AIRPORT,165 AIRPORT BOULEVARD  IMMOKALEE FL 34142,http://www.florida-aviation-database.com/Facility/PublicSearch.aspx?UAID=FL000029,Active,FL000029,IMM,Public,Public,26.43316666,-81.40102777,,AIRPORT,-9061423.4334947,3052704.311295445
MIAMI INTERNATIONAL AIRPORT,2100 NW 42ND AVE,MIAMI,33122,MIAMI-DADE,-80.28411062,25.80146201,17R NJ 71765 53892,COUNTY,3030360000010,MIAMI INTERNATIONAL AIRPORT,4200 NORTHWEST 21ST STREET  MIAMI FL 33159,http://www.florida-aviation-database.com/Facility/PublicSearch.aspx?UAID=FL000045,Active,FL000045,MIA,Public,Public,25.79536111,-80.29011111,,AIRPORT,-8937186.312654769,2974511.8700808953
MARCO ISLAND AIRPORT, ,NAPLES,34114,COLLIER,-81.67253113,25.99502759,17R MJ 32690 75306,,00744080001,MARCO ISLAND AIRPORT,2005 MAINSAIL DRIVE  NAPLES FL 34114,http://www.florida-aviation-database.com/Facility/PublicSearch.aspx?UAID=FL000086,Active,FL000086,MKY,Public,Public,25.99504166,-81.67253055,,AIRPORT,-9091744.577347418,2998465.1023458145
CHALET SUZANNE AIR STRIP, , , ,POLK,-81.60142222,27.95379444,17R ML 40840 92229,,,CHALET SUZANNE AIR STRIP,3800 CHALET SUZANNE DRIVE  LAKE WALES FL 33859-7763,http://www.florida-aviation-database.com/Facility/PublicSearch.aspx?UAID=FL000526,Active,FL000526,X25,Public,Private,27.95379444,-81.60142222,,AIRPORT,-9083828.769761257,3243149.573995218
VENICE MUNICIPAL AIRPORT, ,VENICE,34285,SARASOTA,-82.4401995,27.07214156,17R LK 57192 95242,MUNICIPAL,0431-06-0001,VENICE MUNICIPAL AIRPORT,150 EAST AIRPORT AVENUE  VENICE FL 34285,http://www.florida-aviation-database.com/Facility/PublicSearch.aspx?UAID=FL000074,Active,FL000074,VNC,Public,Public,27.07161111,-82.44034722,,AIRPORT,-9177201.02946842,3132487.778201688
FT LAUDERDALE/HOLLYWOOD INTERNATIONAL AIRPORT,320 TERMINAL DRIVE,FORT LAUDERDALE,33315,BROWARD,-80.15471035,26.07555974,17R NJ 84542 84325,COUNTY,504228060020,FT LAUDERDALE/HOLLYWOOD INTERNATIONAL AIRPORT,2200 SOUTHWEST 45TH STREET  DANIA BEACH FL 33312,http://www.florida-aviation-database.com/Facility/PublicSearch.aspx?UAID=FL000022,Active,FL000022,FLL,Public,Public,26.07258333,-80.15274999,,AIRPORT,-8922781.540379845,3008442.35419724
TAVARES SEAPLANE BASE, , , ,LAKE,-81.7274764,28.8008498,17R MM 29007 86138,,,TAVARES SEAPLANE BASE,150 EAST RUBY STREET  TAVARES FL 32778,http://www.florida-aviation-database.com/Facility/PublicSearch.aspx?UAID=FL001386,Active,FL001386,FA1,Public,Public,28.79536111,-81.72119444,,AIRPORT,-9097861.056877945,3350323.012487763
SOUTHWEST FLORIDA INTERNATIONAL AIRPORT,16000 CHAMBERLIN PARKWAY SE,FORT MYERS,33913,LEE,-81.7551651,26.53616655,17R MK 24769 35284,COUNTY,19452600000020000,SOUTHWEST FLORIDA INTERNATIONAL AIRPORT,11000 TERMINAL ACCESS ROAD  FORT MYERS FL 33913,http://www.florida-aviation-database.com/Facility/PublicSearch.aspx?UAID=FL000085,Active,FL000085,RSW,Public,Public,26.53616666,-81.75516666,,AIRPORT,-9100943.34920184,3065640.4474065686
LAKELAND LINDER REGIONAL AIRPORT,3400 AIRFIELD DRIVE W,LAKELAND,33811,POLK,-82.01433801,27.98914758,17R ML 00254 96414,MUNICIPAL,232904000000011010,LAKELAND LINDER REGIONAL AIRPORT,3900 DON EMERSON DRRIVE SUITE 210 LAKELAND FL 33811,http://www.florida-aviation-database.com/Facility/PublicSearch.aspx?UAID=FL000038,Active,FL000038,LAL,Public,Public,27.98891666,-82.01855555,,AIRPORT,-9129794.345123125,3247605.6171282753
MASSEY RANCH AIRPARK,COUNTY ROAD 4136 & S AIR PARK RD,EDGEWATER,32132,VOLUSIA,-80.92485777,28.97951427,17R NN 07320 05718,,34183801000020,MASSEY RANCH AIRPARK,635 AIRPARK ROAD  EDGEWATER FL 32132,http://www.florida-aviation-database.com/Facility/PublicSearch.aspx?UAID=FL000622,Active,FL000622,X50,Public,Private,28.978875,-80.92505277,,AIRPORT,-9008513.959985385,3373038.918299931
BOB WHITE FIELD, ,MOUNT DORA,32757,ORANGE,-81.62911898,28.73527051,17R MM 38567 78818,,272020000000018,BOB WHITE FIELD,7011 WEST JONES AVENUE  ZELLWOOD FL 32798,http://www.florida-aviation-database.com/Facility/PublicSearch.aspx?UAID=FL000834,Active,FL000834,X61,Public,Private,28.73360555,-81.63313055,,AIRPORT,-9086911.958488205,3341994.857738302
WITHAM FIELD,2001 SE AIRPORT RD,STUART,34996,MARTIN,-80.21971212,27.1849746,17R NL 77290 07163,COUNTY,103841000001000001,WITHAM FIELD,2011 SOUTHEAST AIRPORT ROAD  STUART FL 34996,http://www.florida-aviation-database.com/Facility/PublicSearch.aspx?UAID=FL000068,Active,FL000068,SUA,Public,Public,27.18169999,-80.22129166,,AIRPORT,-8930017.504372729,3146600.949013076
FLAGLER COUNTY AIRPORT,170 AVIATION DR,PALM COAST,32164,FLAGLER,-81.20609607,29.46985258,17R MN 80017 60060,,07-12-31-0650-000D0-000A,FLAGLER COUNTY AIRPORT,201 AIRPORT ROAD  PALM COAST FL 32164,http://www.florida-aviation-database.com/Facility/PublicSearch.aspx?UAID=FL000008,Active,FL000008,XFL,Public,Public,29.46738888,-81.20633333,,AIRPORT,-9039821.263820749,3435584.744339159
HERNANDO COUNTY AIRPORT,2495 BROAD ST,BROOKSVILLE,34604,HERNANDO,-82.446067,28.47632683,17R LM 58440 50821,COUNTY,R24 423 18 0000 0010 0000,HERNANDO COUNTY AIRPORT,15800 FLIGHT PATH DRIVE  BROOKSVILLE FL 34604,http://www.florida-aviation-database.com/Facility/PublicSearch.aspx?UAID=FL000007,Active,FL000007,BKV,Public,Public,28.47359722,-82.45542222,,AIRPORT,-9177854.195958646,3309161.5224678037
HERLONG RECREATIONAL AIRPORT,8977 HERLONG RD,JACKSONVILLE,32210,DUVAL,-81.80594597,30.2777875,17R MP 22484 49841,COUNTY,0090290000R,HERLONG RECREATIONAL AIRPORT,9300 NORMANDY BOULEVARD  JACKSONVILLE FL 32221-5522,http://www.florida-aviation-database.com/Facility/PublicSearch.aspx?UAID=FL000031,Active,FL000031,HEG,Public,Public,30.27523888,-81.80537777,,AIRPORT,-9106596.248879788,3539307.0447491617
PETER O KNIGHT AIRPORT,825 SEVERN AVE,TAMPA,33606,HILLSBOROUGH,-82.45037288,27.91527826,17R LL 57275 88663,,1829364J5000054000000A,PETER O KNIGHT AIRPORT,825 SEVERN AVENUE  TAMPA FL 33606,http://www.florida-aviation-database.com/Facility/PublicSearch.aspx?UAID=FL000071,Active,FL000071,TPF,Public,Public,27.91557777,-82.44926111,,AIRPORT,-9178333.524768455,3238296.5087788193
FLYING TEN AIRPORT, ,ARCHER,32618,ALACHUA,-82.50871997,29.61802262,17R LN 53924 77411,,04437 003 000,FLYING TEN AIRPORT,3906 SOUTHWEST 154 STREET  ARCHER FL 32618,http://www.florida-aviation-database.com/Facility/PublicSearch.aspx?UAID=FL000237,Active,FL000237,0J8,Public,Private,29.61802222,-82.50871944,,AIRPORT,-9184828.693385974,3454544.102372948
BOB LEE FLIGHT STRIP, ,DELAND,32724,VOLUSIA,-81.31367519,29.10442653,17R MN 69478 19595,SPECIAL TAXING DISTRICT,30161700000050,BOB LEE FLIGHT STRIP,5000 BOB LEE AIRPORT ROAD  DELAND FL 32724,http://www.florida-aviation-database.com/Facility/PublicSearch.aspx?UAID=FL000333,Active,FL000333,1J6,Public,Private,29.10442777,-81.31367499,,AIRPORT,-9051796.916969884,3388943.9178983853
SOUTH LAKELAND AIRPORT, ,MULBERRY,33860,POLK,-82.03964178,27.92999101,17R LL 97710 89881,,232930000000021020,SOUTH LAKELAND AIRPORT,7500 CORONET ROAD  MULBERRY FL 33860-8307,http://www.florida-aviation-database.com/Facility/PublicSearch.aspx?UAID=FL000612,Active,FL000612,X49,Public,Private,27.93335805,-82.04397388,,AIRPORT,-9132611.147602275,3240150.1216438627
ALBERT WHITTED AIRPORT,341 8TH AVE SE,SAINT PETERSBURG,33701,PINELLAS,-82.62494204,27.76546453,17R LL 39874 72280,MUNICIPAL,17 31 20 00241 001 0020,ALBERT WHITTED AIRPORT,107 8TH AVENUE SOUTHEAST  SAINT PETERSBURG FL 33701,http://www.florida-aviation-database.com/Facility/PublicSearch.aspx?UAID=FL000066,Active,FL000066,SPG,Public,Public,27.76511111,-82.62697222,,AIRPORT,-9197766.474968055,3219436.2834234647
SHELL CREEK AIRPARK, ,PUNTA GORDA,33982,CHARLOTTE,-81.91624811,26.9689761,17R MK 09067 83328,,402428100013,SHELL CREEK AIRPARK,36880 WASHINGTON LOOP ROAD  PUNTA GORDA FL 33982,http://www.florida-aviation-database.com/Facility/PublicSearch.aspx?UAID=FL000724,Active,FL000724,F13,Public,Private,26.96894722,-81.91564166,,AIRPORT,-9118875.027809747,3119596.256635884
TAMPA INTERNATIONAL AIRPORT,5020 W TAMPA BAY BLVD,TAMPA,33607,HILLSBOROUGH,-82.52885573,27.97067709,17R LL 49628 94895,COUNTY,182907ZZZ000005454400A,TAMPA INTERNATIONAL AIRPORT,4100 GEORGE J. BEAN PARKWAY  TAMPA FL 33607,http://www.florida-aviation-database.com/Facility/PublicSearch.aspx?UAID=FL000070,Active,FL000070,TPA,Public,Public,27.97547222,-82.54991666,,AIRPORT,-9187070.195605714,3245277.344767036
PAGE FIELD, ,FORT MYERS,33907,LEE,-81.86215674,26.58728673,17R MK 14148 41013,COUNTY,01452400000070000,PAGE FIELD,5200 CAPT. CHANNING PAGE DRIVE  FORT MYERS FL 33907-1526,http://www.florida-aviation-database.com/Facility/PublicSearch.aspx?UAID=FL000024,Active,FL000024,FMY,Public,Public,26.58665833,-81.86328055,,AIRPORT,-9112853.603203613,3072002.628666651
CARRABELLE - THOMPSON AIRPORT,296 AIRPORT ROAD,CARRABELLE,32322,FRANKLIN,-84.70050299,29.84230656,16R GU 22161 03531,,24-07S-05W-0000-0100-0000,CARRABELLE - THOMPSON AIRPORT,296 AIRPORT ROAD  CARRABELLE FL 32322,http://www.florida-aviation-database.com/Facility/PublicSearch.aspx?UAID=FL000027,Active,FL000027,X13,Public,Public,29.842,-84.70111111,,AIRPORT,-9428816.863280218,3483295.8845822536
PUNTA GORDA AIRPORT, ,PUNTA GORDA,33982,CHARLOTTE,-81.99111676,26.92013113,17R MK 01593 77974,OTHER PUBLIC,412310300001,PUNTA GORDA AIRPORT,28000 A-1 AIRPORT ROAD  PUNTA GORDA FL 33982-2453,http://www.florida-aviation-database.com/Facility/PublicSearch.aspx?UAID=FL000060,Active,FL000060,PGD,Public,Public,26.92019444,-81.99051388,,AIRPORT,-9127209.367723718,3113496.727444889
PALM BEACH COUNTY GLADES AIRPORT, ,PAHOKEE,33476,PALM BEACH,-80.69335115,26.7850375,17R NK 30481 62663,COUNTY,00364225000003060,PALM BEACH COUNTY GLADES AIRPORT,3800 STATE ROAD 715  PAHOKEE FL 33476-3029,http://www.florida-aviation-database.com/Facility/PublicSearch.aspx?UAID=FL000055,Active,FL000055,PHK,Public,Public,26.78583888,-80.69344722,,AIRPORT,-8982742.760726508,3096640.599729247
BUCHAN AIRPORT, ,ENGLEWOOD,34223,SARASOTA,-82.37401513,26.99007958,17R LK 63657 86078,SPECIAL TAXING DISTRICT,0492-01-0001,BUCHAN AIRPORT,1390 OLD ENGLEWOOD ROAD  VENICE FL 34285,http://www.florida-aviation-database.com/Facility/PublicSearch.aspx?UAID=FL000098,Active,FL000098,X36,Public,Public,26.98978055,-82.37315,,AIRPORT,-9169833.418553509,3122232.377994023
JACKSONVILLE EXECUTIVE AT CRAIG AIRPORT,855 N ST JOHNS BLUFF RD,JACKSONVILLE,32225,DUVAL,-81.51387283,30.33631671,17R MP 50605 56164,COUNTY,1621050000R,JACKSONVILLE EXECUTIVE AT CRAIG AIRPORT,855-11 SAINT JOHNS BLUFF ROAD NORTH  JACKSONVILLE FL 32225,http://www.florida-aviation-database.com/Facility/PublicSearch.aspx?UAID=FL000030,Active,FL000030,CRG,Public,Public,30.33632222,-81.51445,,AIRPORT,-9074082.816331824,3546853.8886429886
KEY WEST INTERNATIONAL AIRPORT,3491 S ROOSEVELT BLVD,KEY WEST,33040,MONROE,-81.75985419,24.55613,17R MH 23048 16012,COUNTY,0368 25 00064840000000,KEY WEST INTERNATIONAL AIRPORT,3491 SOUTH ROOSEVELT BOULEVARD  KEY WEST FL 33040,http://www.florida-aviation-database.com/Facility/PublicSearch.aspx?UAID=FL000034,Active,FL000034,EYW,Public,Public,24.55612222,-81.75954444,,AIRPORT,-9101465.335652066,2821322.8921890436
JACKSONVILLE INTERNATIONAL AIRPORT,2400 YANKEE CLIPPER DR,JACKSONVILLE,32218,DUVAL,-81.68498745,30.4916152,17R MP 34261 73461,COUNTY,0192800000R,JACKSONVILLE INTERNATIONAL AIRPORT,14110 PECAN PARK ROAD  JACKSONVILLE FL 32218,http://www.florida-aviation-database.com/Facility/PublicSearch.aspx?UAID=FL000032,Active,FL000032,JAX,Public,Public,30.49405555,-81.68786111,,AIRPORT,-9093131.20801764,3566900.215835198
WILLISTON MUNICIPAL AIRPORT,1800 SW 19TH AVE,WILLISTON,32696,LEVY,-82.47245509,29.3561805,17R LN 57069 48348,,0444200000,WILLISTON MUNICIPAL AIRPORT,1800 SOUTH WEST 19TH AVENUE  WILLISTON FL 32696,http://www.florida-aviation-database.com/Facility/PublicSearch.aspx?UAID=FL000103,Active,FL000103,X60,Public,Public,29.35416666,-82.47277777,,AIRPORT,-9180791.704743117,3421058.4123226567
CROSS CITY AIRPORT, ,CROSS CITY,32628,DIXIE,-83.1086198,29.63341203,17R KN 95861 80023,,101012258900000001,CROSS CITY AIRPORT,1516 AIRPORT ROAD  CROSS CITY FL 32628,http://www.florida-aviation-database.com/Facility/PublicSearch.aspx?UAID=FL000013,Active,FL000013,CTY,Public,Public,29.63444444,-83.10555555,,AIRPORT,-9251609.236613838,3456514.876601409
AIRPORT MANATEE, ,PALMETTO,34221,MANATEE,-82.52106221,27.64236641,17R LL 49944 58510,,590600059,AIRPORT MANATEE,14108 US HIGHWAY 41 NORTH  PALMETTO FL 34221,http://www.florida-aviation-database.com/Facility/PublicSearch.aspx?UAID=FL000686,Active,FL000686,48X,Public,Private,27.64253277,-82.52092861,,AIRPORT,-9186202.624784697,3203958.741780269
KENDALL-TAMIAMI EXECUTIVE AIRPORT, ,MIAMI,33186,MIAMI-DADE,-80.43277714,25.64788744,17R NJ 56935 36812,,3059160000010,KENDALL-TAMIAMI EXECUTIVE AIRPORT,12800 SOUTH WEST 145 AVENUE  MIAMI FL 33186,http://www.florida-aviation-database.com/Facility/PublicSearch.aspx?UAID=FL000046,Active,FL000046,TMB,Public,Public,25.64788888,-80.43277777,,AIRPORT,-8953735.794286508,2955535.249891937
RIVER RANCH RESORT AIRPORT, ,LAKE WALES,33898,POLK,-81.20363381,27.77900206,17R ML 79937 72738,,313123000000012010,RIVER RANCH RESORT AIRPORT,3600 RIVER RANCH BOULEVARD  RIVER RANCH FL 33867,http://www.florida-aviation-database.com/Facility/PublicSearch.aspx?UAID=FL000732,Active,FL000732,2RR,Public,Private,27.78224999,-81.20534444,,AIRPORT,-9039547.166549584,3221139.469558913
NEW HIBISCUS AIRPARK, ,VERO BEACH,32966,INDIAN RIVER,-80.52795582,27.63278373,17R NL 46569 56614,,33380300001012000002.1,NEW HIBISCUS AIRPARK,1890 98TH AVENUE  VERO BEACH FL 32966,http://www.florida-aviation-database.com/Facility/PublicSearch.aspx?UAID=FL000793,Active,FL000793,X52,Public,Private,27.632255,-80.52755444,,AIRPORT,-8964331.036657406,3202754.6108282367
UMATILLA MUNICIPAL AIRPORT, ,UMATILLA,32784,LAKE,-81.65174113,28.92276543,17R MM 36472 99603,,181827020000000001,UMATILLA MUNICIPAL AIRPORT,480 EAST CASSADY DRIVE  UMATILLA FL 32784-2286,http://www.florida-aviation-database.com/Facility/PublicSearch.aspx?UAID=FL000023,Active,FL000023,X23,Public,Public,28.922765,-81.65174111,,AIRPORT,-9089430.24495184,3365819.4724848215
TALLAHASSEE COMMERCIAL AIRPORT,6551 N MONROE ST,TALLAHASSEE,32303,LEON,-84.373832,30.54730542,16R GU 51929 82369,,2430202020000,TALLAHASSEE COMMERCIAL AIRPORT,6601 NORTH MONROE STREET  TALLAHASSEE FL 32303,http://www.florida-aviation-database.com/Facility/PublicSearch.aspx?UAID=FL000768,Active,FL000768,68J,Public,Private,30.54730833,-84.37384722,,AIRPORT,-9392452.014118722,3574096.639191343
BOCA RATON AIRPORT, ,BOCA RATON,33431,PALM BEACH,-80.10768894,26.37849149,17R NK 89014 17908,STATE OF FLORIDA TIITF,06424713000001010,BOCA RATON AIRPORT,"3701 FAU BLVD., SUITE 205  BOCA RATON FL 33431",http://www.florida-aviation-database.com/Facility/PublicSearch.aspx?UAID=FL000005,Active,FL000005,BCT,Public,Public,26.37848666,-80.10769666,,AIRPORT,-8917547.141217714,3046034.7586819264
INDIANTOWN AIRPORT, ,INDIANTOWN,34956,MARTIN,-80.44004805,27.03644153,17R NK 55538 90594,,333939000000000114,INDIANTOWN AIRPORT,20654 SOUTHWEST CITRUS BOULEVARD  INDIANTOWN FL 34956,http://www.florida-aviation-database.com/Facility/PublicSearch.aspx?UAID=FL000447,Active,FL000447,X58,Public,Private,27.03644166,-80.44005,,AIRPORT,-8954545.188300842,3128025.3747458644
MARIANNA MUNICIPAL AIRPORT,3633 INDUSTRIAL PARK DR,MARIANNA,32446,JACKSON,-85.18570085,30.83854836,16R FV 73508 13117,COUNTY, ,MARIANNA MUNICIPAL AIRPORT,3689 INDUSTRIAL PARK DRIVE  MARIANNA FL 32446,http://www.florida-aviation-database.com/Facility/PublicSearch.aspx?UAID=FL000041,Active,FL000041,MAI,Public,Public,30.83779388,-85.18188111,,AIRPORT,-9482828.841968711,3611799.2776217274
COSTIN AIRPORT, ,PORT SAINT JOE,32456,GULF,-85.28890015,29.75594539,16R FT 65446 92968,,06236-105R,COSTIN AIRPORT,167 CESSNA DRIVE  PORT SAINT JOE FL 32456,http://www.florida-aviation-database.com/Facility/PublicSearch.aspx?UAID=FL000722,Active,FL000722,A51,Public,Private,29.75854444,-85.28908333,,AIRPORT,-9494316.935554307,3472217.316089894
ZEPHYRHILLS MUNICIPAL AIRPORT,39506 SOUTH AVE,ZEPHYRHILLS,33542,PASCO,-82.16035086,28.22740591,17R LM 86147 22939,MUNICIPAL,2126130000001000000,ZEPHYRHILLS MUNICIPAL AIRPORT,39450 SOUTH AVENUE  ZEPHYRHILLS FL 33542,http://www.florida-aviation-database.com/Facility/PublicSearch.aspx?UAID=FL000080,Active,FL000080,ZPH,Public,Public,28.22806388,-82.15591638,,AIRPORT,-9146048.421086995,3277674.8420989914
FT WALTON BEACH AIRPORT, ,NAVARRE,32566,SANTA ROSA,-86.82912423,30.40630862,16R EU 16413 63821,,21-2S-26-0780-00G00-0000,FT WALTON BEACH AIRPORT,9401 NAVARRE PARKWAY  NAVARRE FL 32566,http://www.florida-aviation-database.com/Facility/PublicSearch.aspx?UAID=FL000617,Active,FL000617,1J9,Public,Private,30.40656944,-86.82912499,,AIRPORT,-9665773.895377534,3555884.676423312
EXECUTIVE AIRPORT,501 HERNDON AVE,ORLANDO,32803,ORANGE,-81.33545341,28.54434492,17R MM 67184 57550,,302229000000016,EXECUTIVE AIRPORT,365 RICKENBACKER DRIVE  ORLANDO FL 32803,http://www.florida-aviation-database.com/Facility/PublicSearch.aspx?UAID=FL000054,Active,FL000054,ORL,Public,Public,28.54547222,-81.33294444,,AIRPORT,-9054221.25659095,3317778.198574832
ARTHUR DUNN AIR PARK,465 SINGLETON AVE N,TITUSVILLE,32796,BREVARD,-80.83535601,28.62270572,17R NM 16094 66196,COUNTY,21 353200  751,ARTHUR DUNN AIR PARK,476 NORTH WILLIAMS AVENUE  TITUSVILLE FL 32780,http://www.florida-aviation-database.com/Facility/PublicSearch.aspx?UAID=FL000082,Active,FL000082,X21,Public,Public,28.62255166,-80.83540972,,AIRPORT,-8998550.669171814,3327712.011378458
ARCADIA MUNICIPAL AIRPORT, ,ARCADIA,34266,DESOTO,-81.8380372,27.19625744,17R ML 16997 08450,,05-38-25-0000-0310-0000,ARCADIA MUNICIPAL AIRPORT,"2269 SOUTHEAST A.C. POLK, JR. DRIVE  ARCADIA FL 34266",http://www.florida-aviation-database.com/Facility/PublicSearch.aspx?UAID=FL000104,Active,FL000104,X06,Public,Public,27.19199444,-81.83730277,,AIRPORT,-9110168.628332838,3148012.9933971916
INVERNESS AIRPORT,3528 S AIRPORT RD,INVERNESS,34452,CITRUS,-82.31552769,28.81142692,17R LM 71629 87803,,20E19S28      34000,INVERNESS AIRPORT,3528 SOUTH AIRPORT ROAD  INVERNESS FL 34450,http://www.florida-aviation-database.com/Facility/PublicSearch.aspx?UAID=FL000091,Active,FL000091,INF,Public,Public,28.80859722,-82.31648055,,AIRPORT,-9163322.627381371,3351666.731192049
TALLAHASSEE REGIONAL AIRPORT,3300 CAPITOL CIRCLE SW,TALLAHASSEE,32310,LEON,-84.34503411,30.39138709,16R GU 55099 65146,MUNICIPAL,4117208010000,TALLAHASSEE REGIONAL AIRPORT,3300 CAPITAL CIRCLE SOUTHWEST SUITE 1 TALLAHASSEE FL 32310,http://www.florida-aviation-database.com/Facility/PublicSearch.aspx?UAID=FL000069,Active,FL000069,TLH,Public,Public,30.39652777,-84.35033333,,AIRPORT,-9389246.248360153,3553958.86619952
FT LAUDERDALE EXECUTIVE AIRPORT, ,FORT LAUDERDALE,33309,BROWARD,-80.17319122,26.19840268,17R NJ 82607 97919,MUNICIPAL,494209290010,FT LAUDERDALE EXECUTIVE AIRPORT,6000 NORTHWEST 21ST AVENUE  FORT LAUDERDALE FL 33309,http://www.florida-aviation-database.com/Facility/PublicSearch.aspx?UAID=FL000021,Active,FL000021,FXE,Public,Public,26.19727777,-80.17071111,,AIRPORT,-8924838.82179747,3023674.788626121
PALM BEACH INTERNATIONAL AIRPORT,BLDG 846-PALM BEACH INTL,WEST PALM BEACH,33406,PALM BEACH,-80.09388369,26.68260726,17R NK 90153 51602,COUNTY,00434331010010010,PALM BEACH INTERNATIONAL AIRPORT,BUILDING 846 PBIA  WEST PALM BEACH FL 33406-1491,http://www.florida-aviation-database.com/Facility/PublicSearch.aspx?UAID=FL000077,Active,FL000077,PBI,Public,Public,26.68315833,-80.09558888,,AIRPORT,-8916010.347973606,3083873.375825919
PILOT COUNTRY AIRPORT, ,SPRING HILL,34610,PASCO,-82.49648214,28.33028157,17R LM 53303 34699,,1825100020000000310,PILOT COUNTRY AIRPORT,11500 PILOT COUNTRY DRIVE  SPRING HILL FL 34610,http://www.florida-aviation-database.com/Facility/PublicSearch.aspx?UAID=FL000274,Active,FL000274,X05,Public,Private,28.33028333,-82.49648333,,AIRPORT,-9183466.383794267,3290678.916956252
EVERGLADES AIRPARK, ,OCHOPEE,34141,COLLIER,-81.38974917,25.84844984,17R MJ 60944 58958,COUNTY,83491800001,EVERGLADES AIRPARK,650 EVERGLADES CITY  AIRPARK ROAD  EVERGLADES CITY FL 34139,http://www.florida-aviation-database.com/Facility/PublicSearch.aspx?UAID=FL000018,Active,FL000018,X01,Public,Public,25.84871111,-81.39008055,,AIRPORT,-9060265.43380546,2980322.8826688444
CECIL AIRPORT,6211 AVIATION AVE,JACKSONVILLE,32221,DUVAL,-81.87614347,30.21765104,17R MP 15681 43227,COUNTY,0022490000R,CECIL AIRPORT,13365 SIMPSON WAY  JACKSONVILLE FL 32221-5522,http://www.florida-aviation-database.com/Facility/PublicSearch.aspx?UAID=FL000455,Active,FL000455,VQQ,Public,Public,30.21867305,-81.87666444,,AIRPORT,-9114410.59945607,3531557.647076694
COASTAL AIRPORT, ,PENSACOLA,32526,ESCAMBIA,-87.38530701,30.53189038,16R DU 63037 77788,,071S311210000001,COASTAL AIRPORT,6001 WEST NINE MILE ROAD  PENSACOLA FL 32526,http://www.florida-aviation-database.com/Facility/PublicSearch.aspx?UAID=FL000700,Active,FL000700,83J,Public,Private,30.53188888,-87.38530555,,AIRPORT,-9727687.879416011,3572104.2571890983
OCALA INTERNATIONAL-JIM TAYLOR FIELD,1770 SW 60TH AVE,OCALA,34474,MARION,-82.22305131,29.17178334,17R LN 81067 27636,MUNICIPAL,23320-000-00,OCALA INTERNATIONAL-JIM TAYLOR FIELD,750 SOUTHWEST 60TH AVENUE  OCALA FL 34474-1270,http://www.florida-aviation-database.com/Facility/PublicSearch.aspx?UAID=FL000051,Active,FL000051,OCF,Public,Public,29.17261111,-82.22416666,,AIRPORT,-9153028.202907912,3397528.4256649558
JACK BROWNS SEAPLANE BASE, , , ,POLK,-81.76085555,28.06225868,17R MM 25232 04332,,,JACK BROWNS SEAPLANE BASE,2704 U.S. HIGHWAY 92  WINTER HAVEN FL 33880,http://www.florida-aviation-database.com/Facility/PublicSearch.aspx?UAID=FL000829,Active,FL000829,F57,Public,Private,28.0575,-81.76280555,,AIRPORT,-9101576.806601288,3256825.4548912356
PERRY-FOLEY AIRPORT, ,PERRY,32348,TAYLOR,-83.57833083,30.07271675,17R KP 51465 29646,COUNTY,12050706062000,PERRY-FOLEY AIRPORT,511 INDUSTRIAL DRIVE  PERRY FL 32348,http://www.florida-aviation-database.com/Facility/PublicSearch.aspx?UAID=FL000092,Active,FL000092,40J,Public,Public,30.06935277,-83.58061944,,AIRPORT,-9303897.229433926,3512900.331779666
BARTOW MUNICIPAL AIRPORT,5001 N US HWY 17,BARTOW,33830,POLK,-81.78329246,27.94336659,17R ML 22943 91175,,252923000000011010,BARTOW MUNICIPAL AIRPORT,5001 HIGHWAY 17 NORTH  BARTOW FL 33830,http://www.florida-aviation-database.com/Facility/PublicSearch.aspx?UAID=FL000004,Active,FL000004,BOW,Public,Public,27.94335833,-81.78344166,,AIRPORT,-9104074.471916124,3241835.4865757353
Keystone Heights Airpark, ,STARKE,32091,BRADFORD,-82.04916349,29.84712119,17R LP 98652 02307,,05215-0-00000,Keystone Heights Airpark,7100 AIRPORT ROAD  STARKE FL 32091-9347,http://www.florida-aviation-database.com/Facility/PublicSearch.aspx?UAID=FL000033,Active,FL000033,42J,Public,Public,29.84440833,-82.03343611,,AIRPORT,-9133671.099238556,3483913.795328887
PIERSON MUNICIPAL AIRPORT, ,PIERSON,32180,VOLUSIA,-81.45923613,29.24997852,17R MN 55378 35768,MUNICIPAL,28142700000240,PIERSON MUNICIPAL AIRPORT,305 NORTH CENTER STREET  PIERSON FL 32180,http://www.florida-aviation-database.com/Facility/PublicSearch.aspx?UAID=FL000109,Active,FL000109,2J8,Public,Public,29.25,-81.45923611,,AIRPORT,-9068000.686011111,3407501.334926016
NORTHEAST FLORIDA REGIONAL AIRPORT,4900 N US HWY 1,SAINT AUGUSTINE,32095,ST. JOHNS,-81.34055639,29.96093121,17R MP 67141 14504,,0748400000,NORTHEAST FLORIDA REGIONAL AIRPORT,4796 US HIGHWAY 1 NORTH  ST. AUGUSTINE FL 32095,http://www.florida-aviation-database.com/Facility/PublicSearch.aspx?UAID=FL000065,Active,FL000065,SGJ,Public,Public,29.95924999,-81.33975,,AIRPORT,-9054789.318089247,3498528.9031927376
WAKULLA COUNTY AIRPORT, ,PANACEA,32346,WAKULLA,-84.39579235,29.9886893,16R GU 51241 20387,,01-6S-02W-000-03588-001,WAKULLA COUNTY AIRPORT,30 BAY DRIVE  PANACEA FL 32346,http://www.florida-aviation-database.com/Facility/PublicSearch.aspx?UAID=FL000108,Active,FL000108,2J0,Public,Public,29.98926944,-84.39584166,,AIRPORT,-9394896.629408097,3502096.0415459014
POMPANO BEACH AIRPARK, ,POMPANO BEACH,33060,BROWARD,-80.11105311,26.24713866,17R NK 88778 03357,MUNICIPAL,484225000060,POMPANO BEACH AIRPARK,1001 NORTHEAST 10TH STREET  POMPANO BEACH FL 33060,http://www.florida-aviation-database.com/Facility/PublicSearch.aspx?UAID=FL000102,Active,FL000102,PMP,Public,Public,26.24713888,-80.11105555,,AIRPORT,-8917921.638818925,3029722.462143251
FERGUSON AIRPORT, ,PENSACOLA,32506,ESCAMBIA,-87.34884597,30.39879321,16R DU 66489 63027,,232S312200000000,FERGUSON AIRPORT,9750 AILERON AVENUE  PENSACOLA FL 32506,http://www.florida-aviation-database.com/Facility/PublicSearch.aspx?UAID=FL000703,Active,FL000703,82J,Public,Private,30.39825,-87.34888888,,AIRPORT,-9723629.05441306,3554914.6813944415
