Name,Address,City,Zip,COUNTY,LONGLAT,USNG,OWNERSHIP,PARCELID,FACILITY_TYPE,ADDRESSCITYZIP,x,y
SARASOTA-BEE RIDGE PARK (MOBILE), , , ,,"-82.50695500,27.29052100",17R LL 50863 19513,,,DISASTER RECOVERY CENTER-MOBILE,"    , FL  ",-9184632.217480352,3159815.6334109497
LEVY-CITY HALL WILLISTON (MOBILE), , , ,,"-82.44821300,29.38795100",17R LN 59466 51840,,,DISASTER RECOVERY CENTER-MOBILE,"    , FL  ",-9178093.08800541,3425116.778485439
HIGHLANDS-AVON PARK HS (MOBILE), , , ,,"-81.48846010,27.59401180",17R ML 51794 52325,,,DISASTER RECOVERY CENTER-MOBILE,"    , FL  ",-9071253.883822316,3197883.722081692
MANATEE COUNTY CONVENTION CENTER (MOBILE), , , ,,"-82.56168170,27.51498620",17R LL 45758 44448,,,DISASTER RECOVERY CENTER-MOBILE,"    , FL  ",-9190724.365863249,3187961.1232198994
SARASOTA-CHURCH OF THE PALMS (MOBILE), , , ,,"-82.50556090,27.29863600",17R LL 51012 20410,,,DISASTER RECOVERY CENTER-MOBILE,"    , FL  ",-9184477.027015975,3160832.171847241
OKEECHOBEE-C SCOTT DRIVER REC AREA (MOBILE), , , ,,"-80.86797560,27.15157490",17R NL 13081 03230,,,DISASTER RECOVERY CENTER-MOBILE,"    , FL  ",-9002181.86524752,3142421.826534835
CHARLOTTE-19400 COCHRAN BLVD (MOBILE), , , ,,"-82.13473010,27.00896540",17R LK 87422 87934,,,DISASTER RECOVERY CENTER-MOBILE,"    , FL  ",-9143196.331179619,3124591.9018927724
HENDRY-U SAVE MARKET (MOBILE), , , ,,"-80.93146650,26.75294600",17R NK 06814 59074,,,DISASTER RECOVERY CENTER-MOBILE,"    , FL  ",-9009249.639946003,3092639.3783637434
DESOTO COUNTY TURNER AGRI CIVIC CENTER (MOBILE), , , ,,"-81.83633380,27.22581000",17R ML 17187 11722,,,DISASTER RECOVERY CENTER-MOBILE,"    , FL  ",-9109979.006991884,3151712.1620281865
HIGHLANDS-SEBRING HIGH SCHOOL (MOBILE), , , ,,"-81.43146620,27.48718360",17R ML 57377 40471,,,DISASTER RECOVERY CENTER-MOBILE,"    , FL  ",-9064909.35194525,3184471.874011257
SARASOTA-R.L. TAYLOR COMM COMPLEX (MOBILE), , , ,,"-82.53222300,27.36606970",17R LL 48465 27913,,,DISASTER RECOVERY CENTER-MOBILE,"    , FL  ",-9187445.038369596,3169282.2391559067
MONROE-30320 OVERSEAS HWY (MOBILE), , , ,,"-81.35860970,24.66868970",17R MH 63716 28310,,,DISASTER RECOVERY CENTER-MOBILE,"    , FL  ",-9056799.003487578,2835105.1582570863
OKEECHOBEE-ALTON CHANDLER CIVIC CENTER (MOBILE), , , ,,"-81.03690100,27.38848700",17R ML 96351 29465,,,DISASTER RECOVERY CENTER-MOBILE,"    , FL  ",-9020986.554801282,3172092.4740664004
SARASOTA-CHURCH OF THE HOLY SPIRIT (MOBILE), , , ,,"-82.48741690,27.19436700",17R LL 52670 08837,,,DISASTER RECOVERY CENTER-MOBILE,"    , FL  ",-9182457.24612277,3147776.394996101
HENDRY-LABELLE COMM. CENTER (MOBILE), , , ,,"-81.43566210,26.75963210",17R MK 56683 59886,,,DISASTER RECOVERY CENTER-MOBILE,"    , FL  ",-9065376.437381173,3093472.9191616573
DESOTO-VAC. WINN DIXIE (MOBILE), , , ,,"-81.84417520,27.20857240",17R ML 16398 09818,,,DISASTER RECOVERY CENTER-MOBILE,"    , FL  ",-9110851.907628624,3149554.368436767
GLADES-DOYLE CONNER BLDG (MOBILE), , , ,,"-81.08228270,26.82227160",17R MK 91823 66753,,,DISASTER RECOVERY CENTER-MOBILE,"    , FL  ",-9026038.422524873,3101284.427648344
LEE-OLGA COMM CENTER(MOBILE), , , ,,"-81.71277870,26.71777350",17R MK 29104 55374,,,DISASTER RECOVERY CENTER-MOBILE,"    , FL  ",-9096224.916167794,3088255.309931989
LEE-VETERANS PARK REC CENTER(MOBILE), , , ,,"-81.63373580,26.59517050",17R MK 36899 41754,,,DISASTER RECOVERY CENTER-MOBILE,"    , FL  ",-9087425.900782146,3072984.0591157028
OKEECHOBEE-DOUGLAS BROWN COMM CENTER (MOBILE), , , ,,"-80.81263000,27.25046300",17R NL 18548 14190,,,DISASTER RECOVERY CENTER-MOBILE,"    , FL  ",-8996020.821302753,3154798.7918979335
NASSAU-CALLAHAN BUILDING(MOBILE), , , ,,"-81.83480610,30.56173750",17R MP 19940 81329,,,DISASTER RECOVERY CENTER-MOBILE,"    , FL  ",-9109808.944219764,3575962.260066631
HIGHLANDS-LAKE PLACID HS (MOBILE), , , ,,"-81.37254290,27.29371980",17R ML 63134 19023,,,DISASTER RECOVERY CENTER-MOBILE,"    , FL  ",-9058350.040213691,3160216.327310656
HENDRY-B&B CASH GROCERY (MOBILE), , , ,,"-81.43795760,26.76340000",17R MK 56457 60304,,,DISASTER RECOVERY CENTER-MOBILE,"    , FL  ",-9065631.97129199,3093942.676274537
ALACHUA COUNTY FD ST 21,15040 NW US HWY 441,ALACHUA,32615,ALACHUA,"-82.49322052,29.79267387",17R LN 55675 96746,COUNTY,03376 002 000,DISASTER RECOVERY CENTER-MOBILE,"15040 NW US HWY 441 ALACHUA , FL 32615",-9183103.302683588,3476927.743077159
ALACHUA COUNTY FD ST 25,7405 SE 221ST ST,HAWTHORNE,32640,ALACHUA,"-82.08679035,29.58612338",17R LN 94746 73418,COUNTY,19493 001 000,DISASTER RECOVERY CENTER-MOBILE,"7405 SE 221ST ST HAWTHORNE , FL 32640",-9137859.702675177,3450460.030619542
ALACHUA COUNTY FD ST 17,3509 NW 143RD ST,NEWBERRY,32669,ALACHUA,"-82.49477119,29.68589740",17R LN 55372 84915,COUNTY,04341 001 001,DISASTER RECOVERY CENTER-MOBILE,"3509 NW 143RD ST NEWBERRY , FL 32669",-9183275.92161387,3463238.442184841
ALACHUA COUNTY FD ST 12,1320 SE 43RD ST,GAINESVILLE,32641,ALACHUA,"-82.27287642,29.63878247",17R LN 76786 79437,COUNTY,16125 005 001,DISASTER RECOVERY CENTER-MOBILE,"1320 SE 43RD ST GAINESVILLE , FL 32641",-9158574.708993154,3457202.6888211165
ALACHUA COUNTY FD ST 19,1800 SW 43RD ST,GAINESVILLE,32606,ALACHUA,"-82.38961597,29.63582580",17R LN 65481 79239,COUNTY,06680 002 000,DISASTER RECOVERY CENTER-MOBILE,"1800 SW 43RD ST GAINESVILLE , FL 32606",-9171570.096212368,3456824.0130530014
ALACHUA COUNTY FD ST 27,429 W STATE ROAD 24,ARCHER,32618,ALACHUA,"-82.52496731,29.53357700",17R LN 52228 68073,COUNTY,04963 000 000,DISASTER RECOVERY CENTER-MOBILE,"429 W STATE ROAD 24 ARCHER , FL 32618",-9186637.338939657,3443735.3094435344
YOUNGSTOWN FOUNTAIN RECREATION COMPLEX,12421 E. HIGHWAY 20,FOUNTAIN,32438,BAY,"-85.41729500,30.43903900",16R FU 51981 68499,COUNTY,02858-000-000,DISASTER RECOVERY CENTER-MOBILE,"12421 E. HIGHWAY 20 FOUNTAIN , FL 32438",-9508609.784397265,3560109.9721661983
HG HARDERS RECREATIONAL PARK,7900 JOHN PITTS RD,PANAMA CITY,32404,BAY,"-85.50861100,30.24532900",16R FU 43493 46911,COUNTY,05898-000-000,DISASTER RECOVERY CENTER-MOBILE,"7900 JOHN PITTS RD PANAMA CITY , FL 32404",-9518775.034970101,3535123.738443057
HG HARDERS RECREATIONAL PARK,7900 JOHN PITTS RD,PANAMA CITY,32404,BAY,"-85.50861100,30.24532900",16R FU 43493 46911,COUNTY,05898-000-000,DISASTER RECOVERY CENTER-MOBILE,"7900 JOHN PITTS RD PANAMA CITY , FL 32404",-9518775.034970101,3535123.738443057
HG HARDERS RECREATIONAL PARK,7900 JOHN PITTS RD,PANAMA CITY,32404,BAY,"-85.50861100,30.24532900",16R FU 43493 46911,COUNTY,05898-000-000,DISASTER RECOVERY CENTER-MOBILE,"7900 JOHN PITTS RD PANAMA CITY , FL 32404",-9518775.034970101,3535123.738443057
FRANK BROWN MEMORIAL PARK,16200 PANAMA CITY BEACH PKWY,PANAMA CITY BEACH,32413,BAY,"-85.87730200,30.23087100",16R FU 08033 44901,MUNICIPAL,32739-005-000,DISASTER RECOVERY CENTER-MOBILE,"16200 PANAMA CITY BEACH PKWY PANAMA CITY BEACH , FL 32413",-9559817.529388504,3533260.8116568443
FRANK BROWN MEMORIAL PARK,16200 PANAMA CITY BEACH PKWY,PANAMA CITY BEACH,32413,BAY,"-85.87730200,30.23087100",16R FU 08033 44901,MUNICIPAL,32739-005-000,DISASTER RECOVERY CENTER-MOBILE,"16200 PANAMA CITY BEACH PKWY PANAMA CITY BEACH , FL 32413",-9559817.529388504,3533260.8116568443
PARKER COMMUNITY CENTER,935 W PARK ST,PANAMA CITY,32404,BAY,"-85.60504100,30.12967700",16R FU 34371 33975,MUNICIPAL,25876-000-000,DISASTER RECOVERY CENTER-MOBILE,"935 W PARK ST PANAMA CITY , FL 32404",-9529509.573382044,3520229.527100587
FRANK BROWN MEMORIAL PARK,16200 PANAMA CITY BEACH PKWY,PANAMA CITY BEACH,32413,BAY,"-85.87730200,30.23087100",16R FU 08033 44901,MUNICIPAL,32739-005-000,DISASTER RECOVERY CENTER-MOBILE,"16200 PANAMA CITY BEACH PKWY PANAMA CITY BEACH , FL 32413",-9559817.529388504,3533260.8116568443
CURVE ON THOMAS DRIVE,4900 THOMAS DR,PANAMA CITY,32408,BAY,"-85.75032327,30.13992731",16R FU 20363 34949,,31640-071-000,DISASTER RECOVERY CENTER-MOBILE,"4900 THOMAS DR PANAMA CITY , FL 32408",-9545682.321924424,3521548.904315514
BEALL'S OUTLET PARKING LOT,837 S WALNUT ST,STARKE,32091,BRADFORD,"-82.11316747,29.93751775",17R LP 92566 12382,,03730-0-00100,DISASTER RECOVERY CENTER-MOBILE,"837 S WALNUT ST STARKE , FL 32091",-9140795.990629053,3495520.85826085
WINN-DIXIE PARKING LOT,470 W MADISON ST,STARKE,32091,BRADFORD,"-82.11382876,29.94399074",17R LP 92510 13100,,03210-0-00000,DISASTER RECOVERY CENTER-MOBILE,"470 W MADISON ST STARKE , FL 32091",-9140869.604568712,3496352.40498509
LAWTEY BALL FIELD,22703 PARK STREET,LAWTEY,32058,BRADFORD,"-82.07185139,30.04716881",17R LP 96668 24496,,01356-0-00000,DISASTER RECOVERY CENTER-MOBILE,"22703 PARK STREET LAWTEY , FL 32058",-9136196.704831598,3509614.3962952774
BRADFORD COUNTY SENIOR CENTER (MOBILE),1805 N TEMPLE AVE,STARKE,32091,BRADFORD,"-82.10532524,29.96367305",17R LP 93351 15273,,,DISASTER RECOVERY CENTER-MOBILE,"1805 N TEMPLE AVE STARKE , FL 32091",-9139922.997230155,3498881.2070655776
27 AVENUE PARK SITE (COUNTY PROPERTY),SW 27TH AVE / /E/S 27TH AVENUE SOUTH N,FORT LAUDERDALE,33312,BROWARD,"-80.17783300,26.10883400",17R NJ 82206 87996,,504208220000,DISASTER RECOVERY CENTER-MOBILE,"SW 27TH AVE / /E/S 27TH AVENUE SOUTH N FORT LAUDERDALE , FL 33312",-8925355.542461965,3012566.7562783663
FESTIVAL FLEA MARKET (OWNER DAN SCHUESTER),2900 W SAMPLE RD,POMPANO BEACH,33069,BROWARD,"-80.16299303,26.27360455",17R NK 83572 06254,,484221000000,DISASTER RECOVERY CENTER-MOBILE,"2900 W SAMPLE RD POMPANO BEACH , FL 33069",-8923703.564339548,3033007.691915988
HOLLYWOOD DOG TRACK (OWNER),831 N FEDERAY HIGHWAY,HOLLYWOOD,33020,BROWARD,"-80.14306900,26.01835300",17R NJ 85748 77997,,514215020180,DISASTER RECOVERY CENTER-MOBILE,"831 N FEDERAY HIGHWAY HOLLYWOOD , FL 33020",-8921485.631750772,3001354.218667983
"7771 W OAKLAND PARK BLVD., SUNRISE, FL 33351 (MOBILE)",7771 W OAKLAND PARK BLVD,SUNRISE,33351,BROWARD,"-80.25267627,26.16881904",17R NJ 74684 94594,,,DISASTER RECOVERY CENTER-MOBILE,"7771 W OAKLAND PARK BLVD SUNRISE , FL 33351",-8933687.057416404,3020004.9731615894
DANIA BEACH CITY HALL (CITY OWNED),100 W. DANIA BEACH BLVD,DANIA,33004,BROWARD,"-80.14473800,26.05163143",17R NJ 85557 81682,MUNICIPAL,504234620020,DISASTER RECOVERY CENTER-MOBILE,"100 W. DANIA BEACH BLVD DANIA , FL 33004",-8921671.423482826,3005477.124073098
TOYS R US PARKING LOT (OWNED BY TRU),8101 W BROWARD BLVD,FORT LAUDERDALE,33324,BROWARD,"-80.25646993,26.12138040",17R NJ 74335 89338,,504104360012,DISASTER RECOVERY CENTER-MOBILE,"8101 W BROWARD BLVD FORT LAUDERDALE , FL 33324",-8934109.365758406,3014122.209027913
CARR CLARKSVILLE VOLUNTEER FIRE DEPARTMENT,19024 SW STATE ROAD 73,ALTHA,32421,CALHOUN,"-85.18364276,30.44990513",16R FU 74402 70041,COUNTY,30-1N-09-0000-0006-0102,DISASTER RECOVERY CENTER-MOBILE,"19024 SW STATE ROAD 73 ALTHA , FL 32421",-9482599.735841379,3561513.037750269
SCOTTS FERRY VFD,7226 SE GU PARKER RD,BLOUNTSTOWN,32424,CALHOUN,"-85.13881307,30.29072212",16R FU 78997 52467,COUNTY,21-2S-09-0000-0001-0100,DISASTER RECOVERY CENTER-MOBILE,"7226 SE GU PARKER RD BLOUNTSTOWN , FL 32424",-9477609.317587776,3540974.4672211455
GULF COVE PUBLIX,13435 MCCALL ROAD,PORT CHARLOTTE,33981,CHARLOTTE,"-82.22356141,26.93257996",17R LK 78526 79555,,412105481001,DISASTER RECOVERY CENTER-MOBILE,"13435 MCCALL ROAD PORT CHARLOTTE , FL 33981",-9153084.98730325,3115051.0281417216
PORT CHARLOTTE TOWN CENTER MALL,1441 TAMIAMI TRAIL,PORT CHARLOTTE,33948,CHARLOTTE,"-82.14680939,27.01048518",17R LK 86225 88113,,402207327001,DISASTER RECOVERY CENTER-MOBILE,"1441 TAMIAMI TRAIL PORT CHARLOTTE , FL 33948",-9144540.991841642,3124781.794512966
CLEVELAND MARKET PLACE,27680 BERMONT ROAD,PUNTA GORDA,33982,CHARLOTTE,"-81.99920159,26.94805933",17R MK 00815 81074,,402334452002,DISASTER RECOVERY CENTER-MOBILE,"27680 BERMONT ROAD PUNTA GORDA , FL 33982",-9128109.36676791,3116983.946501828
CARMALITA ATHLETIC PARK (MOBILE),2610 CARMALITA ST.,PUNTA GORDA,33950,CHARLOTTE,"-82.02180115,26.92941291",17R LK 98555 79026,,,DISASTER RECOVERY CENTER-MOBILE,"2610 CARMALITA ST. PUNTA GORDA , FL 33950",-9130625.138259906,3114655.589653155
ANN DENVER REGIONAL PARK (MOBILE),7001 SAN CASA DRIVE,ENGLEWOOD,34224,CHARLOTTE,"-82.31394359,26.91824532",17R LK 69535 78057,,,DISASTER RECOVERY CENTER-MOBILE,"7001 SAN CASA DRIVE ENGLEWOOD , FL 34224",-9163146.28608453,3113261.289724602
CITRUS COUNTY COMMUNITY RESOURCE CENTER (MOBILE),2804 W MARC KNIGHTON CT,LECANTO,34461,CITRUS,"-82.48075610,28.90607174",17R LM 55635 98481,COUNTY,18E18S22      44000,DISASTER RECOVERY CENTER-MOBILE,"2804 W MARC KNIGHTON CT LECANTO , FL 34461",-9181715.768802302,3363696.495007471
PAUL C. ARMSTRONG PARK,2445 COUNTY ROAD 220,MIDDLEBURG,32068,CLAY,"-81.76541782,30.10008381",17R MP 26250 30122,COUNTY,02-05-25-008871-000-00,DISASTER RECOVERY CENTER-MOBILE,"2445 COUNTY ROAD 220 MIDDLEBURG , FL 32068",-9102084.676676864,3516421.182438726
CLAY COUNTY FAIRGROUNDS (EXHIBITION HALL #1) (MOBILE),2497 STATE ROAD 16 W,GREEN COVE SPRINGS,32043,CLAY,"-81.74060104,29.98033550",17R MP 28555 16837,COUNTY,18-06-26-015602-001-00,DISASTER RECOVERY CENTER-MOBILE,"2497 STATE ROAD 16 W GREEN COVE SPRINGS , FL 32043",-9099322.084591087,3501022.40565536
ST. JOHNS RIVER STATE COLLEGE,283 COLLEGE DR,ORANGE PARK,32065,CLAY,"-81.77443086,30.11863581",17R MP 25395 32184,STATE,06-04-26-010672-001-02,DISASTER RECOVERY CENTER-MOBILE,"283 COLLEGE DR ORANGE PARK , FL 32065",-9103088.003583482,3518808.503664461
ORANGE PARK MALL,1910 WELLS RD,ORANGE PARK,32073,CLAY,"-81.73493818,30.18624355",17R MP 29248 39651,STATE,06-04-26-010672-001-02,DISASTER RECOVERY CENTER-MOBILE,"1910 WELLS RD ORANGE PARK , FL 32073",-9098691.69817212,3527512.250165357
REYNOLDS PARK/ CLAY COUNTY PORT INC,1065 BULKHEAD RD,GREEN COVE SPRINGS,32043,CLAY,"-81.64897187,29.97995603",17R MP 37394 16741,,38-06-26-016453-000-00,DISASTER RECOVERY CENTER-MOBILE,"1065 BULKHEAD RD GREEN COVE SPRINGS , FL 32043",-9089121.972635332,3500973.637969538
MAX HASSE PARK,3390 GOLDEN GATE BOULEVARD WEST,NAPLES,34117,COLLIER,"-81.67432253,26.22676979",17R MK 32644 00972,,36765560008,DISASTER RECOVERY CENTER-MOBILE,"3390 GOLDEN GATE BOULEVARD WEST NAPLES , FL 34117",-9091943.995421112,3027194.570029589
VETERANS COMMUNITY PARK,1895 VETERANS PARK DR,NAPLES,34109,COLLIER,"-81.78364846,26.26795356",17R MK 21751 05595,,00167720304,DISASTER RECOVERY CENTER-MOBILE,"1895 VETERANS PARK DR NAPLES , FL 34109",-9104114.101366963,3032306.166965081
GOLDEN GATE COMMUNITY CENTER (MOBILE),4701 GOLDEN GATE PARKWAY,NAPLES,34116,COLLIER,"-81.70279189,26.18423969",17R MJ 29775 96277,,,DISASTER RECOVERY CENTER-MOBILE,"4701 GOLDEN GATE PARKWAY NAPLES , FL 34116",-9095113.18988188,3021917.769325887
COLLIER-IMMOKALEE COMMUNITY CENTER (MOBILE),321 N. 1ST ST,IMMOKALEE,34142,COLLIER,"-81.41942870,26.42313850",17R MK 58175 22613,,,DISASTER RECOVERY CENTER-MOBILE,"321 N. 1ST ST IMMOKALEE , FL 34142",-9063569.343551818,3051583.5495390906
EAST NAPLES COMMUNITY PARK,3500 THOMASSON DRIVE,NAPLES,34112,COLLIER,"-81.76268507,26.10743228",17R MJ 23740 87804,,0,DISASTER RECOVERY CENTER-MOBILE,"3500 THOMASSON DRIVE NAPLES , FL 34112",-9101780.467457473,3012392.9865418454
VINEYARDS COMMUNITY PARK,6231 ARBOR BOULEVARD,NAPLES,34119,COLLIER,"-81.73493870,26.23827336",17R MK 26596 02279,COUNTY,80708185001,DISASTER RECOVERY CENTER-MOBILE,"6231 ARBOR BOULEVARD NAPLES , FL 34119",-9098691.756001322,3028622.173638307
DESOTO COUNTY FAMILY SERVICE CENTER,310 W WHIDDEN ST,ARCADIA,34266,DESOTO,"-81.86242950,27.22056264",17R ML 14599 11158,,,DISASTER RECOVERY CENTER-MOBILE,"310 W WHIDDEN ST ARCADIA , FL 34266",-9112883.96711178,3151055.265274424
DESOTO COUNTY PUBLIC LIBRARY (PRIMARY),125 N HILLSBOROUGH AVE,ARCADIA,34266,DESOTO,"-81.85667482,27.21574220",17R ML 15165 10621,,,DISASTER RECOVERY CENTER-MOBILE,"125 N HILLSBOROUGH AVE ARCADIA , FL 34266",-9112243.359474564,3150451.8400511616
DESOTO COUNTY LIBRARY (MOBILE),125 N HILLSBOROUGH AVE,ARCADIA,34266,DESOTO,"-81.85657460,27.21601400",17R ML 15175 10651,,,DISASTER RECOVERY CENTER-MOBILE,"125 N HILLSBOROUGH AVE ARCADIA , FL 34266",-9112232.20258389,3150485.862976734
DESOTO CO. FAIR GROUNDS/RODEO GROUNDS,120 HEARD ST.,ARCADIA,34266,DESOTO,"-81.86102386,27.20692855",17R ML 14728 09647,,36-37-24-0014-00C0-0170,DISASTER RECOVERY CENTER-MOBILE,"120 HEARD ST. ARCADIA , FL 34266",-9112727.492195731,3149348.609804391
FOODLAND PARKING LOT,16702 SE US HWY 19,CROSS CITY,32628,DIXIE,"-83.12387812,29.63337070",17R KN 94383 80045,,091012221500010010,DISASTER RECOVERY CENTER-MOBILE,"16702 SE US HWY 19 CROSS CITY , FL 32628",-9253307.785439845,3456509.5834682034
TRAIL RIDERS BUILDING (MOBILE),294 NE 241 ST,CROSS CITY,32628,DIXIE,"-83.10676288,29.62766275",17R KN 96029 79382,,,DISASTER RECOVERY CENTER-MOBILE,"294 NE 241 ST CROSS CITY , FL 32628",-9251402.52506783,3455778.587183016
LUMBER YEARD PARKING LOT,63 NE 132ND AVE,CROSS CITY,32628,DIXIE,"-83.09470658,29.61778774",17R KN 97177 78267,,,DISASTER RECOVERY CENTER-MOBILE,"63 NE 132ND AVE CROSS CITY , FL 32628",-9250060.423721211,3454514.0256640334
JOHNSON FAMILY YMCA (MOBILE),5700 CLEVELAND RD,JACKSONVILLE,32209,DUVAL,"-81.71213883,30.37166257",17R MP 31572 60184,,,DISASTER RECOVERY CENTER-MOBILE,"5700 CLEVELAND RD JACKSONVILLE , FL 32209",-9096153.685733596,3551413.6216457696
"1516 ATLANTIC BLVD., JACKSONVILLE, FL 32207 (MOBILE)",1516 ATLANTIC BLVD,JACKSONVILLE,32207,DUVAL,"-81.65265155,30.30505373",17R MP 37246 52768,,,DISASTER RECOVERY CENTER-MOBILE,"1516 ATLANTIC BLVD JACKSONVILLE , FL 32207",-9089531.592803428,3542822.2326161945
LEONARD ABESS PARK (PRIMARY),12743 ABESS BLVD,JACKSONVILLE,32225,DUVAL,"-81.47453297,30.32270262",17R MP 54380 54639,COUNTY,1652650820R,DISASTER RECOVERY CENTER-MOBILE,"12743 ABESS BLVD JACKSONVILLE , FL 32225",-9069703.523361934,3545098.065316431
CHARLES ?BOOBIE? CLARK CENTER AND PLAYGROUND (PRIMARY),8793 SIBBALD RD,JACKSONVILLE,32208,DUVAL,"-81.72896711,30.39831453",17R MP 29974 63148,COUNTY,0382600010R,DISASTER RECOVERY CENTER-MOBILE,"8793 SIBBALD RD JACKSONVILLE , FL 32208",-9098027.001851317,3554852.9015842034
JULIAN W. BARRS CENTER AT CRYSTAL SPRINGS PARK (PRIMARY),10151 CRYSTAL SPRINGS RD,JACKSONVILLE,32221,DUVAL,"-81.82539677,30.30258497",17R MP 20633 52603,COUNTY,0088760000R,DISASTER RECOVERY CENTER-MOBILE,"10151 CRYSTAL SPRINGS RD JACKSONVILLE , FL 32221",-9108761.502584936,3542503.917638527
FLORIDA STATE COLLEGE AT JACKSONVILLE - KENT CAMPUS (CONFERENCE ROOM F128B) (MOBILE),3949 ROOSEVELT BLVD,JACKSONVILLE,32205,DUVAL,"-81.71832864,30.30121997",17R MP 30928 52382,STATE,0653790000R,DISASTER RECOVERY CENTER-MOBILE,"3949 ROOSEVELT BLVD JACKSONVILLE , FL 32205",-9096842.732339174,3542327.9218216403
MAYFAIR COMMUNITY CENTER,50 S MADISON DR,PENSACOLA,32505,ESCAMBIA,"-87.27681181,30.44128066",16R DU 73421 67717,,,DISASTER RECOVERY CENTER-MOBILE,"50 S MADISON DR PENSACOLA , FL 32505",-9715610.248899864,3560399.4089394007
SHOWALTER PARK,7890 KELLY FIELD RD,CENTURY,32535,ESCAMBIA,"-87.25794333,30.97614733",16R DV 75369 26987,,,DISASTER RECOVERY CENTER-MOBILE,"7890 KELLY FIELD RD CENTURY , FL 32535",-9713509.818897717,3629651.807544237
DORRIE MILLER COMMUNITY CENTER,2819 N MILLER ST,PENSACOLA,32503,ESCAMBIA,"-87.22035310,30.44089188",16R DU 78842 67662,,,DISASTER RECOVERY CENTER-MOBILE,"2819 N MILLER ST PENSACOLA , FL 32503",-9709325.294375751,3560349.20976759
BYRNEVILLE COMMUNITY CENTER,1701 HIGHWAY 4A,CENTURY,32535,ESCAMBIA,"-87.32786535,30.96659567",16R DV 68689 25946,,,DISASTER RECOVERY CENTER-MOBILE,"1701 HIGHWAY 4A CENTURY , FL 32535",-9721293.503053617,3628411.714222828
R.L. KING PARK/BAYOU PARK,7705 LENORA ST,PENSACOLA,32526,ESCAMBIA,"-87.31498444,30.43897423",16R DU 69755 67471,,,DISASTER RECOVERY CENTER-MOBILE,"7705 LENORA ST PENSACOLA , FL 32526",-9719859.606666941,3560101.6089739976
QUINTETTE COMMUNITY CENTER,2490 QUINTETTE LN,CANTONMENT,32533,ESCAMBIA,"-87.32515293,30.65606155",16R DU 68848 91531,,,DISASTER RECOVERY CENTER-MOBILE,"2490 QUINTETTE LN CANTONMENT , FL 32533",-9720991.557782128,3588162.282803237
MYRTLE GROVE ATHLETIC PARK,99 N 61ST AVE,PENSACOLA,32506,ESCAMBIA,"-87.29802471,30.40988469",16R DU 71375 64243,,,DISASTER RECOVERY CENTER-MOBILE,"99 N 61ST AVE PENSACOLA , FL 32506",-9717971.658060366,3556346.256461151
ASHTON BROSNAHAM,10370 ASHTON BRONAHAM DIRVE,PENSACOLA, ,ESCAMBIA,"-87.27142322,30.55622822",16R DU 73969 80453,,,DISASTER RECOVERY CENTER-MOBILE,"10370 ASHTON BRONAHAM DIRVE PENSACOLA , FL  ",-9715010.393861072,3575250.047870639
REGENCY PARK,8245 FATHOM RD,PENSACOLA,32514,ESCAMBIA,"-87.17675753,30.51013568",16R DU 83040 75328,,,DISASTER RECOVERY CENTER-MOBILE,"8245 FATHOM RD PENSACOLA , FL 32514",-9704472.257207217,3569293.0186547437
CARVER PARK,208 WEBB ST,CANTONMENT,32533,ESCAMBIA,"-87.32999024,30.60517392",16R DU 68368 85893,,,DISASTER RECOVERY CENTER-MOBILE,"208 WEBB ST CANTONMENT , FL 32533",-9721530.04445065,3581578.9200247973
RAYMOND RIDDLES PARK,1704 N W ST,PENSACOLA,32505,ESCAMBIA,"-87.24789039,30.42894889",16R DU 76195 66344,,,DISASTER RECOVERY CENTER-MOBILE,"1704 N W ST PENSACOLA , FL 32505",-9712390.730711287,3558807.247699401
LEXINGTON CENTER COMMUNITY CENTER,700 S OLD CORRY FIELD RD,PENSACOLA,32507,ESCAMBIA,"-87.27111020,30.39811287",16R DU 73957 62932,,,DISASTER RECOVERY CENTER-MOBILE,"700 S OLD CORRY FIELD RD PENSACOLA , FL 32507",-9714975.548585268,3554826.875404875
BELLVIEW ATHLETIC PARK,2750 LONGLEAF DR,PENSACOLA,32526,ESCAMBIA,"-87.30141838,30.48760002",16R DU 71072 72856,,,DISASTER RECOVERY CENTER-MOBILE,"2750 LONGLEAF DR PENSACOLA , FL 32526",-9718349.439251533,3566381.52403181
FLAGLER COUNTY PUBLIC LIBRARY (MOBILE),2500 PALM COAST PKWY NW,PALM COAST,32137,FLAGLER,"-81.23814220,29.55414811",17R MN 76929 69406,,,DISASTER RECOVERY CENTER-MOBILE,"2500 PALM COAST PKWY NW PALM COAST , FL 32137",-9043388.622620793,3446367.519486644
FRANKLIN COUNTY SENIOR CENTER,201 NW AVE F,CARRABELLE,32322,FRANKLIN,"-84.66591621,29.85739518",16R GU 25469 05270,,20-07S-04W-4230-0F07-0030,DISASTER RECOVERY CENTER-MOBILE,"201 NW AVE F CARRABELLE , FL 32322",-9424966.679785062,3485232.46281514
D. W. WILSON SPORTS COMPLEX,100 GIBSON RD,APALACHICOLA,32320,FRANKLIN,"-85.01594695,29.73001894",16R FT 91892 90517,,,DISASTER RECOVERY CENTER-MOBILE,"100 GIBSON RD APALACHICOLA , FL 32320",-9463931.923564928,3468893.2877911245
"CHILLIS HALL, LANARK VILLAGE",156-A HEFFERNAN DR,CARRABELLE,32322,FRANKLIN,"-84.59480425,29.88467743",16R GU 32277 08436,MUNICIPAL,12-07S-04W-3141-0006-0150,DISASTER RECOVERY CENTER-MOBILE,"156-A HEFFERNAN DR CARRABELLE , FL 32322",-9417050.532668011,3488734.7984094736
"CHILLIS HALL, LANARK VILLAGE",156-A HEFFERNAN DR,CARRABELLE,32322,FRANKLIN,"-84.59480425,29.88467743",16R GU 32277 08436,MUNICIPAL,12-07S-04W-3141-0006-0150,DISASTER RECOVERY CENTER-MOBILE,"156-A HEFFERNAN DR CARRABELLE , FL 32322",-9417050.532668011,3488734.7984094736
"CHILLIS HALL, LANARK VILLAGE",156-A HEFFERNAN DR,CARRABELLE,32322,FRANKLIN,"-84.59480425,29.88467743",16R GU 32277 08436,MUNICIPAL,12-07S-04W-3141-0006-0150,DISASTER RECOVERY CENTER-MOBILE,"156-A HEFFERNAN DR CARRABELLE , FL 32322",-9417050.532668011,3488734.7984094736
OLD TRAIN STATION,390 N MAIN ST,TRENTON,32693,GILCHRIST,"-82.81798798,29.61564675",17R LN 23972 77577,COUNTY, ,DISASTER RECOVERY CENTER-MOBILE,"390 N MAIN ST TRENTON , FL 32693",-9219256.249961304,3454239.8742347565
"105 NE 11TH AVE TRENTON, FL 32693 (MOBILE)",105 NE 11TH AVE,TRENTON,32693,GILCHRIST,"-82.81810926,29.62114033",17R LN 23970 78186,COUNTY,09-10-15-0000-0009-0000,DISASTER RECOVERY CENTER-MOBILE,"105 NE 11TH AVE TRENTON , FL 32693",-9219269.751580037,3454943.33339955
GILCHRIST AGRICULTURE COMPLEX,4050 S. US HWY 129,BELL,32619,GILCHRIST,"-82.85536531,29.67797259",17R LN 20463 84542,,,DISASTER RECOVERY CENTER-MOBILE,"4050 S. US HWY 129 BELL , FL 32619",-9223417.075814502,3462223.020757803
FLORIDA STATE FARMERS MARKET,830 TRENTON BLVD,TRENTON,32693,GILCHRIST,"-82.80783691,29.62633468",17R LN 24973 78746,,,DISASTER RECOVERY CENTER-MOBILE,"830 TRENTON BLVD TRENTON , FL 32693",-9218126.238332303,3455608.5106408377
GLADES COUNTY HEALTH DEPARTMENT (MOBILE),1021 HEALTH PARK DR.,MOORE HAVEN,33471,GLADES,"-81.12429745,26.84021744",17R MK 87650 68744,,,DISASTER RECOVERY CENTER-MOBILE,"1021 HEALTH PARK DR. MOORE HAVEN , FL 33471",-9030715.483232327,3103523.1730857445
GULF COUNTY PUBLIC LIBRARY,110 LIBRARY DR,PORT SAINT JOE,32456,GULF,"-85.28904425,29.81542997",16R FT 65334 99561,COUNTY,04589-000R,DISASTER RECOVERY CENTER-MOBILE,"110 LIBRARY DR PORT SAINT JOE , FL 32456",-9494332.976062179,3479847.0803949037
GULF COUNTY PUBLIC LIBRARY,110 LIBRARY DR,PORT SAINT JOE,32456,GULF,"-85.28904425,29.81542997",16R FT 65334 99561,COUNTY,04589-000R,DISASTER RECOVERY CENTER-MOBILE,"110 LIBRARY DR PORT SAINT JOE , FL 32456",-9494332.976062179,3479847.0803949037
GULF COUNTY PUBLIC LIBRARY,110 LIBRARY DR,PORT SAINT JOE,32456,GULF,"-85.28904425,29.81542997",16R FT 65334 99561,COUNTY,04589-000R,DISASTER RECOVERY CENTER-MOBILE,"110 LIBRARY DR PORT SAINT JOE , FL 32456",-9494332.976062179,3479847.0803949037
OLD GULF COUNTY COURTHOUSE,222 N 2ND ST,WEWAHITCHKA,32465,GULF,"-85.19848439,30.11515309",16R FU 73565 32914,COUNTY,02105-000R,DISASTER RECOVERY CENTER-MOBILE,"222 N 2ND ST WEWAHITCHKA , FL 32465",-9484251.899177691,3518360.303631145
CITY OF WEWAHITCHKA CITY HALL,109 S 2ND ST,WEWAHITCHKA,32465,GULF,"-85.19912626,30.11289904",16R FU 73507 32663,MUNICIPAL,02008-000R,DISASTER RECOVERY CENTER-MOBILE,"109 S 2ND ST WEWAHITCHKA , FL 32465",-9484323.351683483,3518070.232782638
CITY OF PORT ST. JOE CITY HALL,410 WILLIAMS AVE,PORT SAINT JOE,32456,GULF,"-85.30203054,29.81257143",16R FT 64084 99226,MUNICIPAL,04806-000R,DISASTER RECOVERY CENTER-MOBILE,"410 WILLIAMS AVE PORT SAINT JOE , FL 32456",-9495778.603805605,3479480.3280518563
WHITE SPRINGS BALL PARK,ADAMS MEMORIAL CIR & SPRING ST,WHITE SPRINGS,32096,HAMILTON,"-82.74939818,30.32825368",17R LP 31819 56456,,,DISASTER RECOVERY CENTER-MOBILE,"ADAMS MEMORIAL CIR & SPRING ST WHITE SPRINGS , FL 32096",-9211620.86872068,3545813.962349911
JENNINGS LANDING ZONE FIELD,1400 HAMILTON AVE,JENNINGS,32053,HAMILTON,"-83.10515389,30.60056858",17R KP 98174 87224,,7192-000,DISASTER RECOVERY CENTER-MOBILE,"1400 HAMILTON AVE JENNINGS , FL 32053",-9251223.413511788,3580983.294880661
PIONEER PARK RECREATION HALL (MOBILE),2828 PIONEER BLVD.,ZOLFO SPRINGS,33890,HARDEE,"-81.80090989,27.50142509",17R ML 20891 42229,,,DISASTER RECOVERY CENTER-MOBILE,"2828 PIONEER BLVD. ZOLFO SPRINGS , FL 33890",-9106035.635609947,3186259.0830918383
PIONEER PARK RECREATION HALL (MOBILE),2828 PIONEER BLVD.,ZOLFO SPRINGS,33890,HARDEE,"-81.79990048,27.50093471",17R ML 20990 42175,,,DISASTER RECOVERY CENTER-MOBILE,"2828 PIONEER BLVD. ZOLFO SPRINGS , FL 33890",-9105923.268891996,3186197.5394150447
JOHN BOY AUDITORIUM - THE BEARDSLEY ROOM (MOBILE),100 SUGARLAND PARK DR,CLEWISTON, ,HENDRY,"-80.93347338,26.74156800",17R NK 06615 57813,,,DISASTER RECOVERY CENTER-MOBILE,"100 SUGARLAND PARK DR CLEWISTON , FL  ",-9009473.044900062,3091221.0214864556
"4425 W STATE ROAD 80 LABELLE, FL 33935 (MOBILE)",4425 W STATE ROAD 80,LABELLE,33935,HENDRY,"-81.50948824,26.70953052",17R MK 49321 54365,,,DISASTER RECOVERY CENTER-MOBILE,"4425 W STATE ROAD 80 LABELLE , FL 33935",-9073594.725537755,3087228.061393758
RIDGE MANOR COMMUNITY CENTER,34240 CORTEZ BLVD,DADE CITY,33523,HERNANDO,"-82.17918954,28.50735732",17R LM 84602 53973,,R11 123 21 0580 0000 00A0,DISASTER RECOVERY CENTER-MOBILE,"34240 CORTEZ BLVD DADE CITY , FL 33523",-9148145.533588782,3313091.84114448
WALMART 3526,7305 BROAD ST,BROOKSVILLE,34601,HERNANDO,"-82.40737479,28.53703799",17R LM 62307 57503,,R28 222 19 1541 0000 0010,DISASTER RECOVERY CENTER-MOBILE,"7305 BROAD ST BROOKSVILLE , FL 34601",-9173546.999722952,3316852.2743153735
MASARYKTOWN POST OFFICE,1399 BROAD ST,BROOKSVILLE,34604,HERNANDO,"-82.45760071,28.44235871",17R LM 57266 47071,,R36 223 18 2690 0210 0010,DISASTER RECOVERY CENTER-MOBILE,"1399 BROAD ST BROOKSVILLE , FL 34604",-9179138.123581193,3304860.447761172
HERNANDO COUNTY MINING ASSOCIATION ENRICHMENT CENTER (MOBILE),800 JOHN GARY GRUBBS BLVD,BROOKSVILLE,34601,HERNANDO,"-82.40037978,28.54982342",17R LM 63008 58911,MUNICIPAL,R21 422 19 0000 0250 0000,DISASTER RECOVERY CENTER-MOBILE,"800 JOHN GARY GRUBBS BLVD BROOKSVILLE , FL 34601",-9172768.318186155,3318472.467856124
HIGHLANDS AGRICIVIC CENTER,4509 WEST GEORGE BLVD,SEBRING,33875,HIGHLANDS,"-81.42117181,27.44147374",17R ML 58377 35404,COUNTY,C093529A0001610000,DISASTER RECOVERY CENTER-MOBILE,"4509 WEST GEORGE BLVD SEBRING , FL 33875",-9063763.3855387,3178737.1628850745
NORTHDALE RECREATION CENTER,15550 SPRING PINE DRIVE,TAMPA,33624,HILLSBOROUGH,"-82.50726100,28.09380400",17R LM 51921 08510,COUNTY,182733ZZZ000000719200U,DISASTER RECOVERY CENTER-MOBILE,"15550 SPRING PINE DRIVE TAMPA , FL 33624",-9184666.28125626,3260805.4837240707
SANSONE PARK,1702 N PARK RD,PLANT CITY,33563,HILLSBOROUGH,"-82.10203041,28.03065050",17R LM 91672 01087,MUNICIPAL,222822ZZZ000006032500P,DISASTER RECOVERY CENTER-MOBILE,"1702 N PARK RD PLANT CITY , FL 33563",-9139556.218487881,3252838.6666938444
SOUTH SHORE REGIONAL SERVICE CENTER,410 30TH ST SE,RUSKIN,33570,HILLSBOROUGH,"-82.39295535,27.71643238",17R LL 62676 66567,,,DISASTER RECOVERY CENTER-MOBILE,"410 30TH ST SE RUSKIN , FL 33570",-9171941.834858874,3213269.2123658224
NEW HOPE VFD,1243 HWY 179A,WESTVILLE,32464,HOLMES,"-85.87681756,30.95261882",16R FV 07282 24891,,1206.00-000-000-008.000,DISASTER RECOVERY CENTER-MOBILE,"1243 HWY 179A WESTVILLE , FL 32464",-9559763.601633323,3626597.3224461637
INDIAN RIVER STATE COLLEGE - BRACKETT LIBRARY (MOBILE),6155 COLLEGE LN,VERO BEACH,32966,INDIAN RIVER,"-80.45745654,27.63449430",17R NL 53523 56832,,,DISASTER RECOVERY CENTER-MOBILE,"6155 COLLEGE LN VERO BEACH , FL 32966",-8956483.092156358,3202969.548827441
SOUTH COUNTY REGIONAL PARK,800 20TH AVE. SW,VERO BEACH,32962,INDIAN RIVER,"-80.40457800,27.59135799",17R NL 58763 52077,COUNTY,33392300001010000001.0,DISASTER RECOVERY CENTER-MOBILE,"800 20TH AVE. SW VERO BEACH , FL 32962",-8950596.680280643,3197550.3887944794
JEFFERSON COUNTY RECREATION PARK,1380 MAMIE SCOTT DR,MONTICELLO,32344,JEFFERSON,"-83.86169933,30.55765415",17R KP 25496 84067,COUNTY,19-2N-5E-0000-0321-0000,DISASTER RECOVERY CENTER-MOBILE,"1380 MAMIE SCOTT DR MONTICELLO , FL 32344",-9335441.666311506,3575434.3817446968
LAFAYETTE COUNTY RESCUE,136 SE INDUSTRIAL AVE,MAYO,32066,LAFAYETTE,"-83.16554716,30.05243458",17R KP 91222 26572,COUNTY,130511003400A000060,DISASTER RECOVERY CENTER-MOBILE,"136 SE INDUSTRIAL AVE MAYO , FL 32066",-9257946.360878509,3510291.602323192
LAFAYETTE ELEMENTARY SCHOOL PARKING LOT,811 E MAIN ST,MAYO,32066,LAFAYETTE,"-83.16394540,30.05466296",17R KP 91382 26816,,,DISASTER RECOVERY CENTER-MOBILE,"811 E MAIN ST MAYO , FL 32066",-9257768.053870123,3510578.1945468057
LAFAYETTE COUNTY SPORTS COMPLEX,840 NE COUNTY ROAD 400,MAYO,32066,LAFAYETTE,"-83.16478698,30.06298972",17R KP 91318 27740,,1205110000000000209,DISASTER RECOVERY CENTER-MOBILE,"840 NE COUNTY ROAD 400 MAYO , FL 32066",-9257861.73843602,3511649.1569589614
HIGHLAND HUT (MOBILE),HIGHLAND HUT,330 3RD ST.,34711,LAKE,"-81.75999866,28.56021358",17R MM 25663 59498,,,DISASTER RECOVERY CENTER-MOBILE,"HIGHLAND HUT 330 3RD ST. , FL 34711",-9101481.418260911,3319789.273301204
PEAR PARK,5336 UNIVERSITY AVE,LEESBURG,34748,LAKE,"-81.86553836,28.72460786",17R MM 15472 77782,,,DISASTER RECOVERY CENTER-MOBILE,"5336 UNIVERSITY AVE LEESBURG , FL 34748",-9113230.044244934,3340641.261690664
HICKORY POINT RECREATIONAL FACILITY,107 N LAKE AVE,TAVARES,32778,LAKE,"-81.73692915,28.80278843",17R MM 28086 86359,,,DISASTER RECOVERY CENTER-MOBILE,"107 N LAKE AVE TAVARES , FL 32778",-9098913.33181454,3350569.285679496
LAKE COUNTY FAIRGROUNDS,2101 COUNTY ROAD 452,EUSTIS,32726,LAKE,"-81.69894808,28.87733416",17R MM 31841 94596,,,DISASTER RECOVERY CENTER-MOBILE,"2101 COUNTY ROAD 452 EUSTIS , FL 32726",-9094685.298700016,3360042.6668625693
LAKE LOUISA STATE PARK,7305 US HWY 27,CLERMONT,34714,LAKE,"-81.72421807,28.45558118",17R MM 29093 47884,,,DISASTER RECOVERY CENTER-MOBILE,"7305 US HWY 27 CLERMONT , FL 34714",-9097498.340517314,3306534.525389517
LAKE COUNTY COOPERATIVE EXTENSION SERVICE (MOBILE),1951 WOODLEA RD,TAVARES,32778,LAKE,"-81.74820822,28.78888206",17R MM 26975 84825,,,DISASTER RECOVERY CENTER-MOBILE,"1951 WOODLEA RD TAVARES , FL 32778",-9100168.912725288,3348802.795429639
EDISON STATE COLLEGE - LEE COUNTY CAMPUS,8099 COLLEGE PKWY,FORT MYERS,33919,LEE,"-81.88779198,26.55598336",17R MK 11572 37564,,,DISASTER RECOVERY CENTER-MOBILE,"8099 COLLEGE PKWY FORT MYERS , FL 33919",-9115707.305854479,3068106.419371338
LEHIGH ACRES COMMUNITY CENTER,1299 HOMESTEAD RD.,LEHIGH ACRES,33936,LEE,"-81.65217584,26.60799008",17R MK 35070 43183,COUNTY,31442705000090010,DISASTER RECOVERY CENTER-MOBILE,"1299 HOMESTEAD RD. LEHIGH ACRES , FL 33936",-9089478.636549598,3074580.0794142373
CEDAR KEY VFD,489 1ST ST,CEDAR KEY,32625,LEVY,"-83.03189709,29.13612043",17R LN 02331 24773,MUNICIPAL,,DISASTER RECOVERY CENTER-MOBILE,"489 1ST ST CEDAR KEY , FL 32625",-9243068.503966564,3392982.549118132
SUMATRA VFD,10598 SW 8TH ST,HOSFORD,32334,LIBERTY,"-84.97868919,30.02057425",16R FU 94930 22785,COUNTY,030-5S-7W-02172 002,DISASTER RECOVERY CENTER-MOBILE,"10598 SW 8TH ST HOSFORD , FL 32334",-9459784.408620713,3506194.7452033744
SUMATRA VFD,10598 SW 8TH ST,HOSFORD,32334,LIBERTY,"-84.97868919,30.02057425",16R FU 94930 22785,COUNTY,030-5S-7W-02172 002,DISASTER RECOVERY CENTER-MOBILE,"10598 SW 8TH ST HOSFORD , FL 32334",-9459784.408620713,3506194.7452033744
SUMATRA VFD,10598 SW 8TH ST,HOSFORD,32334,LIBERTY,"-84.97868919,30.02057425",16R FU 94930 22785,COUNTY,030-5S-7W-02172 002,DISASTER RECOVERY CENTER-MOBILE,"10598 SW 8TH ST HOSFORD , FL 32334",-9459784.408620713,3506194.7452033744
WOODMEN OF THE WORLD (MUTUAL AIDE AGREEMENT [FREE]),22564 NE WOODMAN OF THE WORLD RD,HOSFORD,32334,LIBERTY,"-84.77721900,30.39552800",16R GU 13553 64710,,018-1S-5W-00106 000,DISASTER RECOVERY CENTER-MOBILE,"22564 NE WOODMAN OF THE WORLD RD HOSFORD , FL 32334",-9437356.849950729,3554493.272516999
LEE CITY HALL,286 NE COUNTY ROAD 255,LEE,32059,MADISON,"-83.29991707,30.42247169",17R KP 79094 67846,MUNICIPAL,02-1S-10-1046-002-000,DISASTER RECOVERY CENTER-MOBILE,"286 NE COUNTY ROAD 255 LEE , FL 32059",-9272904.351177515,3557971.0545896976
GREENVILLE CITY HALL,154 SW OLD MISSION AVE,GREENVILLE,32331,MADISON,"-83.63137664,30.46867625",17R KP 47367 73663,MUNICIPAL,00-00-00-2222-000-000,DISASTER RECOVERY CENTER-MOBILE,"154 SW OLD MISSION AVE GREENVILLE , FL 32331",-9309802.262327196,3563937.1874032067
DESOTO SQ. MALL WEST SIDE PARKING LOT,303 301 BLVD WEST,BRADENTON,34205,MANATEE,"-82.56736968,27.46756366",17R LL 45130 39201,,4921500106,DISASTER RECOVERY CENTER-MOBILE,"303 301 BLVD WEST BRADENTON , FL 34205",-9191357.548416758,3182010.0850681453
G.T. BRAY PARK (MOBILE),5502 33RD AVE DR. W.,BRADENTON,34209,MANATEE,"-82.61655054,27.47396123",17R LL 40279 39972,,,DISASTER RECOVERY CENTER-MOBILE,"5502 33RD AVE DR. W. BRADENTON , FL 34209",-9196832.3377252,3182812.7651164494
"BEALL'S/LOWE'S PARKING LOT, CREEKWOOD CROSSING SHOPPING PLAZA",7365 52ND PL EAST,BRADENTON,34203,MANATEE,"-82.46243191,27.44397915",17R LL 55469 36461,,1731605809,DISASTER RECOVERY CENTER-MOBILE,"7365 52ND PL EAST BRADENTON , FL 34203",-9179675.929963319,3179051.4273584993
CLOSED WINN-DIXIE SUPERMARKET PARKING LOT,1800 US301 NORTH,PALMETTO,34221,MANATEE,"-82.54686360,27.52200274",17R LL 47231 45207,,,DISASTER RECOVERY CENTER-MOBILE,"1800 US301 NORTH PALMETTO , FL 34221",-9189074.822004715,3188841.844096552
DESOTO SQUARE MALL - NEAR SEARS (MOBILE),303 US 301 BLVD W,BRADENTON,34205,MANATEE,"-82.56535410,27.46432532",17R LL 45324 38839,,,DISASTER RECOVERY CENTER-MOBILE,"303 US 301 BLVD W BRADENTON , FL 34205",-9191133.175365385,3181603.80040299
OCALA ROTARY SPORTSPLEX,5220 SE MARICAMP RD,OCALA,34480,MARION,"-82.06299064,29.14032988",17R LN 96601 24000,,,DISASTER RECOVERY CENTER-MOBILE,"5220 SE MARICAMP RD OCALA , FL 34480",-9135210.331331711,3393519.037778358
MCPHERSON COMPLEX,601 SE 25TH AVE,OCALA,34471,MARION,"-82.10273043,29.18236839",17R LN 92779 28693,,,DISASTER RECOVERY CENTER-MOBILE,"601 SE 25TH AVE OCALA , FL 34471",-9139634.144319706,3398877.9840574698
SOUTHEASTERN LIVESTOCK PAVILION,2200 NE JACKSONVILLE RD,OCALA,34470,MARION,"-82.13175752,29.20975822",17R LN 89986 31755,,,DISASTER RECOVERY CENTER-MOBILE,"2200 NE JACKSONVILLE RD OCALA , FL 34470",-9142865.425038248,3402370.741403621
WRIGLEY FIELDS,401 E COUNTY ROAD 316,CITRA,32113,MARION,"-82.13329873,29.36820977",17R LN 90006 49314,COUNTY,07619-000-00,DISASTER RECOVERY CENTER-MOBILE,"401 E COUNTY ROAD 316 CITRA , FL 32113",-9143036.992309807,3422594.8826280255
MARION COUNTY PUBLIC LIBRARY (MOBILE),2720 NE SILVER SPRINGS BLVD,OCALA,34470,MARION,"-82.09980250,29.18713142",17R LN 93069 29218,COUNTY,29509-000-18,DISASTER RECOVERY CENTER-MOBILE,"2720 NE SILVER SPRINGS BLVD OCALA , FL 34470",-9139308.208527599,3399485.29914793
DUNNELLON AIRPORT,10575 SW 147TH CIR,DUNNELLON,34432,MARION,"-82.37020853,29.06160285",17R LN 66614 15585,COUNTY,34801-000-00,DISASTER RECOVERY CENTER-MOBILE,"10575 SW 147TH CIR DUNNELLON , FL 34432",-9169409.670427844,3383489.0358521505
OCALA REGIONAL SPORTSPLEX,3500 SW 67TH AVE,OCALA,34474,MARION,"-82.23163573,29.15278606",17R LN 80210 25540,MUNICIPAL,23820-007-00,DISASTER RECOVERY CENTER-MOBILE,"3500 SW 67TH AVE OCALA , FL 34474",-9153983.81708515,3395106.6862338865
OCALA INTERNATIONAL AIRPORT,1770 SW 60TH AVE,OCALA,34474,MARION,"-82.22072919,29.17196503",17R LN 81293 27654,MUNICIPAL,23320-000-00,DISASTER RECOVERY CENTER-MOBILE,"1770 SW 60TH AVE OCALA , FL 34474",-9152769.706206188,3397551.589239933
OCALA INTERNATIONAL AIRPORT,1770 SW 60TH AVE,OCALA,34474,MARION,"-82.22072919,29.17196503",17R LN 81293 27654,MUNICIPAL,23320-000-00,DISASTER RECOVERY CENTER-MOBILE,"1770 SW 60TH AVE OCALA , FL 34474",-9152769.706206188,3397551.589239933
OCALA INTERNATIONAL AIRPORT,1770 SW 60TH AVE,OCALA,34474,MARION,"-82.22072919,29.17196503",17R LN 81293 27654,MUNICIPAL,23320-000-00,DISASTER RECOVERY CENTER-MOBILE,"1770 SW 60TH AVE OCALA , FL 34474",-9152769.706206188,3397551.589239933
SOUTH COUNTY BALL PARK,10000 SE DIXIE HWY,HOBE SOUND,33455,MARTIN,"-80.14490090,27.08118290",17R NK 84779 95715,COUNTY,343842000099000003,DISASTER RECOVERY CENTER-MOBILE,"10000 SE DIXIE HWY HOBE SOUND , FL 33455",-8921689.557949979,3133618.146545486
LANGFORD PARK,2151 NE DIXIE HWY,JENSEN BEACH,34957,MARTIN,"-80.22136100,27.22423500",17R NL 77100 11511,COUNTY,273741000000001801,DISASTER RECOVERY CENTER-MOBILE,"2151 NE DIXIE HWY JENSEN BEACH , FL 34957",-8930201.057248503,3151514.990394961
MARTIN COUNTY FAIRGROUNDS (MOBILE),2616 SE DIXIE HWY,STUART,34996,MARTIN,"-80.22704694,27.17253112",17R NL 76572 05780,,,DISASTER RECOVERY CENTER-MOBILE,"2616 SE DIXIE HWY STUART , FL 34996",-8930834.013230074,3145043.8186982935
ELISABETH LAHTI LIBRARY,15200 SW ADAMS AVE,INDIANTOWN,34956,MARTIN,"-80.46673731,27.02153083",17R NK 52898 88931,,,DISASTER RECOVERY CENTER-MOBILE,"15200 SW ADAMS AVE INDIANTOWN , FL 34956",-8957516.223576428,3126161.999555773
CITY OF STUART (NEAR OLD AMERICAN LEGION BUILDING),W STYPMANN BLVD,STUART,34994,MARTIN,"-80.24751716,27.19571129",17R NL 74529 08336,,,DISASTER RECOVERY CENTER-MOBILE,"W STYPMANN BLVD STUART , FL 34994",-8933112.747170586,3147944.6395448893
ORANGE BOWL STADIUM,1501 NW 3RD ST,MIAMI,33125,MIAMI-DADE,"-80.22056219,25.77664119",17R NJ 78152 51179,,0141020860040,DISASTER RECOVERY CENTER-MOBILE,"1501 NW 3RD ST MIAMI , FL 33125",-8930112.134104269,2971443.1941836425
CITY OF HOMESTEAD CITY HALL (MOBILE),650 NE 22 TER,HOMESTEAD,33033,MIAMI-DADE,"-80.44633928,25.47640521",17R NJ 55652 17816,,,DISASTER RECOVERY CENTER-MOBILE,"650 NE 22 TER HOMESTEAD , FL 33033",-8955245.524962144,2934374.682538672
SOUTH DADE GOVERNMENT CENTER,10710 SW 211 STREET,MIAMI,33189,MIAMI-DADE,"-80.36409484,25.57123097",17R NJ 63869 28354,,,DISASTER RECOVERY CENTER-MOBILE,"10710 SW 211 STREET MIAMI , FL 33189",-8946090.11548671,2946072.2488764245
MILANDER PARK,4700 PALM AVE,HIALEAH,33012,MIAMI-DADE,"-80.28525082,25.86462361",17R NJ 71613 60886,,,DISASTER RECOVERY CENTER-MOBILE,"4700 PALM AVE HIALEAH , FL 33012",-8937313.239502743,2982323.635370668
MARATHON CITY PARK (MOBILE),3911 OVERSEAS HIGHWAY,MARATHON,33050,MONROE,,,,,DISASTER RECOVERY CENTER-MOBILE,"3911 OVERSEAS HIGHWAY MARATHON , FL 33050",-9026792.924725313,2840397.8943351246
"616 SIMONTON ST., KEY WEST, FL 33050 (MOBILE)",616 SIMONTON ST,KEY WEST,33050,MONROE,"-81.80036001,24.55495749",17R MH 18945 15905,,,DISASTER RECOVERY CENTER-MOBILE,"616 SIMONTON ST KEY WEST , FL 33050",-9105974.423167853,2821179.3896602676
BIG PINE KEY COMMUNITY PARK (MOBILE),31009 ATLANTIS DR,BIG PINE KEY,33043,MONROE,"-81.34765270,24.67780212",17R MH 64827 29316,,,DISASTER RECOVERY CENTER-MOBILE,"31009 ATLANTIS DR BIG PINE KEY , FL 33043",-9055579.275401864,2836221.4631484277
ISLAMORADA FIRE STATION 20 (MOBILE),81850 OVERSEAS HWY,ISLAMORADA,33036,MONROE,"-80.63626191,24.91770924",17R NH 36729 55884,MUNICIPAL,3263 37 00095080000000,DISASTER RECOVERY CENTER-MOBILE,"81850 OVERSEAS HWY ISLAMORADA , FL 33036",-8976387.615606716,2865640.4381680884
NASSAU COUNTY SHERIFF'S OFFICE (MOBILE),76001 BOBBY MOORE CIR.,YULEE,32097,NASSAU,"-81.63510616,30.62241858",17R MP 39130 87929,COUNTY,44-2N-27-0000-0001-0110,DISASTER RECOVERY CENTER-MOBILE,"76001 BOBBY MOORE CIR. YULEE , FL 32097",-9087578.448366841,3583809.4842482423
LOWE'S,474283 E STATE ROAD 200,FERNANDINA BEACH,32034,NASSAU,"-81.51871762,30.61927870",17R MP 50284 87524,,,DISASTER RECOVERY CENTER-MOBILE,"474283 E STATE ROAD 200 FERNANDINA BEACH , FL 32034",-9074622.135080475,3583403.3161847056
TARGET,463737 STATE ROAD 200,YULEE,32097,NASSAU,"-81.55362332,30.62919446",17R MP 46943 88639,,,DISASTER RECOVERY CENTER-MOBILE,"463737 STATE ROAD 200 YULEE , FL 32097",-9078507.81991033,3584686.0394430542
BLUEWATER ELEMENTARY SCHOOL,4545 RANGE RD,NICEVILLE,32578,OKALOOSA,"-86.41853504,30.48980828",16R EU 55803 73205,COUNTY,14-1S-22-0000-0002-0010,DISASTER RECOVERY CENTER-MOBILE,"4545 RANGE RD NICEVILLE , FL 32578",-9620067.315530306,3566666.7896523126
OKEECHOBEE AGRI-CIVIC CENTER,4200 HWY 70 EAST,OKEECHOBEE,34974,OKEECHOBEE,"-80.78401256,27.24955979",17R NL 21381 14095,COUNTY,1-13-37-35-0A00-00002-C000,DISASTER RECOVERY CENTER-MOBILE,"4200 HWY 70 EAST OKEECHOBEE , FL 34974",-8992835.142287353,3154685.694643119
OKEECHOBEE-AGRI CIVIC CENTER (MOBILE),4200 HWY 710 E,OKEECHOBEE,34972,OKEECHOBEE,"-80.78378200,27.23876100",17R NL 21406 12899,,,DISASTER RECOVERY CENTER-MOBILE,"4200 HWY 710 E OKEECHOBEE , FL 34972",-8992809.476629365,3153333.5810082513
BARNETT PARK,4801 W COLONIAL DR,ORLANDO,32808,ORANGE,"-81.44325865,28.55848646",17R MM 56644 59151,,,DISASTER RECOVERY CENTER-MOBILE,"4801 W COLONIAL DR ORLANDO , FL 32808",-9066222.081738738,3319570.376008842
ROSE PLACE PARK,8200 OLD WINTER GARDEN RD,ORLANDO,32835,ORANGE,"-81.49722000,28.53921900",17R MM 51357 57037,,282227000000002,DISASTER RECOVERY CENTER-MOBILE,"8200 OLD WINTER GARDEN RD ORLANDO , FL 32835",-9072229.031445747,3317128.642005958
GARDEN RIDGE,11100 E COLONAIL DR,ORLANDO,32825,ORANGE,"-81.22191000,28.56742000",17R MM 78296 60081,,312221000000024,DISASTER RECOVERY CENTER-MOBILE,"11100 E COLONAIL DR ORLANDO , FL 32825",-9041581.662408201,3320702.6614951617
FORT CHRISTMAS PARK,1300 FT CHRISTAMS RD,CHRISTMAS,32709,ORANGE,"-81.02180904,28.56177078",17R MM 97866 59435,COUNTY,332221000000012,DISASTER RECOVERY CENTER-MOBILE,"1300 FT CHRISTAMS RD CHRISTMAS , FL 32709",-9019306.525558075,3319986.637412891
DOWNEY PARK,10107 FLOWERS AVE,ORLANDO,32825,ORANGE,"-81.24438076,28.56611618",17R MM 76098 59940,COUNTY,312220000000001,DISASTER RECOVERY CENTER-MOBILE,"10107 FLOWERS AVE ORLANDO , FL 32825",-9044083.096172383,3320537.402531208
WILLOW STREET COMMUNITY CENTER,6565 WILLOW ST.,MOUNT DORA,32757,ORANGE,"-81.61949900,28.73786900",17R MM 39508 79101,COUNTY,272021000000049,DISASTER RECOVERY CENTER-MOBILE,"6565 WILLOW ST. MOUNT DORA , FL 32757",-9085841.067523578,3342324.7493546163
FORT CHRISTMAS PARK,1300 FT CHRISTAMS RD,CHRISTMAS,32709,ORANGE,"-81.02180904,28.56177078",17R MM 97866 59435,COUNTY,332221000000012,DISASTER RECOVERY CENTER-MOBILE,"1300 FT CHRISTAMS RD CHRISTMAS , FL 32709",-9019306.525558075,3319986.637412891
DOWNEY PARK,10107 FLOWERS AVE,ORLANDO,32825,ORANGE,"-81.24438076,28.56611618",17R MM 76098 59940,COUNTY,312220000000001,DISASTER RECOVERY CENTER-MOBILE,"10107 FLOWERS AVE ORLANDO , FL 32825",-9044083.096172383,3320537.402531208
WEST OAKS MALL,9401 W COLONIAL DR,OCOEE,34761,ORANGE,"-81.51749900,28.55509900",17R MM 49380 58805,,282221914000020,DISASTER RECOVERY CENTER-MOBILE,"9401 W COLONIAL DR OCOEE , FL 34761",-9074486.479340449,3319141.05677259
GARDEN RIDGE,11100 E COLONAIL DR,ORLANDO,32825,ORANGE,"-81.22191000,28.56742000",17R MM 78296 60081,,312221000000024,DISASTER RECOVERY CENTER-MOBILE,"11100 E COLONAIL DR ORLANDO , FL 32825",-9041581.662408201,3320702.6614951617
GARDEN RIDGE,11100 E COLONAIL DR,ORLANDO,32825,ORANGE,"-81.22191000,28.56742000",17R MM 78296 60081,,312221000000024,DISASTER RECOVERY CENTER-MOBILE,"11100 E COLONAIL DR ORLANDO , FL 32825",-9041581.662408201,3320702.6614951617
FORT CHRISTMAS PARK,1300 FT CHRISTAMS RD,CHRISTMAS,32709,ORANGE,"-81.02180904,28.56177078",17R MM 97866 59435,COUNTY,332221000000012,DISASTER RECOVERY CENTER-MOBILE,"1300 FT CHRISTAMS RD CHRISTMAS , FL 32709",-9019306.525558075,3319986.637412891
ORANGE COUNTY CORRECTIONS (S. PARKING),3966 S JOHN YOUNG PKWY,ORLANDO,32839,ORANGE,"-81.41582825,28.50188438",17R MM 59305 52871,COUNTY,292309862000000,DISASTER RECOVERY CENTER-MOBILE,"3966 S JOHN YOUNG PKWY ORLANDO , FL 32839",-9063168.543565271,3312398.555831201
DOWNEY PARK,10107 FLOWERS AVE,ORLANDO,32825,ORANGE,"-81.24438076,28.56611618",17R MM 76098 59940,COUNTY,312220000000001,DISASTER RECOVERY CENTER-MOBILE,"10107 FLOWERS AVE ORLANDO , FL 32825",-9044083.096172383,3320537.402531208
TAFT COMMUNITY CENTER,9450 S ORANGE AVE,ORLANDO,32824,ORANGE,"-81.36982764,28.42960579",17R MM 63782 44849,COUNTY,292401851610600,DISASTER RECOVERY CENTER-MOBILE,"9450 S ORANGE AVE ORLANDO , FL 32824",-9058047.779330282,3303246.0169412517
ORLO VISTA PARK,1 N POWERS DR,ORLANDO,32835,ORANGE,"-81.46501452,28.54220542",17R MM 54509 57355,STATE,282225000000034,DISASTER RECOVERY CENTER-MOBILE,"1 N POWERS DR ORLANDO , FL 32835",-9068643.933834562,3317507.077564397
OSCEOLA HERITAGE PARK EXPO BUILDING (MOBILE),1901 CHIEF OSCEOLA RD,KISSIMMEE, ,OSCEOLA,"-81.36786691,28.29719298",17R MM 63929 30179,,,DISASTER RECOVERY CENTER-MOBILE,"1901 CHIEF OSCEOLA RD KISSIMMEE , FL  ",-9057829.51145339,3286494.9584686053
PALM BEACH COUNTY GLADES OFFICE BUILDING (MOBILE),2990 N MAIN ST,BELLE GLADE,33430,PALM BEACH,"-80.66651624,26.72532122",17R NK 33166 56056,STATE,00374320000003010,DISASTER RECOVERY CENTER-MOBILE,"2990 N MAIN ST BELLE GLADE , FL 33430",-8979755.511674475,3089195.979523504
GAINES PARK,1501 AUSTRALIAN AVE,WEST PALM BEACH,33401,PALM BEACH,"-80.07027267,26.72806123",17R NK 92466 56653,MUNICIPAL,74434316000003010,DISASTER RECOVERY CENTER-MOBILE,"1501 AUSTRALIAN AVE WEST PALM BEACH , FL 33401",-8913381.981483564,3089537.481847801
SUGAR SAND PARK,300 S MILITARY TRAIL,BOCA RATON,33486,PALM BEACH,"-80.12766535,26.34620087",17R NK 87045 14318,MUNICIPAL,06424725370020000,DISASTER RECOVERY CENTER-MOBILE,"300 S MILITARY TRAIL BOCA RATON , FL 33486",-8919770.905428177,3042022.9723716895
BOYNTON BEACH CIVIC CENTER,145 SE 2ND AVE,BOYNTON BEACH,33435,PALM BEACH,"-80.06288945,26.52574778",17R NK 93364 34250,MUNICIPAL,08434528050150020,DISASTER RECOVERY CENTER-MOBILE,"145 SE 2ND AVE BOYNTON BEACH , FL 33435",-8912560.084826887,3064344.1244535735
FASANO REGIONAL HURRICANE SHELTER (MOBILE),11611 DENTON AVE,HUDSON,34467,PASCO,"-82.62430475,28.39057203",17R LM 40862 41542,COUNTY,,DISASTER RECOVERY CENTER-MOBILE,"11611 DENTON AVE HUDSON , FL 34467",-9197695.53184925,3298305.8257381557
LAND O LAKES COMMUNITY CENTER,5401 LAND O LAKES BLVD,LAND O LAKES,34638,PASCO,"-82.46015900,28.23573900",17R LM 56738 24180,COUNTY,1826120000057000000,DISASTER RECOVERY CENTER-MOBILE,"5401 LAND O LAKES BLVD LAND O LAKES , FL 34638",-9179422.910586985,3278727.72595223
JACK MITCHELL PARK,4825 LITTLE ROAD,NEW PORT RICHEY,34653,PASCO,"-82.66820000,28.22964900",17R LM 36314 23769,,1626140000001000022,DISASTER RECOVERY CENTER-MOBILE,"4825 LITTLE ROAD NEW PORT RICHEY , FL 34653",-9202581.928827638,3277958.2483622744
ISTACHATTA COMMUNITY CENTER,COUNTY ROAD 39,DADE CITY,33523,PASCO,"-82.16655900,28.39562000",17R LM 85718 41581,,2124130000001000000,DISASTER RECOVERY CENTER-MOBILE,"COUNTY ROAD 39 DADE CITY , FL 33523",-9146739.50809378,3298944.6050634123
SAM PASCO PARK,39835 CHANCEY ROAD,ZEPHYRHILLS,33542,PASCO,"-82.14702900,28.22461900",17R LM 87451 22617,,2226180000499000000,DISASTER RECOVERY CENTER-MOBILE,"39835 CHANCEY ROAD ZEPHYRHILLS , FL 33542",-9144565.438426131,3277322.7357892697
A.L. ANDERSON PARK,39699 US HIGHWAY 19 N,TARPON SPRINGS,34689,PINELLAS,"-82.73897628,28.13348722",17R LM 29215 13211,,16 27 18 89424 000 0350,DISASTER RECOVERY CENTER-MOBILE,"39699 US HIGHWAY 19 N TARPON SPRINGS , FL 34689",-9210460.708384855,3265813.9218404777
RIDGECREST PARK,12000 ULMERTON RD,LARGO,33778,PINELLAS,"-82.80690200,27.89221000",17R LL 22147 86574,COUNTY,15 30 09 00000 210 0200,DISASTER RECOVERY CENTER-MOBILE,"12000 ULMERTON RD LARGO , FL 33778",-9218022.164784906,3235390.721072644
WAR VETERANS MEMORIAL PARK,9600 BAY PINES BLVD,SAINT PETERSBURG,33708,PINELLAS,"-82.77180721,27.80344067",17R LL 25460 76687,COUNTY,15 31 02 00000 300 0000,DISASTER RECOVERY CENTER-MOBILE,"9600 BAY PINES BLVD SAINT PETERSBURG , FL 33708",-9214115.430185726,3224214.681163207
CHAIN O LAKES CONVENTION CENTER,210 W CYPRESS GARDENS BLVD,WINTER HAVEN,33880,POLK,"-81.72936441,28.00365751",17R ML 28288 97821,,,DISASTER RECOVERY CENTER-MOBILE,"210 W CYPRESS GARDENS BLVD WINTER HAVEN , FL 33880",-9098071.229463292,3249434.925800199
HARDEE COUNTY FAIRGROUNDS,225 EAST MAIN STREET,WINTER HAVEN,33880,POLK,"-81.81038800,28.00000000",17R ML 20319 97466,,252833000000011010,DISASTER RECOVERY CENTER-MOBILE,"225 EAST MAIN STREET WINTER HAVEN , FL 33880",-9107090.733689975,3248973.7895572917
LAKELAND SQUARE MALL,3800 US HIGHWAY 98 NORTH,LAKELAND,33810,POLK,"-81.97796000,28.09122900",17R MM 03922 07694,,232735000000012020,DISASTER RECOVERY CENTER-MOBILE,"3800 US HIGHWAY 98 NORTH LAKELAND , FL 33810",-9125744.763444638,3260480.5557201486
FRANCIS YOUTH SPORTS COMPLEX,8012 ST. JOHNS AVE,PALATKA,32177,PUTNAM,"-81.70809190,29.64526778",17R MN 31463 79688,,,DISASTER RECOVERY CENTER-MOBILE,"8012 ST. JOHNS AVE PALATKA , FL 32177",-9095703.184444908,3458033.334637781
BOSTWICK COMMUNITY CENTER AND PARK,125-2 TILLMAN ST,BOSTWICK,32007,PUTNAM,"-81.63342193,29.77149195",17R MN 38767 93633,,,DISASTER RECOVERY CENTER-MOBILE,"125-2 TILLMAN ST BOSTWICK , FL 32007",-9087390.96069114,3474210.951012855
SOUTH PUTNAM RECREATION COMPLEX,280 UNION AVE,CRESCENT CITY,32148,PUTNAM,"-81.53539398,29.46502328",17R MN 48087 59627,,,DISASTER RECOVERY CENTER-MOBILE,"280 UNION AVE CRESCENT CITY , FL 32148",-9076478.539971678,3434967.2701933794
PALATKA MUNICIPAL AIRPORT,4015 REID ST,PALATKA,32177,PUTNAM,"-81.68750528,29.66292585",17R MN 33467 81633,,,DISASTER RECOVERY CENTER-MOBILE,"4015 REID ST PALATKA , FL 32177",-9093411.49211881,3460295.2728271424
PUTNAM COUNTY FAIRGROUNDS/EXPO CENTER,118 FAIRGROUNDS RD,EAST PALATKA,32131,PUTNAM,"-81.58887478,29.64186914",17R MN 43001 79247,COUNTY,39-10-27-7330-0020-0000,DISASTER RECOVERY CENTER-MOBILE,"118 FAIRGROUNDS RD EAST PALATKA , FL 32131",-9082431.994923517,3457598.025930257
JOHN THEOBOLD SPORTS COMPLEX,120 CARTER RD,PALATKA,32177,PUTNAM,"-81.65895695,29.66546539",17R MN 36232 81898,OTHER PUBLIC,37-09-26-0000-0070-0010,DISASTER RECOVERY CENTER-MOBILE,"120 CARTER RD PALATKA , FL 32177",-9090233.506624417,3460620.611127173
ST. JOHNS COUNTY GOVERNMENT COMPLEX,4010 LEWIS SPEEDWAY,SAINT AUGUSTINE,32084,ST. JOHNS,"-81.33645944,29.93903141",17R MP 67529 12077,COUNTY,0819700000,DISASTER RECOVERY CENTER-MOBILE,"4010 LEWIS SPEEDWAY SAINT AUGUSTINE , FL 32084",-9054333.247775294,3495715.3045519567
CALVIN PEETE PARK,10 N HOLMES BLVD,SAINT AUGUSTINE,32084,ST. JOHNS,"-81.35342373,29.88850030",17R MP 65874 06482,,4444444444,DISASTER RECOVERY CENTER-MOBILE,"10 N HOLMES BLVD SAINT AUGUSTINE , FL 32084",-9056221.704429317,3489225.6333199204
HAVERT L. FENN COMMUNITY CENTER (MOBILE),2000 VIRGINIA AVE,FORT PIERCE, ,ST. LUCIE,"-80.34483972,27.42638545",17R NL 64755 33833,,,DISASTER RECOVERY CENTER-MOBILE,"2000 VIRGINIA AVE FORT PIERCE , FL  ",-8943946.645699156,3176844.723333903
ST. LUCIE COUNTY ADMIN. BLDG (WEST PARKING LOT),2300 VIRGINIA AVE,FORT PIERCE,34950,ST. LUCIE,"-80.34862969,27.42707210",17R NL 64380 33907,COUNTY,2416-504-0770-000-8,DISASTER RECOVERY CENTER-MOBILE,"2300 VIRGINIA AVE FORT PIERCE , FL 34950",-8944368.54311407,3176930.8400303232
CHUCK RAY PARK,5626 NW MANVILLE DR.,PORT SAINT LUCIE,34983,ST. LUCIE,"-80.36680100,27.34804200",17R NL 62629 25144,MUNICIPAL,3420-715-0022-000-4,DISASTER RECOVERY CENTER-MOBILE,"5626 NW MANVILLE DR. PORT SAINT LUCIE , FL 34983",-8946391.3640746,3167022.697786084
SANDHILL CRANE PARK,2355 SE SCENIC PARK DR.,PORT SAINT LUCIE,34952,ST. LUCIE,"-80.27982600,27.30272700",17R NL 71260 20171,MUNICIPAL,3420-765-0002-000-3,DISASTER RECOVERY CENTER-MOBILE,"2355 SE SCENIC PARK DR. PORT SAINT LUCIE , FL 34952",-8936709.351345552,3161344.6656359476
VAN WEZEL HALL,777 NORTH TAMIAMI TRAIL,SARASOTA,34236,SARASOTA,"-82.54762724,27.34331891",17R LL 46910 25411,MUNICIPAL,2009-01-0002,DISASTER RECOVERY CENTER-MOBILE,"777 NORTH TAMIAMI TRAIL SARASOTA , FL 34236",-9189159.830172,3166430.77914454
SARASOTA COUNTY TECHNICAL INSTITUTE,4746 BENEVA ROAD,SARASOTA,34231,SARASOTA,"-82.50092759,27.28540656",17R LL 51453 18939,COUNTY,0073-09-0001,DISASTER RECOVERY CENTER-MOBILE,"4746 BENEVA ROAD SARASOTA , FL 34231",-9183961.249767726,3159175.002543511
R. L. TAYLOR COMMUNITY CENTER (MOBILE),1845 34TH ST,SARASOTA,34234,SARASOTA,"-82.53317216,27.36603863",17R LL 48371 27911,,,DISASTER RECOVERY CENTER-MOBILE,"1845 34TH ST SARASOTA , FL 34234",-9187550.698262826,3169278.344063133
VENICE COMMUNITY CENTER (MOBILE),326 S NOKOMIS AVE ,VENICE,34285,SARASOTA,"-82.44696254,27.09515979",17R LK 56551 97800,,,DISASTER RECOVERY CENTER-MOBILE,"326 S NOKOMIS AVE  VENICE , FL 34285",-9177953.887400407,3135365.7455548784
ALTAMONTE SPRINGS MALL,451 ALTAMONTE DR,ALTAMONTE SPRINGS,32701,SEMINOLE,"-81.37582610,28.66566239",17R MM 63277 71002,,,DISASTER RECOVERY CENTER-MOBILE,"451 ALTAMONTE DR ALTAMONTE SPRINGS , FL 32701",-9058715.52409714,3333160.7812225227
OVIEDO MARKETPLACE,1700 OVIEDO MARKETPLACE BLVD,OVIEDO,32765,SEMINOLE,"-81.23617408,28.66084941",17R MM 76921 70434,,,DISASTER RECOVERY CENTER-MOBILE,"1700 OVIEDO MARKETPLACE BLVD OVIEDO , FL 32765",-9043169.532804502,3332550.1755255787
JEAN RHEIN CENTRAL BRANCH LIBRARY (MOBILE),215 N OXFORD RD.,CASSELBERRY,32707,SEMINOLE,"-81.33488913,28.66141963",17R MM 67275 70520,,,DISASTER RECOVERY CENTER-MOBILE,"215 N OXFORD RD. CASSELBERRY , FL 32707",-9054158.441697322,3332622.5158339664
SEMINOLE TOWN CENTER MALL,200 TOWN CENTER CIR,SANFORD,32771,SEMINOLE,"-81.33639225,28.80573656",17R MM 67174 86509,,,DISASTER RECOVERY CENTER-MOBILE,"200 TOWN CENTER CIR SANFORD , FL 32771",-9054325.767864529,3350943.809886703
DIVISION OF FORESTRY BUILDING,33 COUNTY ROAD 538,BUSHNELL,33513,SUMTER,"-82.10494949,28.69130376",17R LM 92056 74285,,H33=008,DISASTER RECOVERY CENTER-MOBILE,"33 COUNTY ROAD 538 BUSHNELL , FL 33513",-9139881.169322327,3336414.284780717
SUMTER COUNTY GOVERNMENT OFFICE - ROOM 142 (MOBILE),910 MAIN ST,BUSHNELL,33513,SUMTER,"-82.11304280,28.67625150",17R LM 91249 72624,,,DISASTER RECOVERY CENTER-MOBILE,"910 MAIN ST BUSHNELL , FL 33513",-9140782.111999495,3334504.2830542526
BUSHNELL COMMUNITY CENTER,407 E BELT AVE,BUSHNELL,33513,SUMTER,"-82.10535008,28.66826614",17R LM 91993 71733,,,DISASTER RECOVERY CENTER-MOBILE,"407 E BELT AVE BUSHNELL , FL 33513",-9139925.762629095,3333491.121679459
LAKE OKAHUMPKA PARK,6085 E STATE ROAD 44,WILDWOOD,34785,SUMTER,"-82.00264686,28.83189585",17R MM 02181 89774,,G15C011,DISASTER RECOVERY CENTER-MOBILE,"6085 E STATE ROAD 44 WILDWOOD , FL 34785",-9128492.892309582,3354267.491927407
RAILS END MH & RV PARK,7250 E SR 44,Wildwood,34785,SUMTER,"-81.98306430,28.82479382",17R MM 04086 88971,,,DISASTER RECOVERY CENTER-MOBILE,"7250 E SR 44 Wildwood , FL 34785",-9126312.971744798,3353365.0578623298
SUWANNEE COUNTY COLLISEUM COMPLEX - CONWORTH BLDG. (MOBILE),1302 SW 11TH ST,LIVE OAK,32064,SUWANNEE,"-83.00588449,30.29113492",17R LP 07084 52749,COUNTY,2202S13E05332000000,DISASTER RECOVERY CENTER-MOBILE,"1302 SW 11TH ST LIVE OAK , FL 32064",-9240172.793999845,3541027.68437547
LAKE BUTLER ELEMENTARY SCHOOL PARKING LOT,800 SW 6TH ST,LAKE BUTLER,32054,UNION,"-82.34779746,30.01735189",17R LP 70024 21472,COUNTY, ,DISASTER RECOVERY CENTER-MOBILE,"800 SW 6TH ST LAKE BUTLER , FL 32054",-9166914.88147124,3505780.4624130386
LAKE BUTLER COMMUNITY CENTER PARKING AREA AT LAKESIDE PARK,155 NW 3RD ST,LAKE BUTLER,32054,UNION,"-82.33944958,30.02634653",17R LP 70841 22460,MUNICIPAL,30-05-20-00-000-0100-0,DISASTER RECOVERY CENTER-MOBILE,"155 NW 3RD ST LAKE BUTLER , FL 32054",-9165985.599540958,3506936.8935282705
UNION COUNTY HIGH SCHOOL PARKING AREA,1000 S LAKE AVE,LAKE BUTLER,32054,UNION,"-82.33853753,30.01570708",17R LP 70915 21280,,31-05-20-00-000-0390-0,DISASTER RECOVERY CENTER-MOBILE,"1000 S LAKE AVE LAKE BUTLER , FL 32054",-9165884.070355387,3505569.0022435538
FL DEPT. OF HEALTH - DAYTONA BEACH OFFICE (MOBILE),1845 HOLSONBACK RD,DAYTONA BEACH,32117,VOLUSIA,"-81.07862669,29.21296012",17R MN 92357 31582,COUNTY,,DISASTER RECOVERY CENTER-MOBILE,"1845 HOLSONBACK RD DAYTONA BEACH , FL 32117",-9025631.437418703,3402779.1090032244
MEDART RECREATION PARK,79 RECREATION DR,CRAWFORDVILLE,32327,WAKULLA,"-84.37751246,30.11655744",16R GU 52680 34603,COUNTY,00-00-090-000-11622-000,DISASTER RECOVERY CENTER-MOBILE,"79 RECREATION DR CRAWFORDVILLE , FL 32327",-9392861.721682386,3518541.031819998
WEE CARE PARK,522 WALTON RD,DEFUNIAK SPRINGS,32433,WALTON,"-86.12458350,30.74342077",16R EV 83797 01494,COUNTY,22-3N-19-19000-001-0010,DISASTER RECOVERY CENTER-MOBILE,"522 WALTON RD DEFUNIAK SPRINGS , FL 32433",-9587344.779784624,3599472.0843770048
HELEN MCCALL PARK,357 MOLL DRIVE,SANTA ROSA BEACH,32459,WALTON,"-86.23759000,30.36980200",16R EU 73259 60010,,34-2S-20-33270-028-0000,DISASTER RECOVERY CENTER-MOBILE,"357 MOLL DRIVE SANTA ROSA BEACH , FL 32459",-9599924.605985133,3551173.5603852356
PAXTON AIRPORT,53 COUNTY HWY 147,DEFUNIAK SPRINGS,32433,WALTON,"-86.26675000,30.98341000",16R EV 70013 27993,,32-6N-20-31000-001-0000,DISASTER RECOVERY CENTER-MOBILE,"53 COUNTY HWY 147 DEFUNIAK SPRINGS , FL 32433",-9603170.682329003,3630594.8033816745
WALTON COUNTY FAIR GROUNDS,790 N 9TH ST,DEFUNIAK SPRINGS,32433,WALTON,"-86.11370857,30.73291094",16R EV 84847 00337,,,DISASTER RECOVERY CENTER-MOBILE,"790 N 9TH ST DEFUNIAK SPRINGS , FL 32433",-9586134.187997336,3598110.9073497565
