Name,Address,City,Zip,COUNTY,LONGLAT,USNG,OWNERSHIP,PARCELID,FACILITY_TYPE,ADDRESSCITYZIP,x,y
ALACHUA COUNTY FAIRGROUNDS,2900 NE 39TH AVE,GAINESVILLE,32609,ALACHUA,"-82.28027223,29.68244134",17R LN 76124 84283,,08192 010 000,DISASTER RECOVERY CENTER,"2900 NE 39TH AVE GAINESVILLE , FL 32609",-9159398.00719772,3462795.600631542
ALACHUA-HIGH SPRINGS LIBRARY,23779 W US HWY 27,HIGH SPRINGS,32643,ALACHUA,"-82.60787460,29.77814550",17R LN 44570 95285,,,DISASTER RECOVERY CENTER,"23779 W US HWY 27 HIGH SPRINGS , FL 32643",-9195866.53598251,3475064.2734851246
ALACHUA-NEWBERRY LIBRARY,110 S SEABOARD DR,NEWBERRY ,32669,ALACHUA,"-82.61078510,29.64513260",17R LN 44083 80548,,,DISASTER RECOVERY CENTER,"110 S SEABOARD DR NEWBERRY  , FL 32669",-9196190.531331804,3458016.0203234297
ALACHUA-WALDO LIBRARY,14257 COLE ST,WALDO,32694,ALACHUA,"-82.17123630,29.79041410",17R LN 86796 96136,,,DISASTER RECOVERY CENTER,"14257 COLE ST WALDO , FL 32694",-9147260.182756186,3476637.878197497
CONE PARK BRANCH LIBRARY (FIXED),2801 E UNIVERSITY BLVD,GAINESVILLE,32641,ALACHUA,"-82.28827350,29.65153310",17R LN 75311 80866,,,DISASTER RECOVERY CENTER,"2801 E UNIVERSITY BLVD GAINESVILLE , FL 32641",-9160288.704289125,3458835.855205224
ALACHUA-LIBRARY PARTNERSHIP,1130 NE 16TH AVE,GAINESVILLE,32601,ALACHUA,"-82.31096930,29.66781400",17R LN 73135 82695,,,DISASTER RECOVERY CENTER,"1130 NE 16TH AVE GAINESVILLE , FL 32601",-9162815.189194836,3460921.4975357517
ALACHUA-HAWTHORNE LIBRARY,6640 SE 221ST ST,HAWTHORNE, ,ALACHUA,"-82.08682610,29.59275220",17R LN 94749 74153,,,DISASTER RECOVERY CENTER,"6640 SE 221ST ST HAWTHORNE , FL  ",-9137863.682273358,3451308.6144331004
ALACHUA-MILLHOPPER LIBRARY,3145 NW 43RD ST,GAINESVILLE,32606,ALACHUA,"-82.38790850,29.68195370",17R LN 65707 84349,,,DISASTER RECOVERY CENTER,"3145 NW 43RD ST GAINESVILLE , FL 32606",-9171380.021763608,3462733.1183176683
CITY OF GAINESVILLE WESTSIDE RECREATION CENTER,1001 NW 34TH ST,GAINESVILLE,32605,ALACHUA,"-82.37134700,29.66151300",17R LN 67283 82065,,06436 001 000,DISASTER RECOVERY CENTER,"1001 NW 34TH ST GAINESVILLE , FL 32605",-9169536.404004961,3460114.276645056
ALACHUA-ARCHER LIBRARY,13266 SW SR 45,ARCHER, ,ALACHUA,"-82.51969660,29.53206440",17R LN 52737 67898,,,DISASTER RECOVERY CENTER,"13266 SW SR 45 ARCHER , FL  ",-9186050.605953649,3443541.7837095107
ALACHUA CO FIRE RESCUE ST 6,5901 NW 34TH ST,GAINESVILLE,32653,ALACHUA,"-82.35290756,29.70979567",17R LN 69130 87394,COUNTY,07879 003 002,DISASTER RECOVERY CENTER,"5901 NW 34TH ST GAINESVILLE , FL 32653",-9167483.735283405,3466301.0600839616
BAKER COUNTY SENIOR HIGH SCHOOL,1 WILDCAT DR,GLEN SAINT MARY,32040,BAKER,"-82.15459886,30.28217508",17R LP 88954 50617,,362S21000000000050,DISASTER RECOVERY CENTER,"1 WILDCAT DR GLEN SAINT MARY , FL 32040",-9145408.11102549,3539872.630580378
PRIVATE OWNED PROPERTY OF BILL WATSON,14512 US 90,GLEN SAINT MARY,32040,BAKER,"-82.27698551,30.24737573",17R LP 77139 46886,,,DISASTER RECOVERY CENTER,"14512 US 90 GLEN SAINT MARY , FL 32040",-9159032.131011587,3535387.4833335364
CHRISTIAN FELLOWSHIP TEMPLE,337 N 7TH ST,MACCLENNY,32063,BAKER,"-82.12681993,30.28658992",17R LP 91630 51079,,322S22004900080010,DISASTER RECOVERY CENTER,"337 N 7TH ST MACCLENNY , FL 32063",-9142315.775415247,3540441.754693192
BAKER COUNTY FAIRGROUNDS,5611 LAURAMORE RD,MACCLENNY,32063,BAKER,"-82.13265735,30.30543471",17R LP 91090 53174,COUNTY,202S22000000000330,DISASTER RECOVERY CENTER,"5611 LAURAMORE RD MACCLENNY , FL 32063",-9142965.59363627,3542871.356568786
BAKER COUNTY AGRICULTURAL CENTER,1025 WEST MACCLENNY AVE,MACCLENNY,32063,BAKER,"-82.13784900,30.28030300",17R LP 90563 50393,COUNTY,312S22000000000571,DISASTER RECOVERY CENTER,"1025 WEST MACCLENNY AVE MACCLENNY , FL 32063",-9143543.52546318,3539631.3049060875
THOMAS DRIVE FIRE ST 1,2913 THOMAS DR,PANAMA CITY,32408,BAY,"-85.74907986,30.15374025",16R FU 20466 36481,COUNTY,31142-040-000,DISASTER RECOVERY CENTER,"2913 THOMAS DR PANAMA CITY , FL 32408",-9545543.906433111,3523327.0661898595
SANDHILLS FD,13010 STATE HIGHWAY 77,PANAMA CITY,32409,BAY,"-85.68439657,30.38657328",16R FU 26397 62356,COUNTY,07504-005-000,DISASTER RECOVERY CENTER,"13010 STATE HIGHWAY 77 PANAMA CITY , FL 32409",-9538343.395487532,3553337.6464206167
BRADFORD COUNTY SENIOR CENTER,1805 N TEMPLE AVE,STARKE,32091,BRADFORD,"-82.10610430,29.96400788",17R LP 93276 15311,COUNTY,02423-0-00000,DISASTER RECOVERY CENTER,"1805 N TEMPLE AVE STARKE , FL 32091",-9140009.721462771,3498924.2303993125
BROOKER COMMUNITY CENTER,17435 TESTONE AVE,BROOKER,32622,BRADFORD,"-82.33547402,29.89024714",17R LP 71049 07372,,00809-0-00000,DISASTER RECOVERY CENTER,"17435 TESTONE AVE BROOKER , FL 32622",-9165543.042149385,3489449.922771291
LAWTEY COMMUNITY CENTER,2783 LAKE ST,LAWTEY,32058,BRADFORD,"-82.07339634,30.04531418",17R LP 96517 24291,MUNICIPAL,01452-0-00100,DISASTER RECOVERY CENTER,"2783 LAKE ST LAWTEY , FL 32058",-9136368.687815383,3509375.8898239355
EAU GALLIE CIVIC CENTER,1551 HIGHLAND AVE,MELBOURNE,32935,BREVARD,"-80.62783086,28.13234216",17R NM 36547 11918,MUNICIPAL,27 371625    3    1,DISASTER RECOVERY CENTER,"1551 HIGHLAND AVE MELBOURNE , FL 32935",-8975449.075367836,3265669.377646153
GRANT STREET COMMUNITY CENTER,2547 GRANT STREET,MELBOURNE,32901,BREVARD,"-80.60822600,28.06968600",17R NM 38495 04983,MUNICIPAL,28 3710FJ   16    3,DISASTER RECOVERY CENTER,"2547 GRANT STREET MELBOURNE , FL 32901",-8973266.672046483,3257762.4440926076
MARTIN ANDERSON SENIOR CENTER,1025 FLORIDA AVE S,ROCKLEDGE,32955,BREVARD,"-80.72647430,28.34433006",17R NM 26807 35376,,,DISASTER RECOVERY CENTER,"1025 FLORIDA AVE S ROCKLEDGE , FL 32955",-8986430.01311467,3292455.702925516
BREVARD-CO AGRICULTURAL CENTER,3695 LAKE DR,COCOA,32926,BREVARD,"-80.78142340,28.35949190",17R NM 21419 37045,,,DISASTER RECOVERY CENTER,"3695 LAKE DR COCOA , FL 32926",-8992546.918418644,3294373.5631659916
LAMPLIGHTER VILLAGE COMMUNITY CENTER,276 LAMPLIGHTER DR,MELBOURNE,32934,BREVARD,"-80.70294268,28.11035043",17R NM 29177 09462,,,DISASTER RECOVERY CENTER,"276 LAMPLIGHTER DR MELBOURNE , FL 32934",-8983810.485046193,3262893.590828825
HARRY T. MOORE SOCIAL SERVICES CENTER,725 S. DELEON AVE,TITUSVILLE,32780,BREVARD,"-80.81398484,28.60697048",17R NM 18185 64456,,,DISASTER RECOVERY CENTER,"725 S. DELEON AVE TITUSVILLE , FL 32780",-8996171.641142843,3325716.6577240303
BAREFOOT BAY COMMUNITY CENTER,937 BAREFOOT BLVD,SEBASTIAN,32976,BREVARD,"-80.52354833,27.88613480",17R NL 46895 84680,,,DISASTER RECOVERY CENTER,"937 BAREFOOT BLVD SEBASTIAN , FL 32976",-8963840.396603856,3234625.563148498
BREVARD-INDIAN HARBOUR BEACH REC CENTER,1233 YACHT CLUB BLVD,INDIAN HARBOUR BEACH,32937,BREVARD,"-80.59567050,28.14404330",17R NM 39701 13225,,,DISASTER RECOVERY CENTER,"1233 YACHT CLUB BLVD INDIAN HARBOUR BEACH , FL 32937",-8971869.000204712,3267146.522052079
BREVARD-CUYLER PARK CENTER,2329 HARRY T MOORE AVE,MIMS,32754,BREVARD,"-80.84025930,28.66026440",17R NM 15609 70357,,,DISASTER RECOVERY CENTER,"2329 HARRY T MOORE AVE MIMS , FL 32754",-8999096.500855403,3332475.959213475
NORTH BREVARD SENIOR CENTER,909 LANE AVE,TITUSVILLE,32780,BREVARD,"-80.82222497,28.60570654",17R NM 17380 64315,COUNTY,22 350400  502,DISASTER RECOVERY CENTER,"909 LANE AVE TITUSVILLE , FL 32780",-8997088.92840404,3325556.3931423198
BREVARD COUNTY AGRICULTURE CENTER (FIXED),3695 LAKE DR,COCOA,32926,BREVARD,"-80.78127400,28.35949162",17R NM 21433 37045,COUNTY,24 353600  2501,DISASTER RECOVERY CENTER,"3695 LAKE DR COCOA , FL 32926",-8992530.287639545,3294373.5274920785
GREATER PALM BAY SENIOR CENTER,1275 CULVER DRIVE NE,PALM BAY,32907,BREVARD,"-80.65957139,28.03027365",17R NM 33462 00602,COUNTY,28 371975    A,DISASTER RECOVERY CENTER,"1275 CULVER DRIVE NE PALM BAY , FL 32907",-8978982.414805492,3252791.1405934645
SOUTH MAINLAND COMMUNITY CENTER,3700 ALLEN AVE,SEBASTIAN,32976,BREVARD,"-80.50109978,27.85933301",17R NL 49117 81720,COUNTY,30 382300  259,DISASTER RECOVERY CENTER,"3700 ALLEN AVE SEBASTIAN , FL 32976",-8961341.435660439,3231250.448566648
NORTH BREVARD SENIOR CENTER,909 LANE AVENUE,TITUSVILLE,32796,BREVARD,"-80.82341100,28.61225400",17R NM 17263 65040,,22 350407    E   15,DISASTER RECOVERY CENTER,"909 LANE AVENUE TITUSVILLE , FL 32796",-8997220.956637125,3326386.6164363287
BREVARD-TONY ROSA COMM CENTER,1502 PORT MALABAR BLVD,NE PALM BAY,32905,BREVARD,"-80.60527820,28.01796100",17R NL 38803 99254,,,DISASTER RECOVERY CENTER,"1502 PORT MALABAR BLVD NE PALM BAY , FL 32905",-8972938.52447915,3251238.449496498
UNIVERSITY PARK PLAZA,3452 S. UNIVERSITY DR.,FORT LAUDERDALE,33328,BROWARD,"-80.25014033,26.07778094",17R NJ 74996 84513,,504121130000,DISASTER RECOVERY CENTER,"3452 S. UNIVERSITY DR. FORT LAUDERDALE , FL 33328",-8933404.757564744,3008717.639841696
CITY OF HOLLYWOOD: FRED LIPPMAN MULTI-PURPOSE CENTER,2030 POLK ST,HOLLYWOOD,33020,BROWARD,"-80.14794932,26.01306273",17R NJ 85263 77408,,514215011860,DISASTER RECOVERY CENTER,"2030 POLK ST HOLLYWOOD , FL 33020",-8922028.906624464,3000698.9086219165
"NOVA SOUTHEASTERN UNIVERSITY, MORRIS AUDITORIUM",3301 COLLEGE AVE,FORT LAUDERDALE,33314,BROWARD,"-80.24408648,26.07795742",17R NJ 75601 84536,,504122060010,DISASTER RECOVERY CENTER,"3301 COLLEGE AVE FORT LAUDERDALE , FL 33314",-8932730.846346984,3008739.5116849574
OLD CITY HALL ANNEX,2ND STREET & ANDREWS AVE.,FORT LAUDERDALE,33301,BROWARD,"-80.14580200,26.12013500",17R NJ 85400 89268,,504210010190,DISASTER RECOVERY CENTER,"2ND STREET & ANDREWS AVE. FORT LAUDERDALE , FL 33301",-8921789.86779832,3013967.8017587257
BROWARD-SOUTH REG LIBRARY,7300 PINES BLVD,PEMBROKE PINES,33024,BROWARD,"-80.23601140,26.00684520",17R NJ 76455 76665,,,DISASTER RECOVERY CENTER,"7300 PINES BLVD PEMBROKE PINES , FL 33024",-8931831.932370529,2999928.7754190736
BROWARD-SOUTH REG FAMILY CENTER,4733 SW 18TH ST,HOLLYWOOD,33023,BROWARD,"-80.19075000,25.99489100",17R NJ 80993 75368,,,DISASTER RECOVERY CENTER,"4733 SW 18TH ST HOLLYWOOD , FL 33023",-8926793.456347056,2998448.18563768
BROWARD-DEERFIELD LIBRARY,837 HILLSBOROUGH BLVD,HILLSBOROUGH,33441,BROWARD,"-80.09246530,26.31875210",17R NK 90579 11302,,,DISASTER RECOVERY CENTER,"837 HILLSBOROUGH BLVD HILLSBOROUGH , FL 33441",-8915852.453569477,3038613.6177885816
BROWARD-CENTRAL FAMILY CENTER,900 NW 31ST AVE,FT LAUDERDALE ,33311,BROWARD,"-80.18598680,26.13478960",17R NJ 81373 90865,,,DISASTER RECOVERY CENTER,"900 NW 31ST AVE FT LAUDERDALE  , FL 33311",-8926263.219320789,3015784.8126875972
BROWARD-NORTHWEST FAMILY CENTER,10077 NW 29TH ST,CORAL SPRINGS,33065,BROWARD,"-80.26086030,26.26769770",17R NK 73804 05540,,,DISASTER RECOVERY CENTER,"10077 NW 29TH ST CORAL SPRINGS , FL 33065",-8934598.099211005,3032274.4053024566
ALTHA COMMUNITY CENTER,15552 NW SMITH ST,ALTHA,32421,CALHOUN,"-85.13079139,30.57216440",16R FU 79253 83676,,,DISASTER RECOVERY CENTER,"15552 NW SMITH ST ALTHA , FL 32421",-9476716.348171186,3577310.3085293835
W.T. NEAL CIVIC CENTER,17773 NE PEAR ST,BLOUNTSTOWN,32424,CALHOUN,"-85.04311412,30.45749179",16R FU 87883 71107,COUNTY,16-1N-08-0000-0008-0204,DISASTER RECOVERY CENTER,"17773 NE PEAR ST BLOUNTSTOWN , FL 32424",-9466956.159503857,3562492.742212231
TRINGALI RECREATION CENTER,3460 NORTH ACCESS ROAD,ENGLEWOOD,34224,CHARLOTTE,"-82.29317250,26.93521771",17R LK 71617 79916,COUNTY,412003433001,DISASTER RECOVERY CENTER,"3460 NORTH ACCESS ROAD ENGLEWOOD , FL 34224",-9160834.058729982,3115380.386964023
CHARLOTTE COUNTY CULTURAL CENTER,2280 AARON ST,PORT CHARLOTTE,33952,CHARLOTTE,"-82.09906325,26.99292471",17R LK 90945 86126,COUNTY,402215334001,DISASTER RECOVERY CENTER,"2280 AARON ST PORT CHARLOTTE , FL 33952",-9139225.915674243,3122587.812578465
SOUTH COUNTY REGIONAL PARK,670 COOPER ST,PUNTA GORDA,33950,CHARLOTTE,"-82.03687254,26.93307534",17R LK 97062 79444,OTHER PUBLIC,412305376001,DISASTER RECOVERY CENTER,"670 COOPER ST PUNTA GORDA , FL 33950",-9132302.877690723,3115112.8820568947
CITRUS COUNTY AUDITORIUM,3610 S FLORIDA AVE,INVERNESS,34450,CITRUS,"-82.31400485,28.80790716",17R LM 71774 87412,COUNTY,20E19S28      42300,DISASTER RECOVERY CENTER,"3610 S FLORIDA AVE INVERNESS , FL 34450",-9163153.104956727,3351219.5643571513
CITRUS SPRINGS COMMUNITY CENTER,1570 W CITRUS SPRINGS BLVD,DUNNELLON,34434,CITRUS,"-82.46026604,28.97095655",17R LN 57722 05646,COUNTY,18E17S26      70000,DISASTER RECOVERY CENTER,"1570 W CITRUS SPRINGS BLVD DUNNELLON , FL 34434",-9179434.82610813,3371949.9731518016
CRYSTAL RIVER MALL PARKING LOT,1801 NW US HWY 19,CRYSTAL RIVER,34428,CITRUS,"-82.60472364,28.91094112",17R LM 43555 99178,,17E18S170300        001A,DISASTER RECOVERY CENTER,"1801 NW US HWY 19 CRYSTAL RIVER , FL 34428",-9195515.77276068,3364315.710679301
WEST CITRUS GOVERNMENT CENTER,1540 N MEADOW CREST BLVD,CRYSTAL RIVER,32628,CITRUS,"-82.53970669,28.88382807",17R LM 49855 96089,,,DISASTER RECOVERY CENTER,"1540 N MEADOW CREST BLVD CRYSTAL RIVER , FL 32628",-9188278.11883546,3360868.243360658
KEYSTONE HEIGHTS LIBRARY,175 ORIOLE ST,KEYSTONE HEIGHTS,32656,CLAY,"-82.02996959,29.78150896",17R MN 00442 95019,,,DISASTER RECOVERY CENTER,"175 ORIOLE ST KEYSTONE HEIGHTS , FL 32656",-9131534.445094062,3475495.66106389
GREEN COVE SPRINGS LIBRARY,403 FERRIS ST,GREEN COVE SPRINGS,32043,CLAY,"-81.67940567,29.99141142",17R MP 34466 18027,,,DISASTER RECOVERY CENTER,"403 FERRIS ST GREEN COVE SPRINGS , FL 32043",-9092509.847214442,3502445.9096430354
KEYSTONE HEIGHTS LIBRARY,175 ORIOLE ST,KEYSTONE HEIGHTS,32656,CLAY,"-82.02996959,29.78150896",17R MN 00442 95019,,,DISASTER RECOVERY CENTER,"175 ORIOLE ST KEYSTONE HEIGHTS , FL 32656",-9131534.445094062,3475495.66106389
GREEN COVE SPRINGS LIBRARY,403 FERRIS ST,GREEN COVE SPRINGS,32043,CLAY,"-81.67940567,29.99141142",17R MP 34466 18027,,,DISASTER RECOVERY CENTER,"403 FERRIS ST GREEN COVE SPRINGS , FL 32043",-9092509.847214442,3502445.9096430354
ORANGE PARK LIBRARY,2054 PLAINFIELD AVE,ORANGE PARK,32073,CLAY,"-81.70690807,30.16443577",17R MP 31932 37217,,,DISASTER RECOVERY CENTER,"2054 PLAINFIELD AVE ORANGE PARK , FL 32073",-9095571.401196701,3524704.087617788
ORANGE PARK LIBRARY,2054 PLAINFIELD AVE,ORANGE PARK,32073,CLAY,"-81.70690807,30.16443577",17R MP 31932 37217,,,DISASTER RECOVERY CENTER,"2054 PLAINFIELD AVE ORANGE PARK , FL 32073",-9095571.401196701,3524704.087617788
GREEN COVE SPRINGS LIBRARY,403 FERRIS ST,GREEN COVE SPRINGS,32043,CLAY,"-81.67940567,29.99141142",17R MP 34466 18027,,,DISASTER RECOVERY CENTER,"403 FERRIS ST GREEN COVE SPRINGS , FL 32043",-9092509.847214442,3502445.9096430354
ORANGE PARK LIBRARY,2054 PLAINFIELD AVE,ORANGE PARK,32073,CLAY,"-81.70690807,30.16443577",17R MP 31932 37217,,,DISASTER RECOVERY CENTER,"2054 PLAINFIELD AVE ORANGE PARK , FL 32073",-9095571.401196701,3524704.087617788
MIDDLEBURG CIVIC ASSOCIATION,2012 PALMETTO ST,MIDDLEBURG,32068,CLAY,"-81.86242051,30.07100294",17R MP 16879 26966,,,DISASTER RECOVERY CENTER,"2012 PALMETTO ST MIDDLEBURG , FL 32068",-9112882.965950588,3512679.8785792524
KEYSTONE HEIGHTS LIBRARY,175 ORIOLE ST,KEYSTONE HEIGHTS,32656,CLAY,"-82.02996959,29.78150896",17R MN 00442 95019,,,DISASTER RECOVERY CENTER,"175 ORIOLE ST KEYSTONE HEIGHTS , FL 32656",-9131534.445094062,3475495.66106389
WILLIAM BEAM SENIOR CENTER,100 COMMERCIAL CIR,KEYSTONE HEIGHTS,32656,CLAY,"-82.02874410,29.78600093",17R MN 00565 95516,,20-08-23-002170-001-14,DISASTER RECOVERY CENTER,"100 COMMERCIAL CIR KEYSTONE HEIGHTS , FL 32656",-9131398.023307376,3476071.8105622265
MIDDLEBURG CLAY-HILL LIBRARY,2245 ASTER AVE,MIDDLEBURG,32068,CLAY,"-81.88125983,30.06250819",17R MP 15056 26039,COUNTY,09-05-24-005953-840-00,DISASTER RECOVERY CENTER,"2245 ASTER AVE MIDDLEBURG , FL 32068",-9114980.149697378,3511587.2216894585
ORANGE PARK SENIOR CENTER,414 STOWE AVE,ORANGE PARK,32073,CLAY,"-81.70360983,30.16386139",17R MP 32249 37151,COUNTY,41-04-26-018923-000-00,DISASTER RECOVERY CENTER,"414 STOWE AVE ORANGE PARK , FL 32073",-9095204.242200784,3524630.134761258
FLEMING ISLAND LIBRARY,1895 TOWN CENTER BLVD,ORANGE PARK,32003,CLAY,"-81.71056493,30.09272928",17R MP 31530 29273,COUNTY,05-05-26-014190-000-01,DISASTER RECOVERY CENTER,"1895 TOWN CENTER BLVD ORANGE PARK , FL 32003",-9095978.480216127,3515474.905549554
MIDDLEBURG CLAY-HILL LIBRARY,2245 ASTER AVE,MIDDLEBURG,32068,CLAY,"-81.88125983,30.06250819",17R MP 15056 26039,COUNTY,09-05-24-005953-840-00,DISASTER RECOVERY CENTER,"2245 ASTER AVE MIDDLEBURG , FL 32068",-9114980.149697378,3511587.2216894585
CLAY COUNTY SENIOR CENTER,604 WALNUT ST,GREEN COVE SPRINGS,32043,CLAY,"-81.68164921,29.99319461",17R MP 34251 18226,COUNTY,38-06-26-017342-000-00,DISASTER RECOVERY CENTER,"604 WALNUT ST GREEN COVE SPRINGS , FL 32043",-9092759.597254526,3502675.103722604
WEIGEL SENIOR CENTER,3916 SECTION ST,MIDDLEBURG,32068,CLAY,"-81.86302196,30.07091227",17R MP 16821 26956,COUNTY,11-05-24-006102-000-00,DISASTER RECOVERY CENTER,"3916 SECTION ST MIDDLEBURG , FL 32068",-9112949.919074653,3512668.2155286726
MIDDLEBURG CLAY-HILL LIBRARY,2245 ASTER AVE,MIDDLEBURG,32068,CLAY,"-81.88125983,30.06250819",17R MP 15056 26039,COUNTY,09-05-24-005953-840-00,DISASTER RECOVERY CENTER,"2245 ASTER AVE MIDDLEBURG , FL 32068",-9114980.149697378,3511587.2216894585
IMMOKALEE CAREER & SERVICE CENTER OF COLLIER COUNTY,750 5TH ST,IMMOKALEE,34142,COLLIER,"-81.42065711,26.40688343",17R MK 58047 20813,COUNTY, ,DISASTER RECOVERY CENTER,"750 5TH ST IMMOKALEE , FL 34142",-9063706.090051454,3049563.0991863483
NAPLES LIBRARY,650 CENTRAL AVENUE,NAPLES,34102,COLLIER,"-81.79902700,26.14823300",17R MJ 20134 92345,,14038560003,DISASTER RECOVERY CENTER,"650 CENTRAL AVENUE NAPLES , FL 34102",-9105826.033011438,3017451.848554204
EVERGLADES CITY COMMUNITY CENTER,201 BUCKNER AVENUE N,OCHOPEE,34141,COLLIER,"-81.38420204,25.85898200",17R MJ 61503 60123,COUNTY, ,DISASTER RECOVERY CENTER,"201 BUCKNER AVENUE N OCHOPEE , FL 34141",-9059647.929359917,2981625.71683279
COLLIER-GOODLAND/MARGOOD, , , ,COLLIER,"-81.64490700,25.92519900",17R MJ 35417 67559,,,DISASTER RECOVERY CENTER,"    , FL  ",-9088669.473093802,2989819.464955904
COLLIER-CIVIC CENTER, , , ,COLLIER,"-81.42054100,26.41896910",17R MK 58063 22151,,,DISASTER RECOVERY CENTER,"    , FL  ",-9063693.16422285,3051065.279952603
COLLIER-EVERGLADES CITY FS#60, , , ,COLLIER,"-81.38421990,25.85857520",17R MJ 61502 60078,,,DISASTER RECOVERY CENTER,"    , FL  ",-9059649.917872733,2981575.3938669837
COLUMBIA COUNTY FAIRGROUNDS,438 SW STATE ROAD 247,LAKE CITY,32025,COLUMBIA,"-82.67206910,30.17624251",17R LP 39007 39495,,30-4S-16-03238-002,DISASTER RECOVERY CENTER,"438 SW STATE ROAD 247 LAKE CITY , FL 32025",-9203012.63530865,3526224.350881379
K-MART/FOOD LION PLAZA,2205 W. US HWY. 90,LAKE CITY,32055,COLUMBIA,"-82.66823193,30.18032592",17R LP 39383 39942,,,DISASTER RECOVERY CENTER,"2205 W. US HWY. 90 LAKE CITY , FL 32055",-9202585.483257793,3526750.1827028673
WEST FIELD SHOPPING CENTER,484 SW COMMERCE DR,LAKE CITY,32025,COLUMBIA,"-82.68464814,30.17490253",17R LP 37793 39365,,02-4S-16-02714-011,DISASTER RECOVERY CENTER,"484 SW COMMERCE DR LAKE CITY , FL 32025",-9204412.92735255,3526051.8022130155
FORT WHITE COMMUNITY CENTER,17575 SW STATE ROAD 47,LAKE CITY,32024,COLUMBIA,"-82.71312797,29.93389047",17R LP 34650 12693,COUNTY,34-6S-16-04063-001,DISASTER RECOVERY CENTER,"17575 SW STATE ROAD 47 LAKE CITY , FL 32024",-9207583.287833327,3495054.9069761788
DESOTO COUNTY FAMILY SERVICE CENTER,310 W WHIDDEN ST,ARCADIA,34266,DESOTO,"-81.86276819,27.22042984",17R ML 14565 11144,COUNTY,25-37-24-0106-0000-0010,DISASTER RECOVERY CENTER,"310 W WHIDDEN ST ARCADIA , FL 34266",-9112921.669475961,3151038.6405504295
DESOTO CO.FAIRGROUNDS WAREHOUSE,120 HEARD ST.,ARCADIA,34266,DESOTO,"-81.86102386,27.20692855",17R ML 14728 09647,,36-37-24-0014-00C0-0170,DISASTER RECOVERY CENTER,"120 HEARD ST. ARCADIA , FL 34266",-9112727.492195731,3149348.609804391
DUVAL-PABLO CREEK LIBRARY,13295 BEACH BLVD,JACKSONVILLE,32246,DUVAL,"-81.47327790,30.28903900",17R MP 54486 50908,,,DISASTER RECOVERY CENTER,"13295 BEACH BLVD JACKSONVILLE , FL 32246",-9069563.809080347,3540757.480650062
DUVAL-BIBLIOTECA,303 N LAURA ST,JACKSONVILLE ,32202,DUVAL,"-81.65841450,30.32896320",17R MP 36707 55421,,,DISASTER RECOVERY CENTER,"303 N LAURA ST JACKSONVILLE  , FL 32202",-9090173.121142058,3545905.4685175023
PRIME F. OSBORN III CONVENTION CENTER,1000 WATER ST,JACKSONVILLE,32204,DUVAL,"-81.67255559,30.32769200",17R MP 35347 55288,,,DISASTER RECOVERY CENTER,"1000 WATER ST JACKSONVILLE , FL 32204",-9091747.299771536,3545741.522657018
DUVAL-SAN MARCO LIBRARY,1513 LASALLE ST,JACKSONVILLE,32207,DUVAL,"-81.65410080,30.30914460",17R MP 37109 53223,,,DISASTER RECOVERY CENTER,"1513 LASALLE ST JACKSONVILLE , FL 32207",-9089692.922219582,3543349.715969838
DUVAL-HIGHLANDS REG LIBRARY,1826 DUNN AVE,JACKSONVILLE,32218,DUVAL,"-81.67602020,30.43426830",17R MP 35084 67101,,,DISASTER RECOVERY CENTER,"1826 DUNN AVE JACKSONVILLE , FL 32218",-9092132.978666864,3559494.0150724147
MARY LENA GIBBS GYMNASIUM AND CENTER (PRIMARY),6974 WILSON BLVD,JACKSONVILLE,32210,DUVAL,"-81.75942291,30.26924236",17R MP 26952 48864,COUNTY,0122230000R,DISASTER RECOVERY CENTER,"6974 WILSON BLVD JACKSONVILLE , FL 32210",-9101417.326143742,3538205.599286214
ROBERT F. KENNEDY COMMUNITY CENTER,1133 IONIA ST,JACKSONVILLE,32206,DUVAL,"-81.64683644,30.33660345",17R MP 37825 56261,COUNTY,0726790000R,DISASTER RECOVERY CENTER,"1133 IONIA ST JACKSONVILLE , FL 32206",-9088884.257514812,3546890.8726516534
BURNETT CENTER AND PLAYGROUND (PRIMARY),3740 BURNETT PARK RD,JACKSONVILLE,32257,DUVAL,"-81.61633885,30.17677481",17R MP 40660 38534,COUNTY,1557410000R,DISASTER RECOVERY CENTER,"3740 BURNETT PARK RD JACKSONVILLE , FL 32257",-9085489.281166282,3526292.8948629247
EMMETT REED GYMNASIUM AND RECREATION COMPLEX (PRIMARY),1093 W 6TH ST,JACKSONVILLE,32209,DUVAL,"-81.67086845,30.34484998",17R MP 35520 57189,COUNTY,0528840000R,DISASTER RECOVERY CENTER,"1093 W 6TH ST JACKSONVILLE , FL 32209",-9091559.48905395,3547954.5573409535
JOHNNY WALKER COMMUNITY CENTER,2500 W  20TH ST,JACKSONVILLE,32209,DUVAL,"-81.70214892,30.35564158",17R MP 32521 58403,COUNTY,0479650005R,DISASTER RECOVERY CENTER,"2500 W  20TH ST JACKSONVILLE , FL 32209",-9095041.614757817,3549346.6561709857
BEACHES BRANCH LIBRARY (PRIMARY),600 3RD ST S,NEPTUNE BEACH,32266,DUVAL,"-81.39812849,30.31967432",17R MP 61724 54275,COUNTY,1729120200R,DISASTER RECOVERY CENTER,"600 3RD ST S NEPTUNE BEACH , FL 32266",-9061198.21483073,3544707.535063962
DUVAL-BRADHAM BROOKS LIBRARY,1755 EDGEWOOD AVE W ,JACKSONVILLE,32208,DUVAL,"-81.68630670,30.38723790",17R MP 34065 61895,,,DISASTER RECOVERY CENTER,"1755 EDGEWOOD AVE W  JACKSONVILLE , FL 32208",-9093278.066611843,3553423.413226567
OCEANWAY CENTER AND PLAYGROUND (SECONDARY),12215 SAGO AVE,JACKSONVILLE,32218,DUVAL,"-81.63210270,30.46106629",17R MP 39318 70046,,1068600010R,DISASTER RECOVERY CENTER,"12215 SAGO AVE JACKSONVILLE , FL 32218",-9087244.104591379,3562954.362022974
BUSINESS PROPERTY,604 NORTH WARRINGTON ROAD,PENSACOLA,32506,ESCAMBIA,"-87.27493151,30.41871437",16R DU 73595 65215,,342S300181001005,DISASTER RECOVERY CENTER,"604 NORTH WARRINGTON ROAD PENSACOLA , FL 32506",-9715400.934939612,3557486.016626026
BUSINESS PROPERTY,7850 NORTH CENTURY BOULEVARD,CENTURY,32535,ESCAMBIA,"-87.26279015,30.97443973",16R DV 74905 26798,,055N303139002011,DISASTER RECOVERY CENTER,"7850 NORTH CENTURY BOULEVARD CENTURY , FL 32535",-9714049.364731038,3629430.100303836
TOWN & COUNTRY SHOPPING CENTER,3300 NORTH PACE BOULEVARD,PENSACOLA,32505,ESCAMBIA,"-87.23850321,30.44750815",16R DU 77100 68398,,092S301100000211,DISASTER RECOVERY CENTER,"3300 NORTH PACE BOULEVARD PENSACOLA , FL 32505",-9711345.75524133,3561203.5200055377
BUSINESS PROPERTY,4618 SAUFLEY FIELD ROAD,PENSACOLA,32526,ESCAMBIA,"-87.30695890,30.46160248",16R DU 70532 69976,,391S314309000000,DISASTER RECOVERY CENTER,"4618 SAUFLEY FIELD ROAD PENSACOLA , FL 32526",-9718966.207443077,3563023.6079900693
OLD MOLINO ELEMENTARY SCHOOL (COUNTY),6450 HIGHWAY 95A N,MOLINO,32577,ESCAMBIA,"-87.33672709,30.71588687",16R DU 67758 98164,COUNTY,032N313000002001,DISASTER RECOVERY CENTER,"6450 HIGHWAY 95A N MOLINO , FL 32577",-9722279.98683559,3595906.3535456043
WALNUT HILL COMMUNITY CENTER,7850 HIGHWAY 97,MC DAVID,32568,ESCAMBIA,"-87.47960058,30.90166382",16R DV 54167 18802,COUNTY,384N321000000000,DISASTER RECOVERY CENTER,"7850 HIGHWAY 97 MC DAVID , FL 32568",-9738184.591895089,3619984.89229215
BARRINEAU PARK COMMUNITY CENTER,6055 BARRINEAU PARK SCHOOL RD,MOLINO,32577,ESCAMBIA,"-87.40552704,30.71221482",16R DU 61170 97779,,,DISASTER RECOVERY CENTER,"6055 BARRINEAU PARK SCHOOL RD MOLINO , FL 32577",-9729922.655805606,3595362.9959294065
BROWNVILLE COMMUNITY CENTER,3200 W DESOTO ST,PENSACOLA,32505,ESCAMBIA,"-87.25380990,30.42361070",16R DU 75625 65753,,,DISASTER RECOVERY CENTER,"3200 W DESOTO ST PENSACOLA , FL 32505",-9713049.687603753,3558118.0948282056
OLD CARVER MIDDLE SCHOOL,400 POND ST,CENTURY,32535,ESCAMBIA,"-87.26511375,30.96745248",16R DV 74682 26025,,,DISASTER RECOVERY CENTER,"400 POND ST CENTURY , FL 32535",-9714308.026360685,3628522.9493642505
ENGELWOOD COMMUNITY CENTER,2751 N H ST,PENSACOLA,32501,ESCAMBIA,"-87.23272393,30.44015751",16R DU 77654 67583,,,DISASTER RECOVERY CENTER,"2751 N H ST PENSACOLA , FL 32501",-9710707.486456705,3560277.516620445
CARVER COMMUNITY CENTER (COUNTY),7040 JEFFERSON AVENUE,CENTURY,32535,ESCAMBIA,"-87.26336038,30.96352948",16R DV 74848 25589,,085N302302001001,DISASTER RECOVERY CENTER,"7040 JEFFERSON AVENUE CENTURY , FL 32535",-9714112.842642037,3628013.657506739
ESCAMBIA COUNTY EXTENSION,3740 STEFANI RD,CANTONMENT,32533,ESCAMBIA,"-87.29945039,30.54243341",16R DU 71277 78932,,,DISASTER RECOVERY CENTER,"3740 STEFANI RD CANTONMENT , FL 32533",-9718130.364061728,3573466.9017709014
AVONDALE PARK,5809 VESTAVIA LN,PENSACOLA,32526,ESCAMBIA,"-87.31281633,30.45468108",16R DU 69968 69211,,,DISASTER RECOVERY CENTER,"5809 VESTAVIA LN PENSACOLA , FL 32526",-9719618.25363377,3562129.7716447986
JFO (DR4177),3351-B MCLEMORE DR,PENSACOLA,32514,ESCAMBIA,"-87.19113393,30.51926938",16R DU 81662 76342,,,DISASTER RECOVERY CENTER,"3351-B MCLEMORE DR PENSACOLA , FL 32514",-9706072.630469315,3570473.2393391156
FLAGLER COUNTY FAIRGORUNDS,150 SAWGRASS RD,PALM COAST,32137,FLAGLER,"-81.27713059,29.48849197",17R MN 73135 62140,,,DISASTER RECOVERY CENTER,"150 SAWGRASS RD PALM COAST , FL 32137",-9047728.790874265,3437968.2543114466
FRANKLIN COUNTY SENIOR CENTER,201 NW AVE F,CARRABELLE,32322,FRANKLIN,"-84.66591621,29.85739518",16R GU 25469 05270,,20-07S-04W-4230-0F07-0030,DISASTER RECOVERY CENTER,"201 NW AVE F CARRABELLE , FL 32322",-9424966.679785062,3485232.46281514
FRANKLIN'S COMMUNITY SERVICE CENTER,192 14TH ST,APALACHICOLA,32320,FRANKLIN,"-84.99856430,29.72443731",16R FT 93585 89928,,01-09S-08W-8330-0137-0010,DISASTER RECOVERY CENTER,"192 14TH ST APALACHICOLA , FL 32320",-9461996.895759271,3468177.779541909
CARRABELLE CITY HALL,1001 GRAY AVE,CARRABELLE,32322,FRANKLIN,"-84.65513525,29.85437546",16R GU 26518 04957,MUNICIPAL,,DISASTER RECOVERY CENTER,"1001 GRAY AVE CARRABELLE , FL 32322",-9423766.549405886,3484844.8671333836
"CHILLIS HALL, LANARK VILLAGE",156-A HEFFERNAN DR,CARRABELLE,32322,FRANKLIN,"-84.59480425,29.88467743",16R GU 32277 08436,MUNICIPAL,12-07S-04W-3141-0006-0150,DISASTER RECOVERY CENTER,"156-A HEFFERNAN DR CARRABELLE , FL 32322",-9417050.532668011,3488734.7984094736
EASTPOINT VFD,24 6TH ST,EASTPOINT,32328,FRANKLIN,"-84.86509355,29.74604888",16R GT 06453 92555,MUNICIPAL,29-08S-06W-0000-0380-0010,DISASTER RECOVERY CENTER,"24 6TH ST EASTPOINT , FL 32328",-9447138.999984266,3470948.3832537103
NATIONAL GUARD ARMORY,66 E 4TH ST,APALACHICOLA,32320,FRANKLIN,"-84.98479854,29.72637743",16R FT 94913 90166,STATE,01-09S-08W-8330-0009-0010,DISASTER RECOVERY CENTER,"66 E 4TH ST APALACHICOLA , FL 32320",-9460464.49837779,3468426.478341857
JOE FEROLITO RECREATIONAL CENTER,122 N GRAVES ST,QUINCY,32351,GADSDEN,"-84.59452978,30.58967117",16R GU 30651 86593,,,DISASTER RECOVERY CENTER,"122 N GRAVES ST QUINCY , FL 32351",-9417019.978724612,3579574.0068395417
BELL COMMUNITY CENTER,1180 N MAIN ST,BELL,32619,GILCHRIST,"-82.86253946,29.75578910",17R LN 19907 93178,,,DISASTER RECOVERY CENTER,"1180 N MAIN ST BELL , FL 32619",-9224215.698117053,3472197.2747922842
GILCHRIST CO FIRE RESCUE STATION 2,460 NW COUNTY ROAD 138,BRANFORD,32008,GILCHRIST,"-82.81682246,29.89148889",17R LP 24566 08148,COUNTY,09-07-15-0000-0005-0000,DISASTER RECOVERY CENTER,"460 NW COUNTY ROAD 138 BRANFORD , FL 32008",-9219126.505416857,3489609.3639595862
TRENTON COMMUNITY CENTER,110 SE 3RD AVE,TRENTON,32693,GILCHRIST,"-82.81678546,29.61105819",17R LN 24080 77067,COUNTY, ,DISASTER RECOVERY CENTER,"110 SE 3RD AVE TRENTON , FL 32693",-9219122.386209875,3453652.334126284
GLADES COUNTY SHERIFF'S OFFICE GUN RANGE,1097 HEALTH PARK DRive,MOORE HAVEN,33471,GLADES,"-81.12536492,26.84011872",17R MK 87544 68733,COUNTY,A21-41-32-A00-0020-0000,DISASTER RECOVERY CENTER,"1097 HEALTH PARK DRive MOORE HAVEN , FL 33471",-9030834.312970936,3103510.856744929
DOYLE CONNER AGRICULTURE CENTER,900 US HWY 27,MOORE HAVEN,33471,GLADES,"-81.10292684,26.83303260",17R MK 89773 67946,COUNTY,A27-42-32-A00-0020-0000,DISASTER RECOVERY CENTER,"900 US HWY 27 MOORE HAVEN , FL 33471",-9028336.517247837,3102626.8212868497
WEWAHITCHKA COMMUNITY CENTER,314 N 3RD ST,WEWAHITCHKA,32465,GULF,"-85.19754935,30.11591279",16R FU 73654 33000,MUNICIPAL,02083-000R,DISASTER RECOVERY CENTER,"314 N 3RD ST WEWAHITCHKA , FL 32465",-9484147.810926093,3518458.0697923643
PORT ST. JOE CENTENIAL BUILDING,300 ALLEN MEMORIAL WAY,PORT SAINT JOE,32456,GULF,"-85.29517005,29.79357501",16R FT 64778 97130,MUNICIPAL,06058-000R,DISASTER RECOVERY CENTER,"300 ALLEN MEMORIAL WAY PORT SAINT JOE , FL 32456",-9495014.897287067,3477043.3362465976
WASHINGTON HIGH RECREATIONAL CENTER,401 PETERS ST,PORT SAINT JOE,32456,GULF,"-85.29764483,29.82085208",16R FU 64494 00150,MUNICIPAL,04583-011R,DISASTER RECOVERY CENTER,"401 PETERS ST PORT SAINT JOE , FL 32456",-9495290.388489768,3480542.7709561726
HAMILTON COUNTY COURTHOUSE,1153 US HWY 41 NW,JASPER,32052,HAMILTON,"-82.95790440,30.52380032",17R LP 12146 78459,COUNTY,6176-010,DISASTER RECOVERY CENTER,"1153 US HWY 41 NW JASPER , FL 32052",-9234831.675051173,3571058.751169787
OLD HAMILTON HIGH SCHOOL,255 CHAN BRIDGE DR,JASPER,32052,HAMILTON,"-82.95906404,30.52773059",17R LP 12042 78897,COUNTY,6756-000,DISASTER RECOVERY CENTER,"255 CHAN BRIDGE DR JASPER , FL 32052",-9234960.765390085,3571566.6628040783
HARDEE COUNTY AGRI-CIVIC CENTER,515 CIVIC CENTER DR,WAUCHULA,33873,HARDEE,"-81.83469900,27.53299900",17R ML 17577 45749,COUNTY,08-34-25-0000-03760-0000,DISASTER RECOVERY CENTER,"515 CIVIC CENTER DR WAUCHULA , FL 33873",-9109797.021925773,3190222.2152547776
PIONEER PARK RECREATIONAL HALL,INTERSECTION OF ANIMAL WAY & SEMINOLE RD,WAUCHULA,33873,HARDEE,"-81.80599300,27.50236000",17R ML 20390 42336,COUNTY,22-34-25-0000-08120-0000,DISASTER RECOVERY CENTER,"INTERSECTION OF ANIMAL WAY & SEMINOLE RD WAUCHULA , FL 33873",-9106601.484528784,3186376.4154670057
HARDEE-RECREATION HALL,231 WILBUR C KING BLVD,ZOLFO SPRINGS, ,HARDEE,"-81.80121210,27.50168380",17R ML 20861 42258,,,DISASTER RECOVERY CENTER,"231 WILBUR C KING BLVD ZOLFO SPRINGS , FL  ",-9106069.277234524,3186291.5511056595
MONTURA CLUBHOUSE,255 N HACIENDA ST,CLEWISTON,33440,HENDRY,"-81.11090689,26.64186868",17R MK 88961 46774,,,DISASTER RECOVERY CENTER,"255 N HACIENDA ST CLEWISTON , FL 33440",-9029224.852956189,3078798.782717987
HENDRY-PIONEER COMM CENTER,910 PANAMA AVE,CLEWISTON,33440,HENDRY,"-81.21396440,26.70668600",17R MK 78716 53966,,,DISASTER RECOVERY CENTER,"910 PANAMA AVE CLEWISTON , FL 33440",-9040697.162339574,3086873.59179551
HENDRY-FELDA COMM CENTER,1100 COUNTY RD 830,FELDA, ,HENDRY,"-81.41750200,26.54406900",17R MK 58411 36006,,,DISASTER RECOVERY CENTER,"1100 COUNTY RD 830 FELDA , FL  ",-9063354.864270069,3066623.7649439387
HARLEM COMMUNITY CENTER,2000 7TH ST,CLEWISTON,33440,HENDRY,"-80.94371050,26.73651049",17R NK 05597 57253,,,DISASTER RECOVERY CENTER,"2000 7TH ST CLEWISTON , FL 33440",-9010612.635480512,3090590.609549878
HENDRY-DALLAS TOWNSEND CENTER,1085 PRATT BLVD,LABELLE,33935,HENDRY,"-81.42862950,26.74479250",17R MK 57377 58240,,,DISASTER RECOVERY CENTER,"1085 PRATT BLVD LABELLE , FL 33935",-9064593.571895624,3091622.966430414
LABELLE RODEO GROUNDS,100 RODEO DR,LABELLE,33935,HENDRY,"-81.43658074,26.74255906",17R MK 56586 57996,,,DISASTER RECOVERY CENTER,"100 RODEO DR LABELLE , FL 33935",-9065478.699855981,3091344.5593127813
NEW BEGINNINGS LIFE CENTER,3350 COMMERCIAL WAY,SPRING HILL,34606,HERNANDO,"-82.60872428,28.48008264",17R LM 42521 51439,,R16 223 17 3810 0070 0080,DISASTER RECOVERY CENTER,"3350 COMMERCIAL WAY SPRING HILL , FL 34606",-9195961.121825557,3309637.1719351015
MASARYKTOWN COMMUNITY CENTER,539 LINCOLN AVE,BROOKSVILLE,34604,HERNANDO,"-82.46100019,28.44571312",17R LM 56937 47446,,R36 223 18 2690 0540 0010,DISASTER RECOVERY CENTER,"539 LINCOLN AVE BROOKSVILLE , FL 34604",-9179516.55100645,3305285.124587866
HERNANDO CO,21030 CORTEZ BLVD,BROOKSVILLE,34601,HERNANDO,"-82.38866210,28.53775140",17R LM 64139 57560,,,DISASTER RECOVERY CENTER,"21030 CORTEZ BLVD BROOKSVILLE , FL 34601",-9171463.912095774,3316942.6737423684
WESTSIDE GOVERNMENT CENTER,7405 FORREST OAKS BLVD,SPRING HILL,34606,HERNANDO,"-82.59432034,28.49102405",17R LM 43947 52633,,,DISASTER RECOVERY CENTER,"7405 FORREST OAKS BLVD SPRING HILL , FL 34606",-9194357.682686916,3311022.926697991
BERT J. HARRIS AGRICULTURAL CENTER (FIXED),4509 WEST GEORGE BLVD,SEBRING,33875,HIGHLANDS,"-81.42055580,27.44139337",17R ML 58438 35395,COUNTY,C09352905000000130,DISASTER RECOVERY CENTER,"4509 WEST GEORGE BLVD SEBRING , FL 33875",-9063694.811499568,3178727.082413941
FWB SENIOR COMMUNITY CENTER,4300 GEORGE BLVD,SEBRING,33875,HIGHLANDS,"-81.42170071,27.44245596",17R ML 58325 35513,COUNTY,C093529A0001610000,DISASTER RECOVERY CENTER,"4300 GEORGE BLVD SEBRING , FL 33875",-9063822.262986967,3178860.3660108964
KEYSVILLE RECREATION CENTER,9390 EDISON RD,LITHIA,33547,HILLSBOROUGH,"-82.06953408,27.87026904",17R LL 94711 83290,COUNTY,223013ZZZ000005169200U,DISASTER RECOVERY CENTER,"9390 EDISON RD LITHIA , FL 33547",-9135938.74298361,3232627.5069807693
CARROLLWOOD CULTURAL CENTER,13335 CASEY ROAD,TAMPA,33618,HILLSBOROUGH,"-82.51683900,28.06647900",17R LM 50942 05495,COUNTY,182809ZZZ000000835400U,DISASTER RECOVERY CENTER,"13335 CASEY ROAD TAMPA , FL 33618",-9185732.499374043,3257357.8588761436
UNIVERSITY AREA COMMUNITY DEVELOPMENT CENTER,14013 N 22ND ST,TAMPA,33613,HILLSBOROUGH,"-82.43334865,28.07548049",17R LM 59159 06392,COUNTY,192805ZZZ000001261600U,DISASTER RECOVERY CENTER,"14013 N 22ND ST TAMPA , FL 33613",-9176438.396169692,3258493.489316548
HOUSING & COMMUNITY CODE ENFORCEMENT OFFICE,10119 WINDHORST RD,TAMPA,33619,HILLSBOROUGH,"-82.33366700,27.96258020",17R LL 68818 93773,,202917ZZZ000002508600U,DISASTER RECOVERY CENTER,"10119 WINDHORST RD TAMPA , FL 33619",-9165341.886040282,3244256.827266991
HILLSBOROUGH COMMUNITY COLLEGE AT THE REGENT (FIXED),6437 WATSON RD,RIVERVIEW,33569,HILLSBOROUGH,"-82.31122750,27.88702184",17R LL 70936 85378,STATE,203009ZZZ00000284090AU,DISASTER RECOVERY CENTER,"6437 WATSON RD RIVERVIEW , FL 33569",-9162843.932092993,3234737.2805387457
NOMA TOWN HALL,3462 SKIPPER AVE,BONIFAY,32425,HOLMES,"-85.61971975,30.98063211",16R FV 31802 28272,COUNTY,0327.04-001-00L-005.000,DISASTER RECOVERY CENTER,"3462 SKIPPER AVE BONIFAY , FL 32425",-9531143.604015222,3630234.1089141318
PONCE DE LEON CITY GYMNASIUM,1611 PIRATE COVE RD,PONCE DE LEON,32455,HOLMES,"-85.93371500,30.72607600",16R FU 02086 99730,,1827.02-000-000-022.000,DISASTER RECOVERY CENTER,"1611 PIRATE COVE RD PONCE DE LEON , FL 32455",-9566097.39579073,3597225.760774897
INDIAN RIVER-CO BRACKETT LIBRARY,6155 COLLEGE LN,VERO BEACH,32966,INDIAN RIVER,"-80.45593320,27.63380920",17R NL 53674 56756,,,DISASTER RECOVERY CENTER,"6155 COLLEGE LN VERO BEACH , FL 32966",-8956313.515130918,3202883.4637478823
NORTH COUNTY AQUATIC CENTER,9450 COUNTY ROAD 512,SEBASTIAN,32958,INDIAN RIVER,"-80.52059125,27.76888412",17R NL 47237 71692,,,DISASTER RECOVERY CENTER,"9450 COUNTY ROAD 512 SEBASTIAN , FL 32958",-8963511.216320027,3219866.4893848347
ORCHID TOWN HALL,7707 US HWY 1,VERO BEACH,32967,INDIAN RIVER,"-80.42784805,27.73431378",17R NL 56393 67902,,,DISASTER RECOVERY CENTER,"7707 US HWY 1 VERO BEACH , FL 32967",-8953187.090663793,3215517.943824814
SEBASTIAN ELEMENTARY SCHOOL,400 SEBASTIAN BLVD,SEBASTIAN,32958,INDIAN RIVER,"-80.47686180,27.80415584",17R NL 51529 75617,COUNTY,31390700000300000001.1,DISASTER RECOVERY CENTER,"400 SEBASTIAN BLVD SEBASTIAN , FL 32958",-8958643.276398765,3224304.683698316
HOBART PARK,5350 77TH ST,VERO BEACH,32967,INDIAN RIVER,"-80.44280723,27.73475893",17R NL 54918 67945,COUNTY,31393300000500000003.0,DISASTER RECOVERY CENTER,"5350 77TH ST VERO BEACH , FL 32967",-8954852.338340702,3215573.929298256
FELLSMERE CITY HALL,22 S ORANGE ST.,FELLSMERE,32948,INDIAN RIVER,"-80.60289661,27.76685289",17R NL 39128 71439,COUNTY,31370000009103000001.0,DISASTER RECOVERY CENTER,"22 S ORANGE ST. FELLSMERE , FL 32948",-8972673.406861156,3219610.9452728042
STORM GROVE MIDDLE SCHOOL,6400 57TH ST,VERO BEACH,32967,INDIAN RIVER,"-80.45662626,27.69895131",17R NL 53574 63972,COUNTY,32391700001003000001.0,DISASTER RECOVERY CENTER,"6400 57TH ST VERO BEACH , FL 32967",-8956390.665705394,3211071.1835771003
GIFFORD YOUTH ACTIVITY CENTER,4855 43RD AVE,VERO BEACH,32967,INDIAN RIVER,"-80.43018460,27.68199060",17R NL 56189 62105,COUNTY,32392100001009000001.1,DISASTER RECOVERY CENTER,"4855 43RD AVE VERO BEACH , FL 32967",-8953447.194432413,3208938.9200488874
INDIAN RIVER COUNTY MAIN LIBRARY,1600 21ST ST.,VERO BEACH,32960,INDIAN RIVER,"-80.40187795,27.64055995",17R NL 59003 57529,COUNTY,33390200001037000001.0,DISASTER RECOVERY CENTER,"1600 21ST ST. VERO BEACH , FL 32960",-8950296.11235691,3203731.7398059745
NORTH INDIAN RIVER COUNTY LIBRARY,1001 SEBASTIAN BLVD,SEBASTIAN,32958,INDIAN RIVER,"-80.49730059,27.77795554",17R NL 49527 72707,COUNTY,31381400004000000000.7,DISASTER RECOVERY CENTER,"1001 SEBASTIAN BLVD SEBASTIAN , FL 32958",-8960918.511676176,3221007.7969756336
INDIAN RIVER COUNTY ADMIN. BLDG,1801 27TH ST,VERO BEACH,32960,INDIAN RIVER,"-80.40344376,27.64638513",17R NL 58845 58173,COUNTY,32393500004001000001.0,DISASTER RECOVERY CENTER,"1801 27TH ST VERO BEACH , FL 32960",-8950470.417472344,3204463.7543827784
OUR LADY OF GUADALUPE CATHOLIC CHURCH,12896 COUNTY ROAD 512,FELLSMERE,32948,INDIAN RIVER,"-80.59117334,27.76841611",17R NL 40282 71616,,31370000001155300001.0,DISASTER RECOVERY CENTER,"12896 COUNTY ROAD 512 FELLSMERE , FL 32948",-8971368.379137876,3219807.6099633616
INDIAN RIVER MALL,6200 20TH STREET,VERO BEACH,32966,INDIAN RIVER,"-80.46167786,27.64131862",17R NL 53103 57586,,33390500007000000001.0,DISASTER RECOVERY CENTER,"6200 20TH STREET VERO BEACH , FL 32966",-8956953.008172687,3203827.074798863
INDIAN RIVER FAIRGROUNDS,7900 58TH AVE,VERO BEACH,32967,INDIAN RIVER,"-80.44776727,27.73825013",17R NL 54428 68329,COUNTY,31393200000700000002.0,DISASTER RECOVERY CENTER,"7900 58TH AVE VERO BEACH , FL 32967",-8955404.487602795,3216013.0205720128
NORTH COUNTY AQUATIC CENTER,9450 COUNTY ROAD 512,SEBASTIAN,32958,INDIAN RIVER,"-80.52097929,27.76846288",17R NL 47199 71646,STATE,31382200000100000001.0,DISASTER RECOVERY CENTER,"9450 COUNTY ROAD 512 SEBASTIAN , FL 32958",-8963554.412442062,3219813.493069138
INDIAN RIVER COUNTY BRACKETT LIBRARY,6155 COLLEGE LN,VERO BEACH,32966,INDIAN RIVER,"-80.45247096,27.63375111",17R NL 54015 56751,SPECIAL TAXING DISTRICT,33390500001015000001.0,DISASTER RECOVERY CENTER,"6155 COLLEGE LN VERO BEACH , FL 32966",-8955928.099842403,3202876.164747429
VERO BEACH POLICE DEPARTMENT,1055 20TH PL,VERO BEACH,32960,INDIAN RIVER,"-80.39455850,27.63843846",17R NL 59726 57297,MUNICIPAL,33390100023002000009.0,DISASTER RECOVERY CENTER,"1055 20TH PL VERO BEACH , FL 32960",-8949481.314874085,3203465.1550586442
INDIAN RIVER SHORES TOWN HALL,6001 A1A,VERO BEACH,32963,INDIAN RIVER,"-80.37209754,27.69226956",17R NL 61912 63271,MUNICIPAL,32401800018001000000.0,DISASTER RECOVERY CENTER,"6001 A1A VERO BEACH , FL 32963",-8946980.972313667,3210231.1296601524
BARBER STREET SPORTS COMPLEX,1115 BARBER ST,SEBASTIAN,32958,INDIAN RIVER,"-80.48753693,27.77892187",17R NL 50489 72818,MUNICIPAL,31382400001208000001.0,DISASTER RECOVERY CENTER,"1115 BARBER ST SEBASTIAN , FL 32958",-8959831.62603111,3221129.3802280044
SEBASTIAN CITY HALL,1225 MAIN ST,SEBASTIAN,32958,INDIAN RIVER,"-80.47474208,27.81743752",17R NL 51731 77089,MUNICIPAL,31390600005000200001.0,DISASTER RECOVERY CENTER,"1225 MAIN ST SEBASTIAN , FL 32958",-8958407.309716314,3225976.2744834903
JACKSON COUNTY AGRICULTURAL CENTER,3631 HWY 90,MARIANNA,32448,JACKSON,"-85.29417336,30.78257810",16R FV 63228 06750,COUNTY,36-5N-11-0000-0140-0000,DISASTER RECOVERY CENTER,"3631 HWY 90 MARIANNA , FL 32448",-9494903.946151363,3604544.84467442
JACKSON COUNTY BOARD OF COUNTY COMMISIONERS BLDG,2864 MADISON ST,MARIANNA,32448,JACKSON,"-85.22541532,30.77345764",16R FV 69824 05841,COUNTY,03-4N-10-0346-0000-0940,DISASTER RECOVERY CENTER,"2864 MADISON ST MARIANNA , FL 32448",-9487249.83638822,3603363.1216275436
MAYO COMMUNITY CENTER,150 SW COMMUNITY CIR,MAYO,32066,LAFAYETTE,"-83.18427025,30.05563098",17R KP 89424 26960,COUNTY,1405110000000000200,DISASTER RECOVERY CENTER,"150 SW COMMUNITY CIR MAYO , FL 32066",-9260030.606769545,3510702.6934928433
LAFAYETTE COUNTY LIBRARY,120 NE CRAWFORD ST,MAYO,32066,LAFAYETTE,"-83.17499631,30.05414177",17R KP 90315 26778,,,DISASTER RECOVERY CENTER,"120 NE CRAWFORD ST MAYO , FL 32066",-9258998.236479284,3510511.1634660857
DAY COMMUNITY CENTER,4673 N COUNTY ROAD 53,DAY,32013,LAFAYETTE,"-83.29207189,30.19571427",17R KP 79340 42693,COUNTY,2603100005001000010,DISASTER RECOVERY CENTER,"4673 N COUNTY ROAD 53 DAY , FL 32013",-9272031.030311082,3528731.976429316
LEESBURG COMMUNITY CENTER,109 E DIXIE AVE,LEESBURG,34748,LAKE,"-81.87453670,28.80642253",17R MM 14660 86853,,,DISASTER RECOVERY CENTER,"109 E DIXIE AVE LEESBURG , FL 34748",-9114231.73484782,3351030.956082989
GROVELAND COMMUNITY CENTER,243 S LAKE AVE,GROVELAND,34736,LAKE,"-81.85667472,28.55945216",17R MM 16206 59477,,,DISASTER RECOVERY CENTER,"243 S LAKE AVE GROVELAND , FL 34736",-9112243.347494952,3319692.7692901846
LAKE-VIA PORT MALL,10401 US HWY 441,LEESBURG,34788,LAKE,"-81.78630530,28.82538850",17R MM 23284 88894,,,DISASTER RECOVERY CENTER,"10401 US HWY 441 LEESBURG , FL 34788",-9104409.859828161,3353440.619411849
EUSTIS COMMUNITY CENTER,601 NORTHSIDE DRIVE,MOUNT DORA,32757,LAKE,"-81.65307900,28.81504900",17R MM 36276 87669,,301927160000001400,DISASTER RECOVERY CENTER,"601 NORTHSIDE DRIVE MOUNT DORA , FL 32757",-9089579.175957166,3352126.911262134
BONITA SPRINGS RECREATIONAL CENTER (FIXED),26740 PINE AVE,BONITA SPRINGS, ,LEE,"-81.78653668,26.34857328",17R MK 21517 14526,,,DISASTER RECOVERY CENTER,"26740 PINE AVE BONITA SPRINGS , FL  ",-9104435.617046662,3042317.6815742576
KARL DREWS COMMUNITY CENTER,18412 LEE RD.,FORT MYERS,33912,LEE,"-81.81419912,26.47196165",17R MK 18843 28209,,,DISASTER RECOVERY CENTER,"18412 LEE RD. FORT MYERS , FL 33912",-9107514.985740777,3057653.8177208323
SCHANDLER HALL,419 FLORENCE AVE,FORT MYERS,33905,LEE,,,,,DISASTER RECOVERY CENTER,"419 FLORENCE AVE FORT MYERS , FL 33905",-9107702.893337008,3083072.636519991
LAKE KENNEDY CENTER,400 SANTA BARBARA BLVD.,CAPE CORAL,33991,LEE,"-81.97584957,26.64205647",17R MK 02873 47161,,,DISASTER RECOVERY CENTER,"400 SANTA BARBARA BLVD. CAPE CORAL , FL 33991",-9125509.831665479,3078822.171043101
EMERGENT TECH INSTITUTE (FIXED),16301 INNOVATION LN,FORT MYERS,33913,LEE,,,,,DISASTER RECOVERY CENTER,"16301 INNOVATION LN FORT MYERS , FL 33913",-9100480.203604162,3060796.3229806316
BAY OAKS RECREATION CENTER,2731 OAK ST,FORT MYERS BEACH,33931,LEE,,,,,DISASTER RECOVERY CENTER,"2731 OAK ST FORT MYERS BEACH , FL 33931",-9121594.371506222,3054964.0216311906
SANIBEL COMMUNITY HOUSE,2173 PERIWINKLE RD,SANIBEL-CAPTIVA,22957,LEE,,,,,DISASTER RECOVERY CENTER,"2173 PERIWINKLE RD SANIBEL-CAPTIVA , FL 22957",-9136254.986668767,3053336.959013991
STARS COMPLEX,2980 EDISON AVE.,FORT MYERS,33916,LEE,"-81.85238064,26.63314568",17R MK 15156 46086,MUNICIPAL,194425P4004000010,DISASTER RECOVERY CENTER,"2980 EDISON AVE. FORT MYERS , FL 33916",-9111765.333213024,3077712.4388274862
WALKER-FORD COMMUNITY CENTER,2281 PASCO ST,TALLAHASSEE,32310,LEON,"-84.29262105,30.41769624",16R GU 60067 68183,,,DISASTER RECOVERY CENTER,"2281 PASCO ST TALLAHASSEE , FL 32310",-9383411.652601453,3557354.5891761803
LEROY COLLINS PUBLIC LIBRARY,200 W PARK AVE,TALLAHASSEE,32624,LEON,"-84.28373187,30.44263997",16R GU 60855 70969,,,DISASTER RECOVERY CENTER,"200 W PARK AVE TALLAHASSEE , FL 32624",-9382422.113522008,3560574.9218716687
SUSAN HERNDON MCCOLLUM COMMUNITY CENTER,501 INGLESIDE DR,TALLAHASSEE,32303,LEON,"-84.27434275,30.45338624",16R GU 61728 72182,,,DISASTER RECOVERY CENTER,"501 INGLESIDE DR TALLAHASSEE , FL 32303",-9381376.921641551,3561962.5621047406
TROUSDELL GYMNASTICS CENTER,326 JOHN KNOX RD,TALLAHASSEE,32303,LEON,"-84.28499329,30.47555545",16R GU 60646 74616,,2124202080000,DISASTER RECOVERY CENTER,"326 JOHN KNOX RD TALLAHASSEE , FL 32303",-9382562.534905171,3564825.7011627154
CHARLES STRICKLAND RECREATIONAL PARK,2340 NW OLD FANNING RD,CHIEFLAND,32626,LEVY,"-82.87928743,29.50626796",17R LN 17839 65549,,,DISASTER RECOVERY CENTER,"2340 NW OLD FANNING RD CHIEFLAND , FL 32626",-9226080.074474832,3440241.764436683
LEVY COUNTY AG EXTENSION,625 N HATHAWAY AVE,BRONSON,32621,LEVY,"-82.64967199,29.45185642",17R LN 40014 59181,,,DISASTER RECOVERY CENTER,"625 N HATHAWAY AVE BRONSON , FL 32621",-9200519.400135182,3433283.904373678
LEVY-TOMMY USHER CENTER,506 SW 4TH AVE,CHIEFLAND,32626,LEVY,"-82.86468470,29.47500760",17R LN 19199 62062,,,DISASTER RECOVERY CENTER,"506 SW 4TH AVE CHIEFLAND , FL 32626",-9224454.505511224,3436243.8983392245
ALVA COMMUNITY CENTER,21471 N RIVER RD,ALVA,33920,LEVY,,,,,DISASTER RECOVERY CENTER,"21471 N RIVER RD ALVA , FL 33920",-9084570.495625082,3088662.0234323684
CITY OF INGLIS TOWN HALL,129 HWY 40 W ,INGLIS, ,LEVY,"-82.67273684,29.03287196",17R LN 37114 12781,,,DISASTER RECOVERY CENTER,"129 HWY 40 W  INGLIS , FL  ",-9203086.967506489,3379830.5647616424
WOODMEN OF THE WORLD,22564 NE WOODMAN OF THE WORLD RD,HOSFORD,32334,LIBERTY,"-84.77721546,30.39561635",16R GU 13553 64720,,,DISASTER RECOVERY CENTER,"22564 NE WOODMAN OF THE WORLD RD HOSFORD , FL 32334",-9437356.455532411,3554504.6748995082
HOSFORD TELOGIA FIRE DEPT.,20458 NE KEVER RD,HOSFORD,32334,LIBERTY,"-84.81853271,30.36423630",16R GU 09649 61164,,027-1S-6W-00769 000,DISASTER RECOVERY CENTER,"20458 NE KEVER RD HOSFORD , FL 32334",-9441955.871616324,3550455.4715560907
VETERANS MEMORIAL PARK,10405 NW THEO JACOBS WAY,BRISTOL,32321,LIBERTY,"-84.98118871,30.42230426",16R FU 93899 67311,STATE,006-1S-7W-01743 004,DISASTER RECOVERY CENTER,"10405 NW THEO JACOBS WAY BRISTOL , FL 32321",-9460062.654704977,3557949.4398121457
"NORTH FLORIDA COMMUNITY COLLEGE, VAN H. PRIEST AUDITORIUM",325 NW TURNER DAVIS DRIVE,MADISON,32340,MADISON,"-83.41922235,30.47336429",17R KP 67753 73727,SPECIAL TAXING DISTRICT,21-1N-09-3863-001-000,DISASTER RECOVERY CENTER,"325 NW TURNER DAVIS DRIVE MADISON , FL 32340",-9286185.354265723,3564542.6857298887
MADISON COURTHOUSE ANNEX,229 SW PINCKNEY ST,MADISON,32340,MADISON,"-83.41242917,30.46834871",17R KP 68393 73157,COUNTY,00-00-00-3713-000-000,DISASTER RECOVERY CENTER,"229 SW PINCKNEY ST MADISON , FL 32340",-9285429.140695877,3563894.883762809
MADISON COURTHOUSE ANNEX,229 SW PINCKNEY ST,MADISON,32340,MADISON,"-83.41242917,30.46834871",17R KP 68393 73157,COUNTY,00-00-00-3713-000-000,DISASTER RECOVERY CENTER,"229 SW PINCKNEY ST MADISON , FL 32340",-9285429.140695877,3563894.883762809
MADISON COURTHOUSE ANNEX,229 SW PINCKNEY ST,MADISON,32340,MADISON,"-83.41242917,30.46834871",17R KP 68393 73157,COUNTY,00-00-00-3713-000-000,DISASTER RECOVERY CENTER,"229 SW PINCKNEY ST MADISON , FL 32340",-9285429.140695877,3563894.883762809
DRC 13 - MANATEE COUNTY CONVENTION CENTER,1 HABEN BLVD,PALMETTO,34221,MANATEE,"-82.56165036,27.51498730",17R LL 45761 44448,COUNTY,2604500005,DISASTER RECOVERY CENTER,"1 HABEN BLVD PALMETTO , FL 34221",-9190720.87670245,3187961.2607163074
BRADENTON Y.M.C.A.,3805 59TH STREET WEST,BRADENTON,34209,MANATEE,"-82.61935451,27.46754720",17R LL 39992 39265,,5111110002,DISASTER RECOVERY CENTER,"3805 59TH STREET WEST BRADENTON , FL 34209",-9197144.473875938,3182008.0202256893
BLAKE LIBRARY,2351 SE MONTEREY RD,STUART,34996,MARTIN,"-80.22355465,27.19450341",17R NL 76903 08216,,,DISASTER RECOVERY CENTER,"2351 SE MONTEREY RD STUART , FL 34996",-8930445.253172701,3147793.467364088
ROBERT MORGADE LIBRARY,5851 SE COMMUNITY DR,STUART,34997,MARTIN,"-80.22062692,27.13418717",17R NL 77235 01537,,,DISASTER RECOVERY CENTER,"5851 SE COMMUNITY DR STUART , FL 34997",-8930119.33934722,3140246.688732631
JENSEN BEACH RECREATION CENTER,2369 NE DIXIE HWY,JENSEN BEACH,34957,MARTIN,"-80.22184696,27.22446315",17R NL 77052 11536,,,DISASTER RECOVERY CENTER,"2369 NE DIXIE HWY JENSEN BEACH , FL 34957",-8930255.154123053,3151543.552302183
PORT SALERNO ELEMENTARY SCHOOL,4890 SE JACK AVE,STUART,34997,MARTIN,"-80.20711687,27.14625385",17R NL 78565 02882,COUNTY,523841000000010003,DISASTER RECOVERY CENTER,"4890 SE JACK AVE STUART , FL 34997",-8928615.407782657,3141756.1478948877
JOSEPH CALEB COMMUNITY CENTER,5400 NW 22ND AVE STE 301,MIAMI,33142,MIAMI-DADE,"-80.23321580,25.82526356",17R NJ 76852 56557,,,DISASTER RECOVERY CENTER,"5400 NW 22ND AVE STE 301 MIAMI , FL 33142",-8931520.728110647,2977455.132919679
MD-GOULD'S PARK (FIXED),11350 SW 216TH ST ,MIAMI,33170,MIAMI-DADE,"-80.37709250,25.56554270",17R NJ 62567 27718,,,DISASTER RECOVERY CENTER,"11350 SW 216TH ST  MIAMI , FL 33170",-8947537.008512506,2945370.291316749
MD-WEST KENDALL REGIONAL LIBRARY,10201 HAMMOCKS BLVD,MIAMI,33196,MIAMI-DADE,"-80.44193580,25.67169590",17R NJ 56004 39445,,,DISASTER RECOVERY CENTER,"10201 HAMMOCKS BLVD MIAMI , FL 33196",-8954755.331642387,2958475.5664579086
MD-NFL YET CENTER,7090 NW 22ND AVE,MIAMI, ,MIAMI-DADE,"-80.23540700,25.83790500",17R NJ 76624 57955,,,DISASTER RECOVERY CENTER,"7090 NW 22ND AVE MIAMI , FL  ",-8931764.650829095,2979018.59511605
MIAMI-DADE COLLEGE KENDALL CAMPUS BLDG. K (FIXED),11011 SW 104TH ST,MIAMI,33146,MIAMI-DADE,"-80.37405330,25.67373600",17R NJ 62816 39701,,,DISASTER RECOVERY CENTER,"11011 SW 104TH ST MIAMI , FL 33146",-8947198.686317174,2958727.543686753
MD-STEPHEN P CLARK (FIXED),111 NW 1ST ST,MIAMI ,33128,MIAMI-DADE,"-80.19666210,25.77525290",17R NJ 80550 51040,,,DISASTER RECOVERY CENTER,"111 NW 1ST ST MIAMI  , FL 33128",-8927451.588257708,2971271.5750829806
E. DARWIN FUCHS PAVILION AT TAMIAMI PARK,10901 SW 24TH STREET,MIAMI,33165,MIAMI-DADE,"-80.37076382,25.74826960",17R NJ 63106 47957,COUNTY,3040070000010,DISASTER RECOVERY CENTER,"10901 SW 24TH STREET MIAMI , FL 33165",-8946832.502584185,2967936.3127635624
SAN PABLO CATHOLIC CHURCH,550 122ND ST OCEAN,MARATHON,33050,MONROE,"-81.02700239,24.72926148",17R MH 97269 34970,,0566 33 00100450000000,DISASTER RECOVERY CENTER,"550 122ND ST OCEAN MARATHON , FL 33050",-9019884.64625031,2842526.956888838
SAINT PETER'S CATHOLIC CHURCH,31300 OVERSEAS HWY,BIG PINE KEY,33043,MONROE,"-81.34287723,24.66803640",17R MH 65307 28234,,2566 29 00110400000000,DISASTER RECOVERY CENTER,"31300 OVERSEAS HWY BIG PINE KEY , FL 33043",-9055047.672596214,2835025.12982906
HABITAT FOR HUMANITY,30233 OVERSEAS HWY,BIG PINE KEY,33043,MONROE,"-81.35852250,24.66870971",17R MH 63725 28312,,2666 29 00111690000300,DISASTER RECOVERY CENTER,"30233 OVERSEAS HWY BIG PINE KEY , FL 33043",-9056789.296253342,2835107.6094746734
OLD BANK OF AMERICA BLDG. (FIXED),30572 OVERSEAS HWY.,BIG PINE KEY,33043,MONROE,"-81.35455496,24.66929155",17R MH 64126 28376,,,DISASTER RECOVERY CENTER,"30572 OVERSEAS HWY. BIG PINE KEY , FL 33043",-9056347.631461954,2835178.8845472503
MONROE COUNTY PUBLIC LIBRARY,81850 OVERSEAS HWY,ISLAMORADA,33036,MONROE,"-80.63675808,24.91753414",17R NH 36679 55865,COUNTY,3263 37 00095080000000,DISASTER RECOVERY CENTER,"81850 OVERSEAS HWY ISLAMORADA , FL 33036",-8976442.84878749,2865618.9452720094
MARATHON AIRPORT BASE CAMP,9400 OVERSEAS HWY,MARATHON,33050,MONROE,"-81.04964044,24.72554452",17R MH 94979 34559,COUNTY,0166 32 00101160000000,DISASTER RECOVERY CENTER,"9400 OVERSEAS HWY MARATHON , FL 33050",-9022404.70292393,2842071.4175434173
BIG PINE VOL FIRE STATION/EMS #13,400 KEY DEER BLVD,BIG PINE KEY,33043,MONROE,"-81.35974257,24.67448990",17R MH 63603 28952,COUNTY,2666 29 00111460000000,DISASTER RECOVERY CENTER,"400 KEY DEER BLVD BIG PINE KEY , FL 33043",-9056925.114358097,2835815.695280141
BIG PINE MOOSE LODGE #1585,21 WILDER RD,BIG PINE KEY,33043,MONROE,"-81.35600169,24.67508763",17R MH 63981 29018,,2666 29 00111680000000,DISASTER RECOVERY CENTER,"21 WILDER RD BIG PINE KEY , FL 33043",-9056508.681577327,2835888.9198515043
ST. JUSTIN THE MARTYR CATHOLIC CHURCH,105500 OVERSEAS HWY,KEY LARGO,33037,MONROE,"-80.38317406,25.16204100",17R NH 62162 83032,,,DISASTER RECOVERY CENTER,"105500 OVERSEAS HWY KEY LARGO , FL 33037",-8948214.00518921,2895660.8717153687
MRIC, , , ,MONROE,"-81.80142800,24.55614200",17R MH 18838 16037,,,DISASTER RECOVERY CENTER,"    , FL  ",-9106093.311154734,2821324.3604899105
"3126 FLAGLER AVE, KEY WEST, FL 33040 (FIXED)",3126 FLAGLER AVE,KEY WEST,33040,MONROE,"-81.76450403,24.56117346",17R MH 22580 16573,,,DISASTER RECOVERY CENTER,"3126 FLAGLER AVE KEY WEST , FL 33040",-9101982.953674011,2821940.1684616166
"6805 OVERSEAS HWY, MARATHON, FL 33050 (FIXED)",6805 OVERSEAS HWY,MARATHON,33050,MONROE,,,,,DISASTER RECOVERY CENTER,"6805 OVERSEAS HWY MARATHON , FL 33050",-9024142.75965297,2841236.462030302
KEY WEST FIRE ST 3,1525 KENNEDY DR,KEY WEST,33040,MONROE,"-81.76562295,24.56159055",17R MH 22467 16620,MUNICIPAL,3367 25 00064570000000,DISASTER RECOVERY CENTER,"1525 KENNEDY DR KEY WEST , FL 33040",-9102107.51099466,2821991.2181680766
KEY WEST FIRE ST 1,1600 N ROOSEVELT BLVD,KEY WEST,33040,MONROE,"-81.78681180,24.55812877",17R MH 20319 16248,MUNICIPAL,0568 25 00064920000000,DISASTER RECOVERY CENTER,"1600 N ROOSEVELT BLVD KEY WEST , FL 33040",-9104466.243518962,2821567.520874587
KEY WEST FIRE ST 1,1600 N ROOSEVELT BLVD,KEY WEST,33040,MONROE,"-81.78681180,24.55812877",17R MH 20319 16248,MUNICIPAL,0568 25 00064920000000,DISASTER RECOVERY CENTER,"1600 N ROOSEVELT BLVD KEY WEST , FL 33040",-9104466.243518962,2821567.520874587
PECK CENTER (TENTATIVE - AGREEMENT BEING OBTAINED),516 S 10TH ST,FERNANDINA BEACH,32034,NASSAU,"-81.45774946,30.66396317",17R MP 56147 92450,MUNICIPAL,00-00-31-1800-0143-0082,DISASTER RECOVERY CENTER,"516 S 10TH ST FERNANDINA BEACH , FL 32034",-9067835.191380931,3589184.830223293
BRYCEVILLE COMMUNITY CENTER,7280 MOTES RD,BRYCEVILLE,32009,NASSAU,"-81.93478845,30.39213612",17R MP 10196 62609,,,DISASTER RECOVERY CENTER,"7280 MOTES RD BRYCEVILLE , FL 32009",-9120938.928970903,3554055.530148935
NASSAU COUNTY EOC,77150 CITIZENS CIR,YULEE,32097,NASSAU,"-81.63018519,30.61265568",17R MP 39596 86844,COUNTY,08-2N-27-0000-0003-0040,DISASTER RECOVERY CENTER,"77150 CITIZENS CIR YULEE , FL 32097",-9087030.64881497,3582546.622652681
FWB SENIOR COMMUNITY CENTER,31 MEMORIAL SW,FORT WALTON BEACH,32548,OKALOOSA,"-86.63075100,30.40951900",16R EU 35466 64222,,14-2S-24-2180-000A-0010,DISASTER RECOVERY CENTER,"31 MEMORIAL SW FORT WALTON BEACH , FL 32548",-9643691.088363806,3556299.054041899
ST. MARY'S CATHOLIC CHURCH & SCHOOL,110 ROBINWOOD DR SW,FORT WALTON BEACH,32548,OKALOOSA,"-86.61881066,30.40731030",16R EU 36613 63981,,14-2S-24-221E-000H-0010,DISASTER RECOVERY CENTER,"110 ROBINWOOD DR SW FORT WALTON BEACH , FL 32548",-9642361.89612611,3556013.9654276078
SENIOR PARK CENTER,205 STILLWELL BLVD,CRESTVIEW,32536,OKALOOSA,"-86.56036720,30.77493836",16R EV 42068 04742,MUNICIPAL,08-3N-23-0000-0001-002A,DISASTER RECOVERY CENTER,"205 STILLWELL BLVD CRESTVIEW , FL 32536",-9635855.999917207,3603554.9690633314
HEDRICK REC CENTER,132 JET DR. NW,FORT WALTON BEACH,32548,OKALOOSA,"-86.62328800,30.41601100",16R EU 36180 64944,MUNICIPAL,14-2S-24-1190-0000-00L1,DISASTER RECOVERY CENTER,"132 JET DR. NW FORT WALTON BEACH , FL 32548",-9642860.311019767,3557137.047355742
OKEECHOBEE COUNTY CIVIC CENTER,1750 HWY 98N,OKEECHOBEE,34974,OKEECHOBEE,"-80.82821900,27.22242900",17R NL 17009 11083,,2-27-37-35-0A00-00012-A000,DISASTER RECOVERY CENTER,"1750 HWY 98N OKEECHOBEE , FL 34974",-8997756.180799598,3151288.9038877357
OKEECHOBEE COUNTY EOC,707 NW 6TH ST,OKEECHOBEE,34972,OKEECHOBEE,"-80.83716658,27.24854672",17R NL 16119 13975,COUNTY,,DISASTER RECOVERY CENTER,"707 NW 6TH ST OKEECHOBEE , FL 34972",-8998752.22035054,3154558.8433413156
"2250 N ORANGE BLOSSOM TRAIL, ORLANDO, FL 32804 (FIXED)",2250 N ORANGE BLOSSOM TRAIL,ORLANDO,32804,ORANGE,"-81.40559183,28.57132923",17R MM 60333 60561,,,DISASTER RECOVERY CENTER,"2250 N ORANGE BLOSSOM TRAIL ORLANDO , FL 32804",-9062029.030512365,3321198.1687718006
ORANGE-RENAISSANCE SENIOR CENTER,3800 S ECONLOCKHATCHEE TRL,ORLANDO,32829,ORANGE,"-81.25866410,28.49689900",17R MM 74685 52275,,,DISASTER RECOVERY CENTER,"3800 S ECONLOCKHATCHEE TRL ORLANDO , FL 32829",-9045673.11014464,3311767.0627601696
ORANGE-CENTRAPLEX, , , ,ORANGE,"-81.38425100,28.54893800",17R MM 62412 58073,,,DISASTER RECOVERY CENTER,"    , FL  ",-9059653.379920209,3318360.2595395967
GOLDENROD FACILITY,1602 N GOLDENROD RD,ORLANDO,32807,ORANGE,"-81.28696303,28.56564319",17R MM 71933 59897,,,DISASTER RECOVERY CENTER,"1602 N GOLDENROD RD ORLANDO , FL 32807",-9048823.332879916,3320477.4513700726
ORANGE-VALENCIA STATE COLLEGE (FIXED),,ORLANDO,32801,ORANGE,"-81.45931720,28.52077770",17R MM 55057 54979,,,DISASTER RECOVERY CENTER," ORLANDO , FL 32801",-9068009.711085515,3314792.023688665
ORANGE-APOPKA SERVICE CENTER,1111 ROCK SPRINGS RD,APOPKA,32712,ORANGE,"-81.50778840,28.69993810",17R MM 50398 74847,,,DISASTER RECOVERY CENTER,"1111 ROCK SPRINGS RD APOPKA , FL 32712",-9073405.500351569,3337510.0311011244
VALENCIA COMMUNITY COLLEGE - WEST CAMPUS,,ORLANDO,32835,ORANGE,"-81.46481018,28.52120108",17R MM 54520 55028,STATE,282301000000002,DISASTER RECOVERY CENTER," ORLANDO , FL 32835",-9068621.186736865,3314845.6642099656
BALL FIELD BEHIND SENIOR CENTER,3101 17TH ST,SAINT CLOUD,34769,OSCEOLA,"-81.30611619,28.24045522",17R MM 69968 23877,OTHER PUBLIC,10-26-30-00U0-0030-0000,DISASTER RECOVERY CENTER,"3101 17TH ST SAINT CLOUD , FL 34769",-9050955.453064106,3279323.6546255327
GYMNASIUM-B,3001 17TH ST,SAINT CLOUD,34769,OSCEOLA,"-81.30682115,28.24175382",17R MM 69900 24021,OTHER PUBLIC,10-26-30-00U0-0030-0000,DISASTER RECOVERY CENTER,"3001 17TH ST SAINT CLOUD , FL 34769",-9051033.928343555,3279487.747643916
OSCEOLA COUNTY PUBLIC LIBRARY HART MEMORIAL,211 E DAKIN AVE,KISSIMMEE,34741,OSCEOLA,"-81.40378618,28.29190882",17R MM 60406 29605,MUNICIPAL,22-25-29-1591-0001-0020,DISASTER RECOVERY CENTER,"211 E DAKIN AVE KISSIMMEE , FL 34741",-9061828.025706416,3285826.9112626957
PARTIN TRIANGLE PARK,2830 NEPTUNE RD,KISSIMMEE,34744,OSCEOLA,"-81.32907323,28.25411775",17R MM 67720 25396,COUNTY,05-26-30-5210-0008-0080,DISASTER RECOVERY CENTER,"2830 NEPTUNE RD KISSIMMEE , FL 34744",-9053511.018869955,3281050.1654191576
OSCEOLA-HERITAGE PARK,1875 SILVER SPUR LN,KISSIMMEE ,34741,OSCEOLA,"-81.36902060,28.29895000",17R MM 63817 30374,,,DISASTER RECOVERY CENTER,"1875 SILVER SPUR LN KISSIMMEE  , FL 34741",-9057957.93950818,3286717.09587555
OSCEOLA COUNTY PUBLIC LIBRARY (BVL),405 BUENAVENTURA BLVD,KISSIMMEE,34743,OSCEOLA,"-81.35123052,28.33095110",17R MM 65572 33914,COUNTY,07-25-30-2703-0113-0070,DISASTER RECOVERY CENTER,"405 BUENAVENTURA BLVD KISSIMMEE , FL 34743",-9055977.557064177,3290763.5904885093
BUENAVENTURA COMMUNITY CENTER,501 FLORIDA PKWY,KISSIMMEE,34743,OSCEOLA,"-81.35231779,28.32714554",17R MM 65464 33493,COUNTY,07-25-30-2677-0001-00A0,DISASTER RECOVERY CENTER,"501 FLORIDA PKWY KISSIMMEE , FL 34743",-9056098.591222804,3290282.319173165
BUENAVENTURA COMMUNITY CENTER,419 BUENAVENTURA BLVD,KISSIMMEE,34743,OSCEOLA,"-81.35296567,28.33322544",17R MM 65402 34166,COUNTY,07-25-30-2703-0114-0380,DISASTER RECOVERY CENTER,"419 BUENAVENTURA BLVD KISSIMMEE , FL 34743",-9056170.712965675,3291051.224489522
OREN BROWN PARK,3511 BAKER DR,KISSIMMEE,34741,OSCEOLA,"-81.43934433,28.27548893",17R MM 56912 27798,COUNTY,29-25-29-4700-0001-1130,DISASTER RECOVERY CENTER,"3511 BAKER DR KISSIMMEE , FL 34741",-9065786.341296406,3283751.2489762045
OSCEOLA COUNTY PUBLIC LIBRARY VETERANS MEMORIAL,810 13TH ST,SAINT CLOUD,34769,OSCEOLA,"-81.27864825,28.24678063",17R MM 72665 24571,COUNTY,01-26-30-0001-0224-0010,DISASTER RECOVERY CENTER,"810 13TH ST SAINT CLOUD , FL 34769",-9047897.735917088,3280122.95962971
OSCEOLA COUNTY PUBLIC LIBRARY POINCIANA,101 N DOVERPLUM AVE,KISSIMMEE,34758,OSCEOLA,"-81.45275370,28.15129753",17R MM 55546 14045,COUNTY,25-26-28-6120-000A-0010,DISASTER RECOVERY CENTER,"101 N DOVERPLUM AVE KISSIMMEE , FL 34758",-9067279.065205937,3268062.3722467683
BELLE GLADE MUNICIPAL COMPLEX,SW 2ND STREET,BELLE GLADE,33430,PALM BEACH,"-80.66890547,26.68126415",17R NK 32941 51175,COUNTY,04374342010060013,DISASTER RECOVERY CENTER,"SW 2ND STREET BELLE GLADE , FL 33430",-8980021.4797272,3083706.042718325
CAROLYN SIMS CENTER (FIXED),225 NW 12th AVE,BOYNTON BEACH,33435,PALM BEACH,"-80.06753317,26.53807787",17R NK 92892 35612,,,DISASTER RECOVERY CENTER,"225 NW 12th AVE BOYNTON BEACH , FL 33435",-8913077.021753013,3065878.2715546554
WELLINGTON COMMUNITY CENTER,12165 W FOREST HILL BLVD,WEST PALM BEACH,33414,PALM BEACH,"-80.23828733,26.65310123",17R NK 75805 48240,MUNICIPAL,73414410000005020,DISASTER RECOVERY CENTER,"12165 W FOREST HILL BLVD WEST PALM BEACH , FL 33414",-8932085.287620049,3080197.7819658676
JUPITER COMMUNITY CENTER,210 MILITARY TRAIL,JUPITER,33458,PALM BEACH,"-80.10312746,26.93175506",17R NK 89039 79192,MUNICIPAL,30424101000007210,DISASTER RECOVERY CENTER,"210 MILITARY TRAIL JUPITER , FL 33458",-8917039.35934546,3114948.0294322595
PASCO-WELLS FARGO,11938 CURLEY ST,SAN ANTONIO,33576,PASCO,"-82.27385380,28.33153630",17R LM 75131 34588,,,DISASTER RECOVERY CENTER,"11938 CURLEY ST SAN ANTONIO , FL 33576",-9158683.510619804,3290837.5995804197
LAND O LAKE RECREATION CENTER,3032 COLLIER PARKWAY,LAND O LAKES,34639,PASCO,"-82.43215936,28.19933183",17R LM 59438 20113,COUNTY,1926290000007000020,DISASTER RECOVERY CENTER,"3032 COLLIER PARKWAY LAND O LAKES , FL 34639",-9176306.00478957,3274128.2960925237
TROUBLE CREEK SQUARE SHOPPING CENTER,4444 GRAND BLVD,NEW PORT RICHEY,34652,PASCO,"-82.72098333,28.22366042",17R LM 31125 23178,,1626170040037000034,DISASTER RECOVERY CENTER,"4444 GRAND BLVD NEW PORT RICHEY , FL 34652",-9208457.742213914,3277201.62785346
PASCO-VAC SUPER TARGET,16400 FL-54,ODESSA,33556,PASCO,"-82.54450540,28.18640800",17R LM 48392 18817,,,DISASTER RECOVERY CENTER,"16400 FL-54 ODESSA , FL 33556",-9188812.308870792,3272495.9662285913
PASCO COUNTY COMMUNITY SERVICES DEPT. (DADE CITY),13853 15TH ST,DADE CITY,33525,PASCO,"-82.19820333,28.36026164",17R LM 82579 37694,COUNTY,2124340010003000010,DISASTER RECOVERY CENTER,"13853 15TH ST DADE CITY , FL 33525",-9150262.139350666,3294470.9372114353
COMMUNITY SERVICE COMPLEX,8620 GALEN WILSON BLVD,PORT RICHEY,34668,PASCO,"-82.68193543,28.28313703",17R LM 35048 29714,COUNTY,1625260010024000020,DISASTER RECOVERY CENTER,"8620 GALEN WILSON BLVD PORT RICHEY , FL 34668",-9204110.95009362,3284718.0167015726
PALM HARBOR COMMUNITY ACTIVITY CENTER,1500 16TH STREET,PALM HARBOR,34683,PINELLAS,"-82.75726400,28.08159700",17R LM 27336 07487,COUNTY,15 28 01 13068 000 0010,DISASTER RECOVERY CENTER,"1500 16TH STREET PALM HARBOR , FL 34683",-9212496.48784852,3259265.2048047422
PINELLAS COUNTY EXTENSION,12520 ULMERTON ROAD,LARGO,33774,PINELLAS,"-82.81244500,27.88565900",17R LL 21591 85856,,15 30 08 70470 400 1601,DISASTER RECOVERY CENTER,"12520 ULMERTON ROAD LARGO , FL 33774",-9218639.208754387,3234565.638666711
EPICENTER/ST. PETERSBURG COLLEGE,13805 58th St N,CLEARWATER,33760,PINELLAS,"-82.71134081,27.89742955",17R LL 31563 87017,,,DISASTER RECOVERY CENTER,"13805 58th St N CLEARWATER , FL 33760",-9207384.342110846,3236048.145868325
"2431 TAMPA ROAD, PALM HARBOR, FL 34683 (FIXED)",2431 TAMPA ROAD,PALM HARBOR,34683,PINELLAS,"-82.74040191,28.06778076",17R LM 28971 05933,,,DISASTER RECOVERY CENTER,"2431 TAMPA ROAD PALM HARBOR , FL 34683",-9210619.40845909,3257522.083654517
DRC 10 - PARK STATION (PINELLAS PARK CHAMBER OF COMMERCE),5851 PARK BLVD,PINELLAS PARK,33781,PINELLAS,"-82.71424358,27.83958364",17R LL 31188 80612,MUNICIPAL,16 30 28 71064 000 0030,DISASTER RECOVERY CENTER,"5851 PARK BLVD PINELLAS PARK , FL 33781",-9207707.47705915,3228763.9696602463
HARDEE COUNTY AGRI-CIVIC CENTER,515 CIVIC CENTER DRIVE,WINTER HAVEN,33880,POLK,"-81.83470000,28.00000000",17R ML 17928 97483,STATE,252832000000011010,DISASTER RECOVERY CENTER,"515 CIVIC CENTER DRIVE WINTER HAVEN , FL 33880",-9109797.133182738,3248973.789538171
BARTOW CIVIC CENTER,2250 S FLORAL AVE,BARTOW,33830,POLK,"-81.84439000,27.87249900",17R ML 16878 83364,MUNICIPAL,253018000000012010,DISASTER RECOVERY CENTER,"2250 S FLORAL AVE BARTOW , FL 33830",-9110875.819157992,3232908.3198000705
POLK-WH STUART CONF CENTER, 1710 US HWY 17,BARTOW,33830,POLK,"-81.82631230,27.91306340",17R ML 18688 87846,,,DISASTER RECOVERY CENTER," 1710 US HWY 17 BARTOW , FL 33830",-9108863.41873104,3238017.488136765
ZOLFO SPRINGS CIVIC CENTER, ,WINTER HAVEN,33880,POLK,"-81.80573900,27.99999900",17R ML 20776 97463,,252834000000011010,DISASTER RECOVERY CENTER,"  WINTER HAVEN , FL 33880",-9106573.209483946,3248973.663443883
W. H. STUART CONFERENCE CENTER (FIXED),1702 US HWY 17,BARTOW,33830,POLK,"-81.82790688,27.87784098",17R ML 18504 83945,,,DISASTER RECOVERY CENTER,"1702 US HWY 17 BARTOW , FL 33830",-9109040.926100086,3233581.043247004
LAKELAND CIVIC CENTER,700 WEST LEMON ST,LAKELAND,33815,POLK,"-81.96293900,28.04184900",17R MM 05355 02212,,232813065000000011,DISASTER RECOVERY CENTER,"700 WEST LEMON ST LAKELAND , FL 33815",-9124072.633373287,3254251.016202136
EAGLE RIDGE MALL,451 EAGLE RIDGE DRIVE,LAKE WALES,33859,POLK,"-81.61586900,27.95411000",17R ML 39419 92271,,272916000000021010,DISASTER RECOVERY CENTER,"451 EAGLE RIDGE DRIVE LAKE WALES , FL 33859",-9085436.97774518,3243189.341501407
ST JOHNS RIVER STATE COLLEGE,5001 ST JOHNS AVE,PALATKA,32177,PUTNAM,"-81.68131598,29.64664699",17R MN 34056 79825,,10-10-26-0000-0010-0000,DISASTER RECOVERY CENTER,"5001 ST JOHNS AVE PALATKA , FL 32177",-9092722.502507152,3458209.9921978805
MELROSE PUBLIC LIBRARY,312 WYNNWOOD AVE,MELROSE,32666,PUTNAM,"-82.04565211,29.71248360",17R LN 98856 87384,COUNTY,05-09-23-005293-004-01,DISASTER RECOVERY CENTER,"312 WYNNWOOD AVE MELROSE , FL 32666",-9133280.21416031,3466645.57063676
INTERLACHEN PUBLIC LIBRARY,133 N COUNTY ROAD 315,INTERLACHEN,32148,PUTNAM,"-81.88712461,29.63236699",17R MN 14123 78378,COUNTY,10-10-24-0150-0070-0250,DISASTER RECOVERY CENTER,"133 N COUNTY ROAD 315 INTERLACHEN , FL 32148",-9115633.014542997,3456381.0391191654
"PUTNAM COUNTY FAIRGROUNDS EXPO CENTER, BLDG. 1 (FIXED)",118 FAIRGROUNDS RD,EAST PALATKA,32131,PUTNAM,"-81.58945328,29.64309192",17R MN 42945 79383,,,DISASTER RECOVERY CENTER,"118 FAIRGROUNDS RD EAST PALATKA , FL 32131",-9082496.393751046,3457754.641849736
WEST PUTNAM RECREATION COMPLEX,170 COUNTY ROAD 315,INTERLACHEN,32148,PUTNAM,"-81.88382025,29.61836732",17R MN 14431 76824,,,DISASTER RECOVERY CENTER,"170 COUNTY ROAD 315 INTERLACHEN , FL 32148",-9115265.174468873,3454588.2412134064
EDGAR JOHNSON SENIOR CENTER,1215 WESTOVER DR,PALATKA,32177,PUTNAM,"-81.65679755,29.63867190",17R MN 36424 78928,,,DISASTER RECOVERY CENTER,"1215 WESTOVER DR PALATKA , FL 32177",-9089993.123181213,3457188.5268059224
PALATKA PUBLIC LIBRARY,601 COLLEGE RD,PALATKA,32177,PUTNAM,"-81.68366129,29.64276461",17R MN 33826 79397,MUNICIPAL,10-10-26-0000-0010-0010,DISASTER RECOVERY CENTER,"601 COLLEGE RD PALATKA , FL 32177",-9092983.58104382,3457712.720151
CRESCENT CITY PUBLIC LIBRARY,610 N SUMMIT ST,CRESCENT CITY,32112,PUTNAM,"-81.51024178,29.43845174",17R MN 50513 56672,MUNICIPAL,19-12-28-3990-0010-0051,DISASTER RECOVERY CENTER,"610 N SUMMIT ST CRESCENT CITY , FL 32112",-9073678.609752499,3431570.3577918867
GALIMORE CENTER,399 RIBERIA ST,SAINT AUGUSTINE,32084,ST. JOHNS,"-81.31023000,29.87641900",17R MP 70041 05132,MUNICIPAL,2035000000,DISASTER RECOVERY CENTER,"399 RIBERIA ST SAINT AUGUSTINE , FL 32084",-9051413.39988944,3487674.5283843526
ST. JOHNS COUNTY AGRICULTURE CENTER WIND MITIGATION BUILDING (FIXED),3111 AGRICULTURAL CENTER DR,SAINT AUGUSTINE,32092,ST. JOHNS,"-81.41005435,29.90487222",17R MP 60413 08315,,,DISASTER RECOVERY CENTER,"3111 AGRICULTURAL CENTER DR SAINT AUGUSTINE , FL 32092",-9062525.795817673,3491327.9049603855
Willie Galimore Community Center,399 Riberia St,St Augustine,32084,ST. JOHNS,"-81.31285696,29.87918265",17R MP 69789 05439,,,DISASTER RECOVERY CENTER,"399 Riberia St St Augustine , FL 32084",-9051705.831442552,3488029.333703181
WORLD GOLF VILLAGE CONVENTION CENTER,500 S LEGACY TRL,SAINT AUGUSTINE,32092,ST. JOHNS,"-81.46772632,29.98977575",17R MP 54884 17744,COUNTY,0270100080,DISASTER RECOVERY CENTER,"500 S LEGACY TRL SAINT AUGUSTINE , FL 32092",-9068945.809594603,3502235.678601963
WORLD GOLF VILLAGE CONVENTION CENTER,500 S LEGACY TRL,SAINT AUGUSTINE,32092,ST. JOHNS,"-81.46772632,29.98977575",17R MP 54884 17744,COUNTY,0270100080,DISASTER RECOVERY CENTER,"500 S LEGACY TRL SAINT AUGUSTINE , FL 32092",-9068945.809594603,3502235.678601963
KETTERLINUS ELEMENTARY SCHOOL GYM,40 ORANGE ST,SAINT AUGUSTINE,32084,ST. JOHNS,"-81.31856718,29.89771618",17R MP 69243 07494,COUNTY,1961600000,DISASTER RECOVERY CENTER,"40 ORANGE ST SAINT AUGUSTINE , FL 32084",-9052341.49065898,3490408.976484318
WORLD GOLF VILLAGE CONVENTION CENTER,500 S LEGACY TRL,SAINT AUGUSTINE,32092,ST. JOHNS,"-81.46772632,29.98977575",17R MP 54884 17744,COUNTY,0270100080,DISASTER RECOVERY CENTER,"500 S LEGACY TRL SAINT AUGUSTINE , FL 32092",-9068945.809594603,3502235.678601963
WORLD GOLF VILLAGE CONVENTION CENTER,500 S LEGACY TRL,SAINT AUGUSTINE,32092,ST. JOHNS,"-81.46772632,29.98977575",17R MP 54884 17744,COUNTY,0270100080,DISASTER RECOVERY CENTER,"500 S LEGACY TRL SAINT AUGUSTINE , FL 32092",-9068945.809594603,3502235.678601963
WINDSTORM DAMAGE MITIGATION BUILDING,3111 AGRICULTURAL CENTER DR,ST AUGUSTINE,32092,ST. JOHNS,"-81.41189761,29.90577551",17R MP 60235 08415,,,DISASTER RECOVERY CENTER,"3111 AGRICULTURAL CENTER DR ST AUGUSTINE , FL 32092",-9062730.987009378,3491443.9041320295
MINSKY GYM,750 DARWIN BLVD,PORT SAINT LUCIE,34953,ST. LUCIE,"-80.37105953,27.24628912",17R NL 62264 13870,COUNTY,3420-711-0011-100-3,DISASTER RECOVERY CENTER,"750 DARWIN BLVD PORT SAINT LUCIE , FL 34953",-8946865.42156301,3154276.1614256124
ST. LUCIE COUNTY LOGISTICS,3855 S US HWY 1,FORT PIERCE,34982,ST. LUCIE,"-80.32841695,27.39056664",17R NL 66400 29874,COUNTY,2434-601-0046-000-8,DISASTER RECOVERY CENTER,"3855 S US HWY 1 FORT PIERCE , FL 34982",-8942118.470814139,3172353.207387518
SLC South County Annex,250 NW COUNTRY CLUB DR,PORT SAINT LUCIE,34986,ST. LUCIE,"-80.39765413,27.31570165",17R NL 59594 21546,COUNTY,3323-650-0004-000-6,DISASTER RECOVERY CENTER,"250 NW COUNTRY CLUB DR PORT SAINT LUCIE , FL 34986",-8949825.91918865,3162970.169651316
AMERICAN RED CROSS COAST TO HEARTLAND CHAPTER,2963 W MIDWAY RD,FORT PIERCE,34981,ST. LUCIE,"-80.35525506,27.37336730",17R NL 63756 27955,,,DISASTER RECOVERY CENTER,"2963 W MIDWAY RD FORT PIERCE , FL 34981",-8945106.0759552,3170197.004164794
TAYLOR CREEK COMMONS,1851 N US HIGHWAY 1,FORT PIERCE,34946,ST. LUCIE,"-80.33504825,27.46930162",17R NL 65698 38592,,,DISASTER RECOVERY CENTER,"1851 N US HIGHWAY 1 FORT PIERCE , FL 34946",-8942856.66425375,3182228.13678651
ST. LUCIE COUNTY RED CROSS CHAPTER,540 NW UNIVERSITY BLVD STE 107,PORT SAINT LUCIE,34986,ST. LUCIE,"-80.40223745,27.32137321",17R NL 59138 22172,,,DISASTER RECOVERY CENTER,"540 NW UNIVERSITY BLVD STE 107 PORT SAINT LUCIE , FL 34986",-8950336.131111454,3163680.7800604897
Ft Pierce Jai Alai,1750 S Kings Hwy,FORT PIERCE,34945,ST. LUCIE,"-80.39628840,27.43244714",17R NL 59667 34479,,,DISASTER RECOVERY CENTER,"1750 S Kings Hwy FORT PIERCE , FL 34945",-8949673.886408105,3177604.976161633
PAL BUILDING,2101 TIFFANY AVE,PORT SAINT LUCIE,34952,ST. LUCIE,"-80.28951300,27.29389100",17R NL 70307 19186,MUNICIPAL,3420-745-0002-000-1,DISASTER RECOVERY CENTER,"2101 TIFFANY AVE PORT SAINT LUCIE , FL 34952",-8937787.703178933,3160237.7727799104
Orange Blossom Mall Site,4204 Okeechobee Rd,FORT PIERCE,34947,ST. LUCIE,"-80.37052516,27.42733743",17R NL 62216 33925,PRIVATE,,DISASTER RECOVERY CENTER,"4204 Okeechobee Rd FORT PIERCE , FL 34947",-8946805.935664428,3176964.117680085
JAY COMMUNITY CENTER,5259 BOOKER LN,JAY,32565,SANTA ROSA,"-87.16038854,30.95185224",16R DV 84680 24277,MUNICIPAL,19-5N-29-0000-00300-0000,DISASTER RECOVERY CENTER,"5259 BOOKER LN JAY , FL 32565",-9702650.070003064,3626497.817284242
GULF BREEZE RECREATION CENTER,800 SHORELINE DR,GULF BREEZE,32561,SANTA ROSA,"-87.17759243,30.35477839",16R DU 82932 58112,MUNICIPAL,09-3S-29-0000-00200-0000,DISASTER RECOVERY CENTER,"800 SHORELINE DR GULF BREEZE , FL 32561",-9704565.197887115,3549235.3006153195
PENSACOLA STATE COLLEGE - MILTON CAMPUS,5988 US HWY 90,MILTON,32583,SANTA ROSA,"-87.07538257,30.60494817",16R DU 92774 85824,,,DISASTER RECOVERY CENTER,"5988 US HWY 90 MILTON , FL 32583",-9693187.248597506,3581549.7220903332
SANTA ROSA COUNTY ADMINISTRATIVE CENTER,6495 CAROLINE ST,MILTON,32570,SANTA ROSA,"-87.05027500,30.61554600",16R DU 95181 86997,COUNTY, ,DISASTER RECOVERY CENTER,"6495 CAROLINE ST MILTON , FL 32570",-9690392.286348773,3582920.480983957
SARASOTA-ST. DAVID'S CHURCH,401 S BROADWAY,ENGLEWOOD,34223,SARASOTA,"-82.35081350,26.95524580",17R LK 65918 82194,,,DISASTER RECOVERY CENTER,"401 S BROADWAY ENGLEWOOD , FL 34223",-9167250.625268096,3117881.414931275
DRC 16 - CITY HALL (COMMUNITY ROOM 114),401 W VENICE AVE,VENICE,34285,SARASOTA,"-82.45069140,27.09930745",17R LK 56186 98264,MUNICIPAL,0176-08-0001,DISASTER RECOVERY CENTER,"401 W VENICE AVE VENICE , FL 34285",-9178368.9820362,3135884.3907833933
TWIN LAKES PARK ROOM A,6700 CLARK ROAD,SARASOTA,34241,SARASOTA,"-82.43888146,27.26616894",17R LL 57570 16735,SPECIAL TAXING DISTRICT,0285-01-0001,DISASTER RECOVERY CENTER,"6700 CLARK ROAD SARASOTA , FL 34241",-9177054.305593517,3156765.579131503
ROBERT L. ANDERSON ADMINISTRATION CENTER,4000 TAMIAMI TRL,VENICE,34293,SARASOTA,"-82.40051963,27.04897368",17R LK 61099 92631,SPECIAL TAXING DISTRICT,0460-04-0001,DISASTER RECOVERY CENTER,"4000 TAMIAMI TRL VENICE , FL 34293",-9172783.88663673,3129591.69634738
NORTH BRANCH LIBRARY,150 N PALMETTO AVE,SANFORD,32771,SEMINOLE,"-81.26638270,28.81233981",17R MM 74007 87223,,,DISASTER RECOVERY CENTER,"150 N PALMETTO AVE SANFORD , FL 32771",-9046532.34058308,3351782.710545198
NORTHWEST BRANCH LIBRARY,580 GREEN WAY BLVD,LAKE MARY,32746,SEMINOLE,"-81.33927291,28.73440426",17R MM 66870 78607,,,DISASTER RECOVERY CENTER,"580 GREEN WAY BLVD LAKE MARY , FL 32746",-9054646.442281442,3341884.883517232
MUSEUM OF SEMINOLE COUNTY HISTORY,300 BUSH BLVD,SANFORD,32773,SEMINOLE,"-81.29913654,28.74319162",17R MM 70792 79570,,,DISASTER RECOVERY CENTER,"300 BUSH BLVD SANFORD , FL 32773",-9050178.481618717,3343000.510010185
EAST BRANCH LIBRARY,310 N DIVISION ST,OVIEDO,32765,SEMINOLE,"-81.20366416,28.67540121",17R MM 80101 72040,,,DISASTER RECOVERY CENTER,"310 N DIVISION ST OVIEDO , FL 32765",-9039550.545056244,3334396.3972241087
WEST BRANCH LIBRARY,245 HUNT CLUB BLVD,LONGWOOD,32779,SEMINOLE,"-81.44586922,28.69394939",17R MM 56444 74159,,062129300007C0000,DISASTER RECOVERY CENTER,"245 HUNT CLUB BLVD LONGWOOD , FL 32779",-9066512.688260376,3336750.0202933196
LAUREL MANOR RECREATIONAL CENTER,1985 LAUREL MANOR DR,LADY LAKE,32159,SUMTER,"-82.00241686,28.92660732",17R MN 02293 00267,,,DISASTER RECOVERY CENTER,"1985 LAUREL MANOR DR LADY LAKE , FL 32159",-9128467.28849063,3366308.1027922775
OLD WILDWOOD SHOPPING CENTER,322 SHOPPING CENTER DR,WILDWOOD,34785,SUMTER,"-82.04113890,28.85855802",17R LM 98452 92760,,G06=063,DISASTER RECOVERY CENTER,"322 SHOPPING CENTER DR WILDWOOD , FL 34785",-9132777.806846762,3357655.928167016
SUMTER-BUSHNELL SHOPPING CENTER,910 MAIN ST,BUSHNELL,33513,SUMTER,"-82.11304280,28.67625150",17R LM 91249 72624,,,DISASTER RECOVERY CENTER,"910 MAIN ST BUSHNELL , FL 33513",-9140782.111999495,3334504.2830542526
SAVANNAH CENTER,1545 BUENA VISTA BLVD,LADY LAKE,32162,SUMTER,"-81.99893155,28.95137574",17R MN 02655 03009,,D23A250,DISASTER RECOVERY CENTER,"1545 BUENA VISTA BLVD LADY LAKE , FL 32162",-9128079.305913389,3369458.710988379
COLONY COTTAGE REGIONAL RECREATIONAL CENTER,510 COLONY BLVD,FRUITLAND PARK,34731,SUMTER,"-81.96126357,28.86596232",17R MM 06250 93515,,,DISASTER RECOVERY CENTER,"510 COLONY BLVD FRUITLAND PARK , FL 34731",-9123886.125908913,3358597.0771671426
LAKE PANASOFFKEE RECREATIONAL CENTER,1582 COUNTY ROAD 459,LAKE PANASOFFKEE,33538,SUMTER,"-82.13029796,28.77536619",17R LM 89668 83622,,J05=096,DISASTER RECOVERY CENTER,"1582 COUNTY ROAD 459 LAKE PANASOFFKEE , FL 33538",-9142702.947497409,3347086.1338522914
BRANFORD HIGH SCHOOL,405 NE REYNOLDS ST,BRANFORD,32008,SUWANNEE,"-82.92465726,29.96397938",17R LP 14286 16352,COUNTY,1606S14E04271870000,DISASTER RECOVERY CENTER,"405 NE REYNOLDS ST BRANFORD , FL 32008",-9231130.619983045,3498920.5685385927
BRANFORD ELEMENTARY SCHOOL,26801 STATE ROAD 247,BRANFORD,32008,SUWANNEE,"-82.91850739,29.96393536",17R LP 14880 16337,COUNTY,1606S14E03953000000,DISASTER RECOVERY CENTER,"26801 STATE ROAD 247 BRANFORD , FL 32008",-9230446.02041773,3498914.911389807
SUWANNEE INTERMEDIATE SCHOOL,1419 WALKER AVE SW,LIVE OAK,32064,SUWANNEE,"-82.99525199,30.28345612",17R LP 08092 51880,COUNTY,2602S13E07869000000,DISASTER RECOVERY CENTER,"1419 WALKER AVE SW LIVE OAK , FL 32064",-9238989.189503785,3540037.7687305007
PERRY-FOLEY AIRPORT,511 INDUSTRIAL PARK DR,PERRY,32348,TAYLOR,"-83.57446774,30.07753363",17R KP 51849 30172,COUNTY,01050705928000,DISASTER RECOVERY CENTER,"511 INDUSTRIAL PARK DR PERRY , FL 32348",-9303467.192009864,3513519.967193139
STEINHATCHEE ELEMENTARY SCHOOL,1209 SE 1ST AVE,STEINHATCHEE,32359,TAYLOR,"-83.37577975,29.67330753",17R KN 70080 84946,,25090909756000,DISASTER RECOVERY CENTER,"1209 SE 1ST AVE STEINHATCHEE , FL 32359",-9281349.346088894,3461625.3142305287
WORTHINGTON SPRINGS COMMUNITY CENTER,3635 SW STATE ROAD 121,LAKE BUTLER,32054,UNION,"-82.42430137,29.92897507",17R LP 62524 11767,COUNTY, ,DISASTER RECOVERY CENTER,"3635 SW STATE ROAD 121 LAKE BUTLER , FL 32054",-9175431.25714267,3494423.5134529937
PROVIDENCE COMMUNITY CENTER,8562 SW 45TH CT,LAKE BUTLER,32054,UNION,"-82.54620645,30.00245533",17R LP 50866 20063,COUNTY, ,DISASTER RECOVERY CENTER,"8562 SW 45TH CT LAKE BUTLER , FL 32054",-9189001.66941704,3503865.457216829
LAKE BUTLER MIDDLE SCHOOL GYMNASIUM,150 SW 6TH ST,LAKE BUTLER,32054,UNION,"-82.33932259,30.01761176",17R LP 70842 21492,,31-05-20-00-000-0390-0,DISASTER RECOVERY CENTER,"150 SW 6TH ST LAKE BUTLER , FL 32054",-9165971.462621745,3505813.871744243
RAIFORD COMMUNITY CENTER,N COUNTY ROAD 121 & WHITTEN ST,RAIFORD,32083,UNION,"-82.23941383,30.06166161",17R LP 80530 26265,MUNICIPAL,18-05-21-00-000-0780-0,DISASTER RECOVERY CENTER,"N COUNTY ROAD 121 & WHITTEN ST RAIFORD , FL 32083",-9154849.670814749,3511478.3338048863
VOLUSIA COUNTY FAIRGROUNDS,3150 E. STATE RD. 44,DELAND,32724,VOLUSIA,"-81.22439000,29.01732900",17R MN 78148 09926,MUNICIPAL,31171802100500,DISASTER RECOVERY CENTER,"3150 E. STATE RD. 44 DELAND , FL 32724",-9041857.734786032,3377851.8131397674
DAYTONA STATE COLLEGE - DELAND CAMPUS,1156 COUNTY ROAD 4139,DELAND,32724,VOLUSIA,"-81.24315502,29.01199289",17R MN 76319 09338,STATE,30172400000012,DISASTER RECOVERY CENTER,"1156 COUNTY ROAD 4139 DELAND , FL 32724",-9043946.647741396,3377172.549178271
WAL-MART PARKING LOT,2400 VETERANS MEMORIAL PKWY,ORANGE CITY,32763,VOLUSIA,"-81.28114000,28.91324700",17R MM 72594 98406,,30182400000072,DISASTER RECOVERY CENTER,"2400 VETERANS MEMORIAL PKWY ORANGE CITY , FL 32763",-9048175.115831548,3364608.9486416564
SUNSHINE PARK MALL,2400 S. RIDGEWOOD AVE.,DAYTONA BEACH,32119,VOLUSIA,"-81.00019841,29.16581662",17R MN 99980 26356,,33154408030010,DISASTER RECOVERY CENTER,"2400 S. RIDGEWOOD AVE. DAYTONA BEACH , FL 32119",-9016900.840810202,3396767.7504865383
PAXTON FARM CENTER,21829 US HIGHWAY 331,LAUREL HILL,32567,WALTON,"-86.30326154,30.97294198",16R EV 66534 26811,,36-6N-21-40000-016-0000,DISASTER RECOVERY CENTER,"21829 US HIGHWAY 331 LAUREL HILL , FL 32567",-9607235.128148196,3629235.642029982
THE FREEPORT MIDDLE SCHOOL MEDIA CENTER,360 KYLEA LAIRD DR,FREEPORT,32439,WALTON,"-86.13366832,30.50020272",16R EU 83135 74532,COUNTY,15-1S-19-23000-017-0010,DISASTER RECOVERY CENTER,"360 KYLEA LAIRD DR FREEPORT , FL 32439",-9588356.097538415,3568009.647064739
COASTAL BRANCH LIBRARY,336 GREENWAY TRAIL,SANTA ROSA BEACH,32459,WALTON,"-86.18197600,30.37116300",16R EU 78602 60198,,31-2S-19-24000-001-0020,DISASTER RECOVERY CENTER,"336 GREENWAY TRAIL SANTA ROSA BEACH , FL 32459",-9593733.68380977,3551349.1634845454
BLUE LAKE COMMUNITY CENTER,1865 HWY 77,CHIPLEY,32428,WASHINGTON,"-85.55303200,30.74253300",16R FV 38513 01962,,00000000-00-2372-0000,DISASTER RECOVERY CENTER,"1865 HWY 77 CHIPLEY , FL 32428",-9523719.958141208,3599357.0998720927
POSSUM PALACE COMMUNITY CENTER,3121 POSSUM PALACE DRIVE,CHIPLEY,32428,WASHINGTON,"-85.58884705,30.63668744",16R FU 35231 90187,MUNICIPAL,00000000-00-3573-0001,DISASTER RECOVERY CENTER,"3121 POSSUM PALACE DRIVE CHIPLEY , FL 32428",-9527706.870931586,3585655.434398692
VJ COLLINS RECREATION CENTER,3892 DESALVO ROAD,CARYVILLE,32427,WASHINGTON,"-85.76147700,30.70089000",16R FU 18608 97108,COUNTY,00000000-00-4471-0002,DISASTER RECOVERY CENTER,"3892 DESALVO ROAD CARYVILLE , FL 32427",-9546923.949321333,3593964.637103429
EBRO TOWN HALL,6629 DOG TRACK RD,EBRO,32437,WASHINGTON,"-85.87325982,30.44049408",16R FU 08191 68136,MUNICIPAL,00000000-00-5226-0001,DISASTER RECOVERY CENTER,"6629 DOG TRACK RD EBRO , FL 32437",-9559367.55635464,3560297.8470996744
