Name,Address,City,Zip,COUNTY,LONGLAT,USNG,OWNERSHIP,PARCELID,FACILITY_TYPE,x,y
SHANDSCAIR EMS,1600 SW SHEALY DR,GAINESVILLE, ,ALACHUA,"-82.35107310,29.63311778",17R LN 69209 78895,,,EMERGENCY MEDICAL SERVICE,-9167279.524069127,3456477.1924705254
ALACHUA CO FIRE RESCUE HQ,911 SE 5TH ST,GAINESVILLE,32601,ALACHUA,"-82.31939272,29.64328610",17R LN 72289 79986,COUNTY,16001 002 000,EMERGENCY MEDICAL SERVICE,-9163752.879946794,3457779.513899003
GAINESVILLE FIRE RESCUE DEPT,1025 NE 13TH ST,GAINESVILLE,32601,ALACHUA,"-82.30834182,29.66056646",17R LN 73380 81889,MUNICIPAL,10515 010 003,EMERGENCY MEDICAL SERVICE,-9162522.699354593,3459993.019443484
SHANDS AIR AMBULANCE,1600 SW SHEALY DR,GAINESVILLE,32608,ALACHUA,"-82.35067738,29.63516272",17R LN 69250 79121,PRIVATE,15505 002 002,EMERGENCY MEDICAL SERVICE,-9167235.472239489,3456739.0904183798
BAKER CO EMS,1190 W MACCLENNY AVE,MACCLENNY,32063,BAKER,"-82.13964792,30.27944278",17R LP 90389 50300,COUNTY,312S22000000000387,EMERGENCY MEDICAL SERVICE,-9143743.779880293,3539520.41809714
BAKER CO EMS STATION 2,14275 W US 90,SANDERSON,32087,BAKER,"-82.27369681,30.24958987",17R LP 77458 47128,COUNTY,123S20005000420010,EMERGENCY MEDICAL SERVICE,-9158666.034330688,3535672.8078384777
EMS STATION 4,11711 US HIGHWAY 231,YOUNGSTOWN,32466,BAY,"-85.43927033,30.36021161",16R FU 49991 59733,COUNTY,03631-020-000,EMERGENCY MEDICAL SERVICE,-9511056.066451533,3549936.2295387792
EMS STATION 3,827 OHIO AVE,LYNN HAVEN,32444,BAY,"-85.64838642,30.24591479",16R FU 30043 46807,COUNTY,09611-000-000,EMERGENCY MEDICAL SERVICE,-9534334.7639388,3535199.223819334
EMS STATION 8,17109 PANAMA CITY BEACH PKWY,PANAMA CITY BEACH,32413,BAY,"-85.89008904,30.23036719",16R FU 06803 44833,COUNTY,33387-000-000,EMERGENCY MEDICAL SERVICE,-9561240.976423673,3533195.9005089263
BAY MEDICAL EMS,518 N COVE BLVD,PANAMA CITY,32401,BAY,"-85.65001574,30.15788917",16R FU 30002 37050,COUNTY,20802-000-000,EMERGENCY MEDICAL SERVICE,-9534516.138979005,3523861.211831567
EMS STATION 7,489 N TYNDALL PKWY,PANAMA CITY,32404,BAY,"-85.59151594,30.15664497",16R FU 35637 36980,COUNTY,24407-000-000,EMERGENCY MEDICAL SERVICE,-9528003.970935393,3523701.027215352
EMS STATION 2,10005 HUTCHISON BLVD,PANAMA CITY BEACH,32407,BAY,"-85.80406679,30.18100588",16R FU 15139 39446,COUNTY,34881-050-000,EMERGENCY MEDICAL SERVICE,-9551665.022978721,3526837.744177986
CHIPOLA AVIATION AIR AMBULANCE,1001 JACKSON WAY,PANAMA CITY,32405,BAY,"-85.67595525,30.21230622",16R FU 27433 43052,PRIVATE,11730-000-000,EMERGENCY MEDICAL SERVICE,-9537403.711372374,3530869.123558004
BRADFORD COUNTY EMS,945B N TEMPLE AVE,STARKE,32091,BRADFORD,"-82.10951247,29.95431514",17R LP 92937 14240,COUNTY,02405-0-00000,EMERGENCY MEDICAL SERVICE,-9140389.117734062,3497678.83119029
BREVARD CO FIRE RESCUE ST 86 EMS,301 BAREFOOT BLVD,SEBASTIAN,32976,BREVARD,"-80.50591561,27.88308082",17R NL 48632 84348,COUNTY,30 381100  532,EMERGENCY MEDICAL SERVICE,-8961877.531651216,3234240.9368839166
BREVARD CO FIRE RESCUE ST 63 EMS,2602 N STATE ROAD A1A,INDIALANTIC,32903,BREVARD,"-80.57864295,28.12748600",17R NM 41380 11396,COUNTY,27 371300  759,EMERGENCY MEDICAL SERVICE,-8969973.50247165,3265056.3863528688
BREVARD CO FIRE RESCUE ST 82 EMS,109 PINE ST,MELBOURNE,32904,BREVARD,"-80.67046723,28.07966927",17R NM 32376 06071,COUNTY,28 370626        75,EMERGENCY MEDICAL SERVICE,-8980195.333746064,3259021.979686549
BREVARD CO FIRE RESCUE ST 44 EMS,3780 KING ST,COCOA,32926,BREVARD,"-80.78352995,28.35917987",17R NM 21212 37010,COUNTY,24 353600  262,EMERGENCY MEDICAL SERVICE,-8992781.418351315,3294334.0903255222
BREVARD CO FIRE RESCUE ST 23 EMS,770 SOUTH ST,TITUSVILLE,32780,BREVARD,"-80.82007011,28.60621618",17R NM 17591 64372,COUNTY,22 350476         1,EMERGENCY MEDICAL SERVICE,-8996849.050823897,3325621.0134997317
BREVARD CO FIRE RESCUE ST 67 EMS,11 NIEMAN AVE,MELBOURNE,32935,BREVARD,"-80.62773128,28.10747567",17R NM 36566 09164,COUNTY,,EMERGENCY MEDICAL SERVICE,-8975437.990348121,3262530.783023371
BREVARD CO FIRE RESCUE ST 80 EMS,400 PINEDA CT,MELBOURNE,32940,BREVARD,"-80.67679596,28.22591177",17R NM 31711 22270,COUNTY,26 361300   11,EMERGENCY MEDICAL SERVICE,-8980899.844956176,3277486.067145762
BREVARD CO FIRE RESCUE ST 48 EMS,5550 PORADA DR,VIERA,32940,BREVARD,"-80.73844443,28.26453698",17R NM 25653 26534,COUNTY,,EMERGENCY MEDICAL SERVICE,-8987762.520865206,3282366.974609382
BREVARD CO FIRE RESCUE ST 83 EMS,5148 MINTON ROAD,PALM BAY,32907,BREVARD,"-80.67219673,28.03054178",17R NM 32221 00628,COUNTY,28 3624KR 2472   33,EMERGENCY MEDICAL SERVICE,-8980387.860637898,3252824.955627841
BREVARD CO FIRE RESCUE ST 64 EMS,2550 S STATE ROAD A1A,MELBOURNE BEACH,32951,BREVARD,"-80.54768705,28.04587920",17R NM 44453 02367,COUNTY,28 381700  250,EMERGENCY MEDICAL SERVICE,-8966527.507514896,3254759.3396018893
BREVARD CO FIRE RESCUE ST 88 EMS,175 MEDPLEX PKWY,PALM BAY,32907,BREVARD,"-80.61231258,28.00114587",17R NL 38118 97389,COUNTY,28 373400  754,EMERGENCY MEDICAL SERVICE,-8973721.587795205,3249118.2580648707
BREVARD CO FIRE RESCUE ST 41 EMS,300 ALMA BLVD,MERRITT ISLAND,32953,BREVARD,"-80.70720152,28.38392034",17R NM 28686 39767,COUNTY,24 362300  251,EMERGENCY MEDICAL SERVICE,-8984284.576160002,3297464.155972437
BREVARD CO FIRE RESCUE ST 24 EMS,2280 COLUMBIA BLVD,TITUSVILLE,32780,BREVARD,"-80.82962485,28.54225220",17R NM 16667 57284,COUNTY,22 353300  254,EMERGENCY MEDICAL SERVICE,-8997912.679556645,3317513.0053719007
BREVARD CO FIRE RESCUE ST 62 EMS,299 SEA PARK BLVD,SATELLITE BEACH,32937,BREVARD,"-80.60332493,28.20381377",17R NM 38928 19843,COUNTY,26 372300  501,EMERGENCY MEDICAL SERVICE,-8972721.087395031,3274694.4289269326
BREVARD CO FIRE RESCUE ST 45 EMS,113 LONGWOOD AVE,ROCKLEDGE,32955,BREVARD,"-80.72329770,28.33431213",17R NM 27121 34267,COUNTY,25 360478    3    6,EMERGENCY MEDICAL SERVICE,-8986076.394666275,3291188.658933747
BREVARD CO FIRE RESCUE ST 66 EMS,1695 AURORA RD,MELBOURNE,32935,BREVARD,"-80.64865297,28.13564493",17R NM 34502 12278,COUNTY,27 371700  500,EMERGENCY MEDICAL SERVICE,-8977766.9818889,3266086.3003413486
BREVARD CO FIRE RESCUE ST 84 EMS,1391 CLEARMONT ST NE,PALM BAY,32905,BREVARD,"-80.60507957,28.03128164",17R NM 38818 00730,COUNTY,28 3723FN    5    1,EMERGENCY MEDICAL SERVICE,-8972916.4132002,3252918.261444044
BREVARD CO FIRE RESCUE ST 81 EMS,4630 LAKE WASHINGTON RD,MELBOURNE,32934,BREVARD,"-80.70290258,28.14667906",17R NM 29171 13486,COUNTY,27 361100  530,EMERGENCY MEDICAL SERVICE,-8983806.020915225,3267479.280848817
BREVARD CO FIRE RESCUE ST 22 EMS,2475 TAYLOR ST,MIMS,32754,BREVARD,"-80.84568104,28.66614879",17R NM 15078 71008,COUNTY,21 351751        18,EMERGENCY MEDICAL SERVICE,-8999700.046444857,3333222.4911268773
COASTAL HEALTH SYSTEM - BREVARD AMBULANCE,486 GUS HIPP BLVD,ROCKLEDGE,32955,BREVARD,"-80.71731031,28.30457447",17R NM 27716 30974,OTHER PUBLIC,25 361500  524,EMERGENCY MEDICAL SERVICE,-8985409.881827766,3287428.214486385
PALM BAY FD ST 2 EMS,150 MALABAR RD SE,PALM BAY,32909,BREVARD,"-80.66914123,27.99874865",17R NL 32531 97107,MUNICIPAL,29 3706GK    A,EMERGENCY MEDICAL SERVICE,-8980047.724364063,3248816.023500342
PALM BAY FD ST 4 EMS,1200 SAN FILIPPO DR SE,PALM BAY,32909,BREVARD,"-80.62856893,27.95195995",17R NL 36536 91936,MUNICIPAL,29 3721GR    D,EMERGENCY MEDICAL SERVICE,-8975531.236684745,3242918.387240068
PALM BAY FD ST 5 EMS,37 SAN FILIPPO DR SE,PALM BAY,32909,BREVARD,"-80.63424827,27.99340539",17R NL 35963 96525,MUNICIPAL,29 3704MZ    R,EMERGENCY MEDICAL SERVICE,-8976163.458182387,3248142.385412607
MELBOURNE FD ST 74 EMS,1500 HICKORY ST,MELBOURNE,32901,BREVARD,"-80.61398004,28.08482653",17R NM 37924 06659,MUNICIPAL,28 3703FG    N    1,EMERGENCY MEDICAL SERVICE,-8973907.20936612,3259672.689588263
BREVARD CO FIRE RESCUE ST 47 EMS,7225 MURRELL RD,MELBOURNE,32940,BREVARD,"-80.71298288,28.23450306",17R NM 28158 23213,COUNTY,26 361000  759,EMERGENCY MEDICAL SERVICE,-8984928.154393313,3278571.5604581763
BREVARD CO FIRE RESCUE ST 26 EMS,6655 CAROLE AVE,COCOA,32927,BREVARD,"-80.78090436,28.47649236",17R NM 21446 50007,COUNTY,23 3513JZ  369    7,EMERGENCY MEDICAL SERVICE,-8992489.138827542,3309182.4855360864
BREVARD CO FIRE RESCUE ST 43 EMS,902 AIRPORT RD,MERRITT ISLAND,32952,BREVARD,"-80.68849312,28.34018082",17R NM 30531 34926,COUNTY,25 360100    4,EMERGENCY MEDICAL SERVICE,-8982201.966971664,3291930.902174973
KSC/CCAFS FIRE RESCUE EMS,BLDG K6-1198 SGS-322,PATRICK AFB,32925,BREVARD,"-80.57844602,28.49186668",17R NM 41258 51763,FEDERAL,,EMERGENCY MEDICAL SERVICE,-8969951.579391813,3311129.653772241
CAPE CANAVERAL FD ST 53 EMS,190 JACKSON AVE,CAPE CANAVERAL,32920,BREVARD,"-80.60442080,28.38749849",17R NM 38754 40192,MUNICIPAL,24 3723CG   25   15,EMERGENCY MEDICAL SERVICE,-8972843.079556122,3297916.910476191
MELBOURNE FD ST 71 EMS,865 W EAU GALLIE BLVD,MELBOURNE,32935,BREVARD,"-80.63267893,28.12862039",17R NM 36073 11504,MUNICIPAL,27 372128        72,EMERGENCY MEDICAL SERVICE,-8975988.75977829,3265199.577228712
BREVARD CO FIRE RESCUE ST 61 EMS,45 S ORLANDO AVE,COCOA BEACH,32931,BREVARD,"-80.60976481,28.31774413",17R NM 38255 32463,MUNICIPAL,25 3714DD   32   22,EMERGENCY MEDICAL SERVICE,-8973437.971165612,3289093.4401600654
PALM BAY FD ST 3 EMS,790 JUPITER BLVD NW,PALM BAY,32907,BREVARD,"-80.69702005,28.02386602",17R NL 29783 99883,MUNICIPAL,28 3626KN 2132    3,EMERGENCY MEDICAL SERVICE,-8983151.180555789,3251983.08151619
SATELLITE BEACH FD ST 55 EMS,1390 S PATRICK DR,SATELLITE BEACH,32937,BREVARD,"-80.60637995,28.17250733",17R NM 38640 16374,MUNICIPAL,26 3734EC        15,EMERGENCY MEDICAL SERVICE,-8973061.171177097,3270740.478165642
TITUSVILLE FD ST 13 EMS,4715 BARNA AVE,TITUSVILLE,32780,BREVARD,"-80.82209050,28.55595503",17R NM 17401 58803,MUNICIPAL,22 352801    3    1,EMERGENCY MEDICAL SERVICE,-8997073.959708478,3319249.5464623636
LAUDERHILL FIRE RESCUE,1900 NW 56TH AVE,FORT LAUDERDALE,33313,BROWARD,"-80.22439493,26.15074756",17R NJ 77522 92609,MUNICIPAL,494126240010,EMERGENCY MEDICAL SERVICE,-8930538.793003356,3017763.6858297354
DEERFIELD BEACH FIRE RESCUE,928 E HILLSBORO BLVD,DEERFIELD BEACH,33441,BROWARD,"-80.09141970,26.31773347",17R NK 90684 11190,MUNICIPAL,484306000050,EMERGENCY MEDICAL SERVICE,-8915736.058226513,3038487.1118449853
DAVIE FIRE RESCUE,6901 SW 45TH ST,FORT LAUDERDALE,33314,BROWARD,"-80.23940273,26.06632124",17R NJ 76077 83250,MUNICIPAL,504127230010,EMERGENCY MEDICAL SERVICE,-8932209.453926627,3007297.43456394
BROWARD SHERIFF OFFICE,10550 STIRLING RD,HOLLYWOOD,33026,BROWARD,"-80.28573982,26.04401555",17R NJ 71455 80753,MUNICIPAL,514106080010,EMERGENCY MEDICAL SERVICE,-8937367.674355498,3004533.479187101
NORTH LAUDERDALE FIRE RESCUE ST 44,7700 HAMPTON BLVD,POMPANO BEACH,33068,BROWARD,"-80.23027632,26.21025488",17R NJ 76895 99196,MUNICIPAL,494102150100,EMERGENCY MEDICAL SERVICE,-8931193.50573707,3025145.301485022
PEMBROKE PINES FIRE/RESCUE,9500 PINES BLVD,HOLLYWOOD,33025,BROWARD,"-80.27167741,26.00777101",17R NJ 72885 76747,MUNICIPAL,514117010030,EMERGENCY MEDICAL SERVICE,-8935802.254667008,3000043.4481249144
TAMARAC FIRE RESC,6000 HIATUS RD,FORT LAUDERDALE,33321,BROWARD,"-80.28756104,26.19935863",17R NJ 71179 97957,MUNICIPAL,494107030010,EMERGENCY MEDICAL SERVICE,-8937570.411490325,3023793.3879752266
MIRAMAR FIRE RESCUE AMBULANCE ST 70,8909 MIRAMAR PKWY,HOLLYWOOD,33025,BROWARD,"-80.26481142,25.98147070",17R NJ 73588 73838,MUNICIPAL,514129010100,EMERGENCY MEDICAL SERVICE,-8935037.93546468,2996786.191336238
CORAL SPRINGS FIRE RESCUE,2801 CORAL SPRINGS DRIVE,POMPANO BEACH,33065,BROWARD,"-80.26527068,26.26533735",17R NK 73365 05276,MUNICIPAL,484121310010,EMERGENCY MEDICAL SERVICE,-8935089.060909893,3031981.397413913
POMPANO BEACH FIRE RESCUE,120 SW 3RD ST,POMPANO BEACH,33060,BROWARD,"-80.12532741,26.22509674",17R NK 87369 00906,MUNICIPAL,494202400010,EMERGENCY MEDICAL SERVICE,-8919510.647305308,3026986.9549369854
HALLANDALE BEACH FIRE RESCUE STATION 7,121 SW 3RD ST,HALLANDALE,33009,BROWARD,"-80.15005321,25.98160155",17R NJ 85075 73922,MUNICIPAL,514227010361,EMERGENCY MEDICAL SERVICE,-8922263.110356946,2996802.3950302806
HALLANDALE FIRE RESCUE ST 60,2801 E HALLANDALE BEACH BLVD,HOLLYWOOD,33019,BROWARD,"-80.11838912,25.98627983",17R NJ 88241 74461,MUNICIPAL,514226010210,EMERGENCY MEDICAL SERVICE,-8918738.279974192,2997381.740352648
NORTH LAUDERDALE FIRE RESCUE ST 34,6151 BAILEY RD,POMPANO BEACH,33068,BROWARD,"-80.20680427,26.20140342",17R NJ 79246 98230,MUNICIPAL,494112160030,EMERGENCY MEDICAL SERVICE,-8928580.609335639,3024047.07884208
SUNRISE FIRE/RESCUE,10770 W OAKLAND PARK BLVD,FORT LAUDERDALE,33351,BROWARD,"-80.29294875,26.16901997",17R NJ 70659 94594,MUNICIPAL,494119020010,EMERGENCY MEDICAL SERVICE,-8938170.168670302,3020029.894395916
HOLLYWOOD FIRE & RESCUE,2741 STIRLING ROAD,FORT LAUDERDALE,33312,BROWARD,"-80.17789980,26.04808584",17R NJ 82242 81268,MUNICIPAL,504232240010,EMERGENCY MEDICAL SERVICE,-8925362.978559837,3005037.799876919
DANIA BEACH FIRE RESCUE,116 W DANIA BEACH BLVD,DANIA BEACH,33004,BROWARD,"-80.14533493,26.05261579",17R NJ 85496 81790,MUNICIPAL,504234620010,EMERGENCY MEDICAL SERVICE,-8921737.873761015,3005599.0949386004
OAKLAND PARK FIRE/RESC,2100 NW 39TH ST,FORT LAUDERDALE,33309,BROWARD,"-80.17130723,26.17379384",17R NJ 82813 95194,MUNICIPAL,494220050010,EMERGENCY MEDICAL SERVICE,-8924629.097132731,3020622.026286069
MARGATE FIRE/RESC,600 N ROCK ISLAND RD,POMPANO BEACH,33063,BROWARD,"-80.22124951,26.23905886",17R NK 77778 02392,MUNICIPAL,484135012670,EMERGENCY MEDICAL SERVICE,-8930188.646736339,3028719.6606900846
PLANTATION FIRE RESCUE HEADQUARTERS,550 NW 65TH AVE,FORT LAUDERDALE,33317,BROWARD,"-80.23632002,26.12860568",17R NJ 76345 90150,MUNICIPAL,504103071390,EMERGENCY MEDICAL SERVICE,-8931866.28808435,3015018.04611846
MIRAMAR FIRE RESCUE AMBULANCE ST 19,6700 MIRAMAR PKWY,HOLLYWOOD,33023,BROWARD,"-80.22074960,25.98162934",17R NJ 77999 73881,MUNICIPAL,514126030010,EMERGENCY MEDICAL SERVICE,-8930132.996283289,2996805.8358179242
HALLANDALE BEACH FIRE RESCUE STATION 90,101 THREE ISLANDS BLVD,HALLANDALE,33009,BROWARD,"-80.12645396,25.98770861",17R NJ 87433 74614,MUNICIPAL,514223120030,EMERGENCY MEDICAL SERVICE,-8919636.054064533,2997558.6819292814
MIRAMAR FIRE RESCUE AMBULANCE ST 100,2800 SW 184TH AVE,HOLLYWOOD,33029,BROWARD,"-80.39279938,25.98234744",17R NJ 60777 73870,MUNICIPAL,513925030020,EMERGENCY MEDICAL SERVICE,-8949285.490846667,2996894.7618857725
BROWARD SHERIFF FIRE RESCUE,3461 NW 43RD AVE,FORT LAUDERDALE,33319,BROWARD,"-80.20657479,26.16927664",17R NJ 79291 94672,MUNICIPAL,494124060010,EMERGENCY MEDICAL SERVICE,-8928555.06416123,3020061.730071142
LIGHTHOUSE POINT FIRE RESCUE,3740 NE 22ND AVE,POMPANO BEACH,33064,BROWARD,"-80.09370416,26.27634896",17R NK 90489 06605,MUNICIPAL,484318020040,EMERGENCY MEDICAL SERVICE,-8915990.362467315,3033348.3994948296
AERO JET INTERNATIONAL,1707 S PERIMETER RD HANGER 33B,FORT LAUDERDALE,33309,BROWARD,"-80.16597462,26.18991968",17R NJ 83334 96984,PRIVATE,494209290220,EMERGENCY MEDICAL SERVICE,-8924035.47319873,3022622.386588748
AMERICAN AMBULANCE SERVICE INC,2570 S PARK RD,HALLANDALE,33009,BROWARD,"-80.17115999,25.98743161",17R NJ 82958 74554,PRIVATE,514229000121,EMERGENCY MEDICAL SERVICE,-8924612.705923159,2997524.3773534405
MEDICS AMB SVC,3200 N ANDREWS AVE,FORT LAUDERDALE,33334,BROWARD,"-80.14615164,26.16761672",17R NJ 85331 94526,PRIVATE,494222030090,EMERGENCY MEDICAL SERVICE,-8921828.78922761,3019855.8461160855
AIR AMBULANCE PROFESSIONALS,1535 S PERIMETER RD HANGER 36B,FORT LAUDERDALE,33309,BROWARD,"-80.16479233,26.18997862",17R NJ 83452 96991,PRIVATE,494209290220,EMERGENCY MEDICAL SERVICE,-8923903.86200725,3022629.6985432515
FLORIDA MEDICAL EMERGENCY CENTER AT DAVIE OFFSITE,10230 W SR 84,DAVIE,33324,BROWARD,,,,,EMERGENCY MEDICAL SERVICE,-8937316.887223324,3012219.4237146713
NATIONAL AIR AMBULANCE,3495 SW 9TH AVE,FORT LAUDERDALE,33315,BROWARD,"-80.15244557,26.08207132",17R NJ 84764 85048,PRIVATE,504222000160,EMERGENCY MEDICAL SERVICE,-8922529.42620566,3009249.3840342676
EMERGYSTAT OF CALHOUN COUNTY,17617 STATE ROAD 20 W,BLOUNTSTOWN,32424,CALHOUN,"-85.09387689,30.43180616",16R FU 83056 68177,PRIVATE,01-1S-09-0000-0033-0000,EMERGENCY MEDICAL SERVICE,-9472607.045088347,3559176.133893276
AIR TREK MEDICAL TRANSPORT,28000 AIRPORT RD STE A5,PUNTA GORDA,33982,CHARLOTTE,"-81.99912948,26.91717005",17R MK 00795 77652,PRIVATE,412315200001,EMERGENCY MEDICAL SERVICE,-9128101.339221817,3113127.0476066577
CHARLOTTE COUNTY FIRE & EMS ST 11,27055 RUSHMORE AVE,PUNTA GORDA,33983,CHARLOTTE,"-82.00665411,26.98756317",17R MK 00110 85455,COUNTY,402322102003,EMERGENCY MEDICAL SERVICE,-9128938.9775498,3121918.0171141755
CHARLOTTE COUNTY FIRE & EMS ST 9,12900 STATE ROAD 31,PUNTA GORDA,33982,CHARLOTTE,"-81.76000474,26.79966427",17R MK 24461 64472,COUNTY,422524400006,EMERGENCY MEDICAL SERVICE,-9101482.094468934,3098464.664868058
CHARLOTTE COUNTY FIRE & EMS ST 10,101 GASPARILLA WAY,PLACIDA,33946,CHARLOTTE,"-82.31549256,26.86825209",17R LK 69324 72521,COUNTY,412033179003,EMERGENCY MEDICAL SERVICE,-9163318.716176433,3107021.209138163
CHARLOTTE COUNTY FIRE & EMS ST 5,26287 NOTRE DAME BLVD,PUNTA GORDA,33955,CHARLOTTE,"-82.01466646,26.86064017",17R LK 99202 71403,COUNTY,412333453001,EMERGENCY MEDICAL SERVICE,-9129830.907687267,3106071.3427420664
CHARLOTTE COUNTY FIRE & EMS ST 12,2001 LUTHER RD,PUNTA GORDA,33983,CHARLOTTE,"-82.03569363,27.00164874",17R LK 97241 87039,COUNTY,402317126001,EMERGENCY MEDICAL SERVICE,-9132171.641727164,3123677.738245688
CHARLOTTE COUNTY FIRE & EMS ST 6,27287 DISSTON AVE,PUNTA GORDA,33982,CHARLOTTE,"-81.99200963,26.95479031",17R MK 01535 81814,COUNTY,402335156001,EMERGENCY MEDICAL SERVICE,-9127308.760892566,3117824.530044363
CHARLOTTE COUNTY FIRE & EMS ST 4,13600 MARATHON BLVD,PORT CHARLOTTE,33981,CHARLOTTE,"-82.22314541,26.91739679",17R LK 78551 77873,COUNTY,412108478002,EMERGENCY MEDICAL SERVICE,-9153038.678026304,3113155.3551655584
CHARLOTTE COUNTY FIRE & EMS ST 2,1493 COLLINGSWOOD BLVD,PORT CHARLOTTE,33948,CHARLOTTE,"-82.15683476,27.00460789",17R LK 85224 87471,COUNTY,402112478019,EMERGENCY MEDICAL SERVICE,-9145657.011205187,3124047.4558334146
ENGLEWOOD FIRE DEPT STATION 76,9495 PLACIDA RD,PLACIDA,33946,CHARLOTTE,"-82.28773662,26.85174180",17R LK 72063 70663,COUNTY,422002156001,EMERGENCY MEDICAL SERVICE,-9160228.939083135,3104961.0251292596
AMBITRANS MEDICAL TRANSPORT,22093 KIMBLE AVE,PORT CHARLOTTE,33952,CHARLOTTE,"-82.08716392,26.97597783",17R LK 92110 84238,PRIVATE,402223311001,EMERGENCY MEDICAL SERVICE,-9137901.288524197,3120470.816607889
CHARLOTTE COUNTY FIRE & EMS ST 7,27437 MOONEY AVE,PUNTA GORDA,33982,CHARLOTTE,"-82.00069298,26.92213422",17R MK 00644 78203,MUNICIPAL,412310300001,EMERGENCY MEDICAL SERVICE,-9128275.38765742,3113746.8125668955
CHARLOTTE COUNTY FIRE & EMS ST 3,4322 EL JOBEAN RD,PORT CHARLOTTE,33953,CHARLOTTE,"-82.21025133,26.96618917",17R LK 79883 83265,COUNTY,402128412002,EMERGENCY MEDICAL SERVICE,-9151603.31562472,3119248.166910781
CHARLOTTE COUNTY FIRE & EMS ST 1,3631 TAMIAMI TRL,PORT CHARLOTTE,33952,CHARLOTTE,"-82.09212497,26.97616611",17R LK 91617 84264,COUNTY,402222435016,EMERGENCY MEDICAL SERVICE,-9138453.549967432,3120494.335470439
CHARLOTTE COUNTY FIRE & EMS ST 8,21500 CLINTON AVE,PORT CHARLOTTE,33954,CHARLOTTE,"-82.09155782,27.02629665",17R LK 91722 89816,MUNICIPAL,402203283001,EMERGENCY MEDICAL SERVICE,-9138390.415006027,3126757.5517996876
CHARLOTTE COUNTY FIRE & EMS ST 15,13190 EISENHOWER RD,PORT CHARLOTTE,33953,CHARLOTTE,"-82.23303590,27.01030245",17R LK 77669 88174,MUNICIPAL,402108327001,EMERGENCY MEDICAL SERVICE,-9154139.682929857,3124758.9623873904
CHARLOTTE COUNTY FIRE & EMS ST 16,29400 PALM SHORES BLVD,PUNTA GORDA,33982,CHARLOTTE,"-81.96076828,27.00657052",17R MK 04680 87525,MUNICIPAL,402312476001,EMERGENCY MEDICAL SERVICE,-9123830.990133205,3124292.672841066
NATURE COAST EMERGENCY MEDICAL FOUNDATION,3876 W COUNTRY HILL DR,LECANTO,34461,CITRUS,"-82.49871386,28.84911751",17R LM 53804 92192,OTHER PUBLIC,18E19S04      33105,EMERGENCY MEDICAL SERVICE,-9183714.817614332,3356456.055544449
MEDIC 75/EMS BC 80,4590 SANTA BARBRA PKWY,NAPLES,34104,COLLIER,"-81.71774835,26.14414101",17R MJ 28256 91844,MUNICIPAL,00400246309,EMERGENCY MEDICAL SERVICE,-9096778.135569641,3016944.4049962447
MEDIC 1,835 8TH AVE S,NAPLES,34102,COLLIER,"-81.79511108,26.13876062",17R MJ 20519 91293,MUNICIPAL,14044720002,EMERGENCY MEDICAL SERVICE,-9105390.11456004,3016277.215407677
MEDIC 20,4798 DAVIS BLVD,NAPLES,34112,COLLIER,"-81.75075756,26.13817938",17R MJ 24952 91203,MUNICIPAL,00391360006,EMERGENCY MEDICAL SERVICE,-9100452.70373737,3016205.140880775
MEDIC 32,4817 AVE MARIA BLVD,IMMOKALEE,34142,COLLIER,"-81.44692261,26.34179913",17R MK 55402 13614,MUNICIPAL,22671005344,EMERGENCY MEDICAL SERVICE,-9066629.951804772,3041476.187206
MEDIC 31,1107 CARSON RD,IMMOKALEE,34142,COLLIER,"-81.45032536,26.43418488",17R MK 55099 23847,MUNICIPAL,00073280006,EMERGENCY MEDICAL SERVICE,-9067008.743674686,3052956.739871859
MEDIC 71/EMS 84,95 13TH ST SW,NAPLES,34117,COLLIER,"-81.63339335,26.22889444",17R MK 36734 01187,MUNICIPAL,37013362009,EMERGENCY MEDICAL SERVICE,-9087387.779833578,3027458.2301673624
MEDIC 24,2795 N AIRPORT PULLING RD,NAPLES,34105,COLLIER,"-81.76818965,26.18175198",17R MJ 23238 96039,MUNICIPAL,20767010957,EMERGENCY MEDICAL SERVICE,-9102393.234595506,3021609.174509971
MEDIC 21/MEDIC 802,11121 TAMIAMI TRL E,NAPLES,34113,COLLIER,"-81.73214894,26.09077085",17R MJ 26783 85941,MUNICIPAL,62040320005,EMERGENCY MEDICAL SERVICE,-9098381.20093718,3010327.6524280617
ALS TOW 50/MEDIC RES 50/MEDIC 803,1280 SAN MARCO RD,MARCO ISLAND,34145,COLLIER,"-81.71496598,25.93746699",17R MJ 28408 68954,MUNICIPAL,57360380002,EMERGENCY MEDICAL SERVICE,-9096468.403036324,2991338.0220310823
MEDIC 22,4375 BAYSHORE DR,NAPLES,34112,COLLIER,"-81.76998800,26.11284300",17R MJ 23013 88408,MUNICIPAL,61840720000,EMERGENCY MEDICAL SERVICE,-9102593.42631891,3013063.757978371
MEDIC 46,3410 PINE RIDGE RD,NAPLES,34105,COLLIER,"-81.74913794,26.21106183",17R MJ 25161 99274,COUNTY,00287640005,EMERGENCY MEDICAL SERVICE,-9100272.408665787,3025245.4248487987
MEDIC 23/ALS ENG 23,6055 COLLIER BLVD,NAPLES,34113,COLLIER,"-81.70058004,26.04619337",17R MJ 29913 80987,MUNICIPAL,00732520007,EMERGENCY MEDICAL SERVICE,-9094866.967212047,3004803.3154162457
MEDIC 2,977 26TH AVE N,NAPLES,34103,COLLIER,"-81.79862320,26.17771839",17R MJ 20194 95610,MUNICIPAL,13801720000,EMERGENCY MEDICAL SERVICE,-9105781.082615541,3021108.828370389
EMS BC 82,21520 IMMOKALEE RD,NAPLES,34120,COLLIER,"-81.54802067,26.36564438",17R MK 45325 16293,COUNTY,39155240003,EMERGENCY MEDICAL SERVICE,-9077884.135806212,3044438.499763002
MEDIC 10,14756 IMMOKALEE RD,NAPLES,34120,COLLIER,"-81.59415841,26.30789584",17R MK 40693 09918,COUNTY,00209840003,EMERGENCY MEDICAL SERVICE,-9083020.165892642,3037265.407676054
ALS ENG 61,525 NEWPORT DR,NAPLES,34114,COLLIER,"-81.51174957,25.95730998",17R MJ 48766 71056,COUNTY,01067080606,EMERGENCY MEDICAL SERVICE,-9073846.45596634,2993794.561687155
MEDIC 70,4741 GOLDEN GATE PKWY,NAPLES,34116,COLLIER,"-81.70417720,26.18274801",17R MJ 29635 96113,COUNTY,36110040005,EMERGENCY MEDICAL SERVICE,-9095267.402100597,3021732.7295630984
EMS LOGISTICS & HQ,8075 LELY CULTURAL PKWY,NAPLES,34113,COLLIER,"-81.69472619,26.10527435",17R MJ 30534 87527,COUNTY,55425014105,EMERGENCY MEDICAL SERVICE,-9094215.32038868,3012125.475330063
MEDIC 42,7010 IMMOKALEE RD,NAPLES,34119,COLLIER,"-81.72562985,26.27238081",17R MK 27547 06051,COUNTY,41938010008,EMERGENCY MEDICAL SERVICE,-9097655.499478249,3032855.771390321
MEDIC 40,1441 PINE RIDGE RD,NAPLES,34109,COLLIER,"-81.78955982,26.21177495",17R MJ 21123 99376,COUNTY,00240200000,EMERGENCY MEDICAL SERVICE,-9104772.151192019,3025333.90866415
MEDIC 44/82/EMS BC 81,776 VANDERBILT BEACH RD,NAPLES,34108,COLLIER,"-81.80592082,26.25062200",17R MK 19515 03689,COUNTY,00176682006,EMERGENCY MEDICAL SERVICE,-9106593.4499465,3030154.808662662
ALS ENG 90/MEDIC RES 90,175 CAPRI BLVD,NAPLES,34113,COLLIER,"-81.72733883,25.98432441",17R MJ 27198 74150,COUNTY,52500080002,EMERGENCY MEDICAL SERVICE,-9097845.742081694,2997139.583371219
MEDIC 30,112 S 1ST ST,IMMOKALEE,34142,COLLIER,"-81.41683533,26.41729157",17R MK 58432 21964,COUNTY,00116760001,EMERGENCY MEDICAL SERVICE,-9063280.651117008,3050856.762912518
ALS ENG 73,14575 N. COLLIER BLVD,NAPLES,34119,COLLIER,"-81.69007820,26.25238456",17R MK 31085 03817,COUNTY,00204760803,EMERGENCY MEDICAL SERVICE,-9093697.908386597,3030373.5796761843
MEDIC RES 60,201 BUCKNER AVE N,OCHOPEE,34141,COLLIER,"-81.38421264,25.85857111",17R MJ 61502 60077,COUNTY,83495520002,EMERGENCY MEDICAL SERVICE,-9059649.109631998,2981574.887950752
MEDIC 43,16325 VANDERBILT DR,BONITA SPRINGS,34134,COLLIER,"-81.81957075,26.32211124",17R MK 18202 11615,COUNTY,24630840001,EMERGENCY MEDICAL SERVICE,-9108112.952769618,3039030.8066500057
MARCO URGENT CARE,40 S. HEATHWOOD DR,NAPLES, ,COLLIER,"-81.71669659,25.93801098",17R MJ 28235 69015,,,EMERGENCY MEDICAL SERVICE,-9096661.05369101,2991405.361068503
POINTE MEDICAL FACILITY,"1726 MEDICAL BLVD, #203",NAPLES, ,COLLIER,"-81.78467538,26.27282947",17R MK 21652 06136,,,EMERGENCY MEDICAL SERVICE,-9104228.418022286,3032911.4699314483
ADVANCED MEDICAL OF NAPLES,720 GOODLETTE-FRANK RD N,NAPLES, ,COLLIER,"-81.78982357,26.15827094",17R MJ 21060 93451,,,EMERGENCY MEDICAL SERVICE,-9104801.51202225,3018696.719025967
REDI-MED URGENT CARE,4550 EXECUTIVE DR,NAPLES, ,COLLIER,"-81.73032446,26.27350533",17R MK 27079 06179,,,EMERGENCY MEDICAL SERVICE,-9098178.1010447,3032995.37378467
NAPLES URGENT CARE,1713 SW HEALTH PKWY STE 1,NAPLES, ,COLLIER,"-81.78562863,26.27174125",17R MK 21556 06016,,,EMERGENCY MEDICAL SERVICE,-9104334.53379281,3032776.374935328
COLLIER URGENT CARE-N. NAPLES,7955 AIRPORT PULLING RD N #102,NAPLES, ,COLLIER,"-81.76990473,26.24228723",17R MK 23107 02744,,,EMERGENCY MEDICAL SERVICE,-9102584.15703288,3029120.332822353
COLLIER URGENT CARE-PARK SHORE,3601 TAMIAMI TRAIL NORTH UNIT #2,NAPLES, ,COLLIER,"-81.80064931,26.18946755",17R MJ 20000 96913,,,EMERGENCY MEDICAL SERVICE,-9106006.62741389,3022566.2980291387
ALS RES 63,63175 MM 63,OCHOPEE,34141,COLLIER,"-81.07509505,26.16732469",17R MJ 92495 94216,,,EMERGENCY MEDICAL SERVICE,-9025238.29735916,3019819.625237513
NAPLES MEDICAL CENTER / MILLENNIUM PHYSICIAN GROUP,400 8TH ST N,NAPLES, ,COLLIER,"-81.79728806,26.15189789",17R MJ 20310 92750,,,EMERGENCY MEDICAL SERVICE,-9105632.45557494,3017906.343068284
MEDIC 25,8320 COLLIER BLVD,NAPLES,34114,COLLIER,"-81.68474160,26.10661536",17R MJ 31533 87670,,,EMERGENCY MEDICAL SERVICE,-9093103.840836598,3012291.7160651297
ESTATES MEDICAL CENTER,"11725 COLLIER BLVD, #203",NAPLES, ,COLLIER,"-81.68762515,26.18593718",17R MJ 31291 96457,,,EMERGENCY MEDICAL SERVICE,-9093424.835816648,3022128.344574088
ER QUICK CARE,13030 LIVINGSTON RD,NAPLES, ,COLLIER,"-81.75096391,26.20981428",17R MJ 24977 99136,,,EMERGENCY MEDICAL SERVICE,-9100475.674507404,3025090.6328415717
EPN URGENT CARE,6400 DAVIS BLVD STE 103,NAPLES, ,COLLIER,"-81.73513658,26.13828988",17R MJ 26514 91206,,,EMERGENCY MEDICAL SERVICE,-9098713.784202011,3016218.8426595633
VANDERBILIT URGENT CARE,801 VANDERBILT BEACH RD,NAPLES, ,COLLIER,"-81.80591475,26.25149619",17R MK 19516 03786,,,EMERGENCY MEDICAL SERVICE,-9106592.773689229,3030263.3144577285
PHYSICIANS REGIONAL MARCO ISLAND WALK IN CLINIC,1839 SAN MARCO ROAD,MARCO ISLAND, ,COLLIER,"-81.69795096,25.93388643",17R MJ 30110 68548,,,EMERGENCY MEDICAL SERVICE,-9094574.30015422,2990894.795927795
MED-FLIGHT 1/EMS BC 83,2375 TOWER DR,NAPLES,34101,COLLIER,"-81.77811357,26.14711273",17R MJ 22223 92208,PRIVATE,,EMERGENCY MEDICAL SERVICE,-9103497.960808923,3017312.922642717
COLUMBIA COUNTY EMS,SR-247,LAKE CITY,32025,COLUMBIA,"-82.67150993,30.17620854",17R LP 39060 39491,COUNTY,01-4S-16-02642-000,EMERGENCY MEDICAL SERVICE,-9202950.388084866,3526219.976246708
DESOTO COUNTY FIRE RESCUE ST 4,8120 SW COUNTY ROAD 72,ARCADIA,34266,DESOTO,"-81.97762394,27.20093992",17R ML 03175 09069,COUNTY,,EMERGENCY MEDICAL SERVICE,-9125707.353917079,3148599.045145609
DESOTO COUNTY FIRE RESCUE ST 2,8789 SW COUNTY ROAD 761,ARCADIA,34269,DESOTO,"-81.99977247,27.09244868",17R MK 00885 97068,COUNTY,10-39-23-0000-0053-0000,EMERGENCY MEDICAL SERVICE,-9128172.916242206,3135026.7458865154
DESOTO COUNTY FIRE RESCUE ST 1,1985 SE CARLSTROM FIELD RD,ARCADIA,34266,DESOTO,"-81.84258211,27.20878422",17R ML 16556 09840,COUNTY,06-38-25-0104-0000-0010,EMERGENCY MEDICAL SERVICE,-9110674.56559259,3149580.8824473647
DESOTO COUNTY FIRE RESCUE ST 3,121 W HICKORY ST,ARCADIA,34266,DESOTO,"-81.86190107,27.21698706",17R ML 14649 10762,COUNTY,25-37-24-0012-0280-0020,EMERGENCY MEDICAL SERVICE,-9112825.142086316,3150607.6691228654
DIXIE COUNTY EMS,17600 SE US HWY 19,OLD TOWN,32680,DIXIE,"-83.11167042,29.62529064",17R KN 95549 79128,COUNTY,101012000026000000,EMERGENCY MEDICAL SERVICE,-9251948.829802386,3455474.811074823
JACKSONVILLE FIRE AND RESCUE DEPT,515 N JULIA ST,JACKSONVILLE,32202,DUVAL,"-81.66020240,30.33113219",17R MP 36536 55663,COUNTY,0738540000R,EMERGENCY MEDICAL SERVICE,-9090372.149740668,3546185.2074298593
JACKSONVILLE RESCUE 4,2119 DAVIS ST N,JACKSONVILLE,32209,DUVAL,"-81.66691300,30.35060216",17R MP 35904 57824,MUNICIPAL,0548410000R,EMERGENCY MEDICAL SERVICE,-9091119.169620354,3548696.560203471
TRAUMA ONE AT SHANDS JACKSONVILLE,655 W 8TH ST,JACKSONVILLE,32209,DUVAL,"-81.66427709,30.34849414",17R MP 36156 57589,PRIVATE,,EMERGENCY MEDICAL SERVICE,-9090825.741834624,3548424.630893965
AMBULANCE SERVICE,5995 PHILIPS HWY,JACKSONVILLE,32216,DUVAL,"-81.61448976,30.26173715",17R MP 40889 47948,PRIVATE,1529420000R,EMERGENCY MEDICAL SERVICE,-9085283.441011162,3537238.2764851325
ADVANCE PATIENT TRANSPORT,7007 BEACH BLVD,JACKSONVILLE,32216,DUVAL,"-81.58730087,30.29018067",17R MP 43521 51086,PRIVATE,1348780000R,EMERGENCY MEDICAL SERVICE,-9082256.78759515,3540904.663630519
LIBERTY AMBULANCE SERVICE,1626 ATLANTIC UNIVERSITY CIR,JACKSONVILLE,32207,DUVAL,"-81.60073360,30.31280663",17R MP 42242 53600,PRIVATE,1340360000R,EMERGENCY MEDICAL SERVICE,-9083752.113111358,3543821.922641129
CENTURY AMBULANCE SERVICES,2103 GILMORE ST,JACKSONVILLE,32204,DUVAL,"-81.68544915,30.32004372",17R MP 34102 54448,PRIVATE,0915690000R,EMERGENCY MEDICAL SERVICE,-9093182.604468087,3544755.172439762
LIFEGUARD AIR AMB EXEC PLAZA RD,2401 EXECUTIVE PLAZA RD STE 3,PENSACOLA,32504,ESCAMBIA,"-87.19663951,30.48248193",16R DU 81126 72266,PRIVATE,141S292200001006,EMERGENCY MEDICAL SERVICE,-9706685.509529287,3565720.385933409
ESCAMBIA COUNTY DEPT PUBLIC SAFETY,2920 N L ST,PENSACOLA,32501,ESCAMBIA,"-87.23661403,30.44357362",16R DU 77281 67962,COUNTY,172S305015000002,EMERGENCY MEDICAL SERVICE,-9711135.452874515,3560695.476412525
POST 30-WEST FLORIDA HOSPITAL,8383 N DAVIS HWY,PENSACOLA,32514,ESCAMBIA,"-87.21856340,30.51623559",16R DU 79030 76011,,,EMERGENCY MEDICAL SERVICE,-9709126.065575505,3570081.2120853337
BAPTIST MEDICAL PARK - 9 MILE,9400 UNIVERSITY PKWY,PENSACOLA,32514,ESCAMBIA,"-87.21885336,30.53400307",16R DU 79006 77980,,,EMERGENCY MEDICAL SERVICE,-9709158.343555046,3572377.3022971866
PROCLINIC SERVICES,3101 N 12TH AVE,PENSACOLA,32503,ESCAMBIA,"-87.20794916,30.44574005",16R DU 80034 68197,,,EMERGENCY MEDICAL SERVICE,-9707944.493867647,3560975.212923288
POST 22-SACRED HEART HOSPITAL,5151 N 9TH AVE,PENSACOLA,32504,ESCAMBIA,"-87.21410232,30.47808094",16R DU 79450 71782,,,EMERGENCY MEDICAL SERVICE,-9708629.45996475,3565151.908538413
VA CLINIC PENSACOLA,790 VETERANS WAY,PENSACOLA,32507,ESCAMBIA,"-87.29355582,30.40210711",16R DU 71802 63380,,,EMERGENCY MEDICAL SERVICE,-9717474.183138024,3555342.3884209855
WEST FLORIDA MEDICAL GROUP(IMMEDIATE CARE @ KINGSFIELD),2360 N HIGHWAY 29,CANTONMENT,32533,ESCAMBIA,"-87.28845000,30.56657883",16R DU 72339 81605,,,EMERGENCY MEDICAL SERVICE,-9716905.80567764,3576588.1558877155
POST 7-PARKS AND RECREATION,1651 EAST NINE MILE ROAD,PENSACOLA,32514,ESCAMBIA,"-87.22860000,30.53110000",16R DU 78070 77660,,,EMERGENCY MEDICAL SERVICE,-9710243.334612733,3572002.1103744158
EMERALD COAST WALK-IN MEDICAL,511 PHYLLIS ST,PENSACOLA,32503,ESCAMBIA,"-87.22436202,30.47240570",16R DU 78464 71155,,,EMERGENCY MEDICAL SERVICE,-9709771.565147756,3564418.873099107
LIFEGUARD AIR AMBULANCE,2430 AIRPORT BLVD,PENSACOLA,32504,ESCAMBIA,"-87.19383675,30.47589223",16R DU 81394 71535,,,EMERGENCY MEDICAL SERVICE,-9706373.507072907,3564869.201622014
POST 20-BAPTIST HOSPITAL,1000 W MORENO ST,PENSACOLA,32501,ESCAMBIA,"-87.23205315,30.42956456",16R DU 77716 66409,,,EMERGENCY MEDICAL SERVICE,-9710627.737014564,3558886.732529023
SACRED HEART URGENT CARE,6665 PENSACOLA BLVD,PENSACOLA,32505,ESCAMBIA,"-87.25919508,30.48639135",16R DU 75124 72712,,,EMERGENCY MEDICAL SERVICE,-9713649.163344782,3566225.38823718
WEST FLORIDA URGENT CARE,8333 N DAVIS HWY,PENSACOLA,32514,ESCAMBIA,"-87.21928802,30.51402352",16R DU 78960 75766,,,EMERGENCY MEDICAL SERVICE,-9709206.729926862,3569795.3765388303
MINUTE CLINIC (INSIDE CVS PHARMACY),2090 S HIGHWAY 29,CANTONMENT,32533,ESCAMBIA,"-87.29023470,30.57059044",16R DU 72169 82050,,,EMERGENCY MEDICAL SERVICE,-9717104.477847625,3577106.8082435913
MINUTE CLINIC (INSIDE CVS),8100 N DAVIS HWY,PENSACOLA,32514,ESCAMBIA,"-87.21952064,30.51086477",16R DU 78937 75416,,,EMERGENCY MEDICAL SERVICE,-9709232.624875482,3569387.2252225014
POST 25-ECEMS SUB-STATION-PENSACOLA,1135 W HAYES ST,PENSACOLA,32501,ESCAMBIA,"-87.23132536,30.44329131",16R DU 77789 67930,,,EMERGENCY MEDICAL SERVICE,-9710546.72076415,3560659.024402688
PERDIDO URGENT CARE,12385 SORRENTO RD,PENSACOLA,32507,ESCAMBIA,"-87.40258111,30.34033612",16R DU 61305 56567,,,EMERGENCY MEDICAL SERVICE,-9729610.823062258,3547372.3229098315
FLAGLER CO FIRE RESCUE,201 MOODY BLVD E,BUNNELL,32110,FLAGLER,"-81.25651254,29.46627776",17R MN 75128 59674,COUNTY,10-12-30-0850-01330-0000,EMERGENCY MEDICAL SERVICE,-9045433.599813296,3435127.6651788205
FRANKLIN COUNTY EMERGENCY MEDICAL,171 UNIT C,EASTPOINT,32328,FRANKLIN,"-84.88774434,29.73661123",16R GT 04281 91468,,,EMERGENCY MEDICAL SERVICE,-9449660.47500861,3469738.402945215
EMERGYSTAT OF FRANKLIN,2367 OAK ST,CARRABELLE,32322,FRANKLIN,"-84.59746714,29.88459434",16R GU 32020 08422,COUNTY,,EMERGENCY MEDICAL SERVICE,-9417346.964167329,3488724.1308750934
GADSDEN COUNTY EMS,412 E JEFFERSON ST,QUINCY,32351,GADSDEN,"-84.56832406,30.58742098",16R GU 33169 86398,COUNTY,3-07-2N-3W-0000-00142-0100,EMERGENCY MEDICAL SERVICE,-9414102.771089971,3579283.0248343246
MED 1,3250 N US Highway 129,BELL, ,GILCHRIST,"-82.84436112,29.65816873",17R LN 21493 82330,,,EMERGENCY MEDICAL SERVICE,-9222192.095434375,3459685.863101495
MED 2,7330 US HWY 129,TRENTON,32693,GILCHRIST,"-82.82387546,29.63005499",17R LN 23427 79183,,,EMERGENCY MEDICAL SERVICE,-9219911.64125082,3456084.9473809674
MED 1,3270 N US HWY 129,BELL,32619,GILCHRIST,"-82.86596273,29.78433674",17R LN 19628 96347,COUNTY,13-08-14-0000-0003-0010,EMERGENCY MEDICAL SERVICE,-9224596.775414411,3475858.3548404216
GLADES COUNTY EMS,1097 HEALTH PARK DRive,MOORE HAVEN,33471,GLADES,"-81.12536492,26.84011872",17R MK 87544 68733,COUNTY,A21-41-32-A00-0020-0000,EMERGENCY MEDICAL SERVICE,-9030834.312970936,3103510.856744929
GULF COUNTY EMS,140 LIBRARY DR,PORT SAINT JOE,32456,GULF,"-85.28971210,29.81432529",16R FT 65272 99438,COUNTY,03012-000R,EMERGENCY MEDICAL SERVICE,-9494407.32061839,3479705.3489230783
WEWAHITCHKA EMS AMBULANCE,237 W RIVER RD,WEWAHITCHKA,32465,GULF,"-85.20206985,30.10609902",16R FU 73235 31905,,02254-004R,EMERGENCY MEDICAL SERVICE,-9484651.030377265,3517195.1867463407
HAMILTON COUNTY EMS,902 US HWY 41 NW,JASPER,32052,HAMILTON,"-82.95442182,30.51953433",17R LP 12472 77980,COUNTY,6926-000,EMERGENCY MEDICAL SERVICE,-9234443.996530866,3570507.476227957
HARDEE COUNTY FIRE/RESCUE,149 K D REVELL RD,WAUCHULA,33873,HARDEE,"-81.81012559,27.55659553",17R ML 20021 48347,COUNTY,04-34-25-0000-06210-0000,EMERGENCY MEDICAL SERVICE,-9107061.522603368,3193184.776394663
HENDRY CO EMERGENCY SERVICE,1050 E COWBOY WAY,LABELLE,33935,HENDRY,"-81.38280487,26.75036852",17R MK 61936 58843,COUNTY,4 29 43 10 060 000D-001.1,EMERGENCY MEDICAL SERVICE,-9059492.397383742,3092318.0628500967
HENDRY COUNTY EMERGENCY SERVICES - LABELLE,1050 FORESTRY DIVISION RD,LABELLE,33935,HENDRY,"-81.42653543,26.74624378",17R MK 57586 58400,COUNTY,,EMERGENCY MEDICAL SERVICE,-9064360.461255344,3091803.8766151657
SEMINOLE TRIBE FIRE/RESCUE - BIG CYPRESS,30300 JOSIE BILLIE HWY,CLEWISTON,33440,HENDRY,"-80.99771199,26.32619524",17R NK 00228 11808,OTHER PUBLIC,,EMERGENCY MEDICAL SERVICE,-9016624.054231917,3039538.034742819
BIG CYPRESS INDIAN RESERVATION FD,35154 FIREHOUSE PL,CLEWISTON,33440,HENDRY,"-80.90573943,26.30170637",17R NK 09409 09100,OTHER PUBLIC,1 34 48 23 A00 0001.0000,EMERGENCY MEDICAL SERVICE,-9006385.716148917,3036496.8094340237
CLEWISTON VFD,120 COMMERCIO ST,CLEWISTON,33440,HENDRY,"-80.93492096,26.75341832",17R NK 06470 59126,MUNICIPAL,3 34 43 01 010 0357-001.0,EMERGENCY MEDICAL SERVICE,-9009634.188201308,3092698.259321244
HERNANDO COUNTY FIRE RESCUE HQ,60 VETERANS AVE,BROOKSVILLE,34601,HERNANDO,"-82.39947888,28.55281136",17R LM 63100 59241,COUNTY,R22 222 19 2822 0000 0030,EMERGENCY MEDICAL SERVICE,-9172668.030111324,3318851.1341856127
BAYFRONT MEDICAL CENTER BAYFLITE 4 AMBULANCE,16300 FLIGHT PATH DR,BROOKSVILLE,34604,HERNANDO,"-82.45663243,28.47878968",17R LM 57409 51106,PRIVATE,R13 223 18 2393 0000 0280,EMERGENCY MEDICAL SERVICE,-9179030.33461009,3309473.424638301
SPRING HILL FIRE RESC DIST,3444 BOB HARTUNG CT,SPRING HILL,34606,HERNANDO,"-82.57569318,28.48564558",17R LM 45763 52013,COUNTY,R32 323 17 5251 0000 00A0,EMERGENCY MEDICAL SERVICE,-9192284.117007079,3310341.713885565
HIGHLANDS COUNTY EMS,4500 GEORGE BLVD,SEBRING,33875,HIGHLANDS,"-81.42090313,27.44219126",17R ML 58404 35483,COUNTY,C093529A0001610000,EMERGENCY MEDICAL SERVICE,-9063733.476209186,3178827.1631962527
"AVON PARK STATION 4 MEDIC 4-2, MEDIC 4-1",51 WILHITE STREET,AVON PARK,33825,HIGHLANDS,,,,,EMERGENCY MEDICAL SERVICE,-9072832.515651107,3197606.6133215167
LAKE PLACID STATION 38 MEDIC 38-1,17 W ROYAL PLAM DR,LAKE PLACID,33852,HIGHLANDS,"-81.36740000,27.29560000",17R ML 63643 19229,COUNTY,P01372901000600150,EMERGENCY MEDICAL SERVICE,-9057777.535164688,3160451.8537546135
TEMPLE TERRACE FIRE AMBULANCE,124 BULLARD PKWY,TAMPA,33617,HILLSBOROUGH,"-82.39226624,28.03302311",17R LM 63143 01642,MUNICIPAL,19282255K0000F9000050T,EMERGENCY MEDICAL SERVICE,-9171865.12312345,3253137.8865432553
PLANT CITY FIRE RESCUE STATION 1,604 E ALEXANDER ST,PLANT CITY,33563,HILLSBOROUGH,"-82.11704232,27.98949599",17R LL 90155 96541,MUNICIPAL,222904ZZZ000004842400P,EMERGENCY MEDICAL SERVICE,-9141227.336897606,3247649.539066989
MED EVAC INC,10220 E US HIGHWAY 92,TAMPA,33610,HILLSBOROUGH,"-82.33180794,27.99639016",17R LL 69042 97517,PRIVATE,202832ZZZ000002249100U,EMERGENCY MEDICAL SERVICE,-9165134.936128914,3248518.679252274
AMERICAN MEDICAL RESPONSE AMB,4914 W KNOX ST,TAMPA,33634,HILLSBOROUGH,"-82.52702155,28.00585499",17R LL 49857 98790,PRIVATE,182832ZZZ000001027000U,EMERGENCY MEDICAL SERVICE,-9186866.015360475,3249711.9893791415
SUN CITY CTR EMERGENCY SQ #1 INC,101 RAY WATSON DR,SUN CITY CENTER,33573,HILLSBOROUGH,"-82.35416157,27.71335993",17R LL 66497 66184,PRIVATE,193212ZZZ000001782600U,EMERGENCY MEDICAL SERVICE,-9167623.33100038,3212882.8649581093
TAMPA FIRE RESCUE,808 E ZACK ST,TAMPA,33602,HILLSBOROUGH,"-82.45448474,27.95174063",17R LL 56919 92707,MUNICIPAL,1829244ZI000032000010A,EMERGENCY MEDICAL SERVICE,-9178791.255352546,3242890.748193562
PLANT CITY FIRE RESCUE STATION 2,805 N ALEXANDER ST,PLANT CITY,33563,HILLSBOROUGH,"-82.13786850,28.02167627",17R LM 88140 00125,MUNICIPAL,2228295CN000005000001P,EMERGENCY MEDICAL SERVICE,-9143545.695728425,3251706.9459332633
AMERICARE AMBULANCE SERVICE,11301 E US HIGHWAY 92,SEFFNER,33584,HILLSBOROUGH,"-82.31026918,27.99938863",17R LL 71163 97826,PRIVATE,202833264000000023000U,EMERGENCY MEDICAL SERVICE,-9162737.252651753,3248896.709512156
TRANSCARE,1 CRISIS CTR PLZ,TAMPA,33613,HILLSBOROUGH,"-82.46231595,28.08722131",17R LM 56328 07727,PRIVATE,182736ZZZ000000755900U,EMERGENCY MEDICAL SERVICE,-9179663.020812139,3259974.8583657583
HOLMES CO EMS STATION 1,949 E US HWY 90,BONIFAY,32425,HOLMES,"-85.66411618,30.78674067",16R FV 27820 06730,COUNTY,0605.00-000-000-017.000,EMERGENCY MEDICAL SERVICE,-9536085.792929498,3605084.2202165667
HOLMES CO EMS STATION 2,2523 N PINE ST,WESTVILLE,32464,HOLMES,"-85.85134891,30.77444602",16R FV 09917 05169,COUNTY,1408.01-001-012-009.000,EMERGENCY MEDICAL SERVICE,-9556928.444894565,3603491.179990654
INDIAN RIVER CO EMS ST 10,62 N BROADWAY ST,FELLSMERE,32948,INDIAN RIVER,"-80.60153494,27.77018292",17R NL 39261 71808,COUNTY,31370000009098000018.0,EMERGENCY MEDICAL SERVICE,-8972521.826370189,3220029.890282399
INDIAN RIVER CO EMS ST 07,1215 82ND AVE,VERO BEACH,32966,INDIAN RIVER,"-80.49635121,27.62475638",17R NL 49690 55737,COUNTY,33381100001008000001.0,EMERGENCY MEDICAL SERVICE,-8960812.827842657,3201745.999504825
INDIAN RIVER CO EMS ST 40,8025 129TH CT,SEBASTIAN,32958,INDIAN RIVER,"-80.49265449,27.83097156",17R NL 49961 78581,COUNTY,30382100005028000001.0,EMERGENCY MEDICAL SERVICE,-8960401.310259532,3227679.836096581
INDIAN RIVER CO EMS ST 05,6568 US HWY 1,VERO BEACH,32967,INDIAN RIVER,"-80.42025683,27.71275242",17R NL 57152 65517,COUNTY,32391000000100000023.1,EMERGENCY MEDICAL SERVICE,-8952342.040021395,3212806.473673248
INDIAN RIVER CO EMS ST 08,1115 BARBER ST,SEBASTIAN,32958,INDIAN RIVER,"-80.48686500,27.77806203",17R NL 50556 72723,COUNTY,31382400001208000000.2,EMERGENCY MEDICAL SERVICE,-8959756.827641226,3221021.1953129927
INDIAN RIVER CO FIRE RESCUE ST 12,3620 49TH ST,VERO BEACH,32967,INDIAN RIVER,"-80.42215426,27.68326004",17R NL 56981 62249,COUNTY,32392200000300000002.0,EMERGENCY MEDICAL SERVICE,-8952553.260624541,3209098.500003309
INDIAN RIVER CO EMS ST 03,2900 43RD AVE,VERO BEACH,32960,INDIAN RIVER,"-80.42940474,27.64948042",17R NL 56283 58504,COUNTY,32392600011048000001.1,EMERGENCY MEDICAL SERVICE,-8953360.380951283,3204852.735978844
INDIAN RIVER CO EMS ST 06,101 STATE HWY A1A,VERO BEACH,32963,INDIAN RIVER,"-80.33962120,27.60280361",17R NL 65167 53378,COUNTY,33401600000007000003.0,EMERGENCY MEDICAL SERVICE,-8943365.722036712,3198988.0799648114
INDIAN RIVER CO EMS ST 11,2555 93RD ST,VERO BEACH,32963,INDIAN RIVER,"-80.40829357,27.76298104",17R NL 58305 71087,COUNTY,31392600000004000001.1,EMERGENCY MEDICAL SERVICE,-8951010.295593208,3219123.8527083737
INDIAN RIVER CO EMS ST 09,13550 ROSELAND DR,SEBASTIAN,32958,INDIAN RIVER,"-80.48852064,27.83794960",17R NL 50365 79356,COUNTY,30382100001000000011.5,EMERGENCY MEDICAL SERVICE,-8959941.131865619,3228558.2619430907
INDIAN RIVER CO EMS ST 02,3301 BRIDGE PLAZA DR,VERO BEACH,32963,INDIAN RIVER,"-80.37011524,27.65222747",17R NL 62130 58837,COUNTY,32403100000002000001.0,EMERGENCY MEDICAL SERVICE,-8946760.303158477,3205197.9635464908
INDIAN RIVER CO EMS ST 01,1500 OLD DIXIE HWY,VERO BEACH,32960,INDIAN RIVER,"-80.39559156,27.62960787",17R NL 59629 56319,COUNTY,33391200000300000014.0,EMERGENCY MEDICAL SERVICE,-8949596.314667441,3202355.565433733
INDIAN RIVER CO EMS ST 50,9448 82ND ST,VERO BEACH,32967,INDIAN RIVER,"-80.52057417,27.74313757",17R NL 47249 68840,COUNTY,31383400000300000003.1,EMERGENCY MEDICAL SERVICE,-8963509.314545436,3216627.742271269
INDIAN RIVER CO EMS ST 04,1500 9TH ST SW,VERO BEACH,32962,INDIAN RIVER,"-80.40133693,27.58773286",17R NL 59085 51677,COUNTY,33392300001016000001.0,EMERGENCY MEDICAL SERVICE,-8950235.885961441,3197095.0654526344
CHIPOLA AVIATION AIR AMBULANCE,3633 INDUSTRIAL PARK DR,MARIANNA,32446,JACKSON,"-85.18219893,30.83533426",16R FV 73849 12766,MUNICIPAL, ,EMERGENCY MEDICAL SERVICE,-9482439.009848565,3611382.5758192823
JACKSON CO FIRE/RESCUE UNIT,3555 STATE ROAD 71,MARIANNA,32446,JACKSON,"-85.17078923,30.82344910",16R FV 74962 11467,COUNTY,19-5N-09-0000-0050-0000,EMERGENCY MEDICAL SERVICE,-9481168.887479343,3609841.811733744
LAKE CO EMS ST 221,201 S CANAL ST,LEESBURG,34748,LAKE,"-81.87529704,28.81489753",17R MM 14592 87792,COUNTY,231924000400008200,EMERGENCY MEDICAL SERVICE,-9114316.3747369,3352107.667033686
LAKE CO EMS ST 251,1201 LEWIS RD,LEESBURG,34748,LAKE,"-81.93331660,28.82909596",17R MM 08943 89408,COUNTY,171924000300001401,EMERGENCY MEDICAL SERVICE,-9120775.0830273,3353911.71046494
LAKE CO EMS ST 261,306 W HERMOSA ST,LADY LAKE,32159,LAKE,"-81.92560352,28.91952071",17R MM 09774 99421,COUNTY,171824000400003500,EMERGENCY MEDICAL SERVICE,-9119916.467319185,3365406.806739183
LAKE CO EMS ST 131,26201 STATE ROAD 44,EUSTIS,32736,LAKE,"-81.52464466,28.85379234",17R MM 48827 91900,COUNTY,371928010000000012,EMERGENCY MEDICAL SERVICE,-9075281.93038631,3357050.204501062
LAKE CO EMS ST 351,101 N MAIN AVE,MINNEOLA,34715,LAKE,"-81.75165650,28.57970253",17R MM 26493 61652,,,EMERGENCY MEDICAL SERVICE,-9100552.772932306,3322259.5721767694
LAKE CO EMS ST 271,506 BERCKMAN ST,FRUITLAND PARK,34731,LAKE,"-81.91274399,28.85874518",17R MM 10976 92678,,,EMERGENCY MEDICAL SERVICE,-9118484.950450879,3357679.7164520132
LAKE CO EMS ST 211,725 GRIFFIN AVE,LADY LAKE,32159,LAKE,"-81.94054862,28.93820937",17R MN 08333 01503,COUNTY,061824037000E00000,EMERGENCY MEDICAL SERVICE,-9121580.14766242,3367783.8206901387
LAKE CO EMS ST 151,2753 W OLD HWY 441,MOUNT DORA,32757,LAKE,"-81.67339258,28.80958320",17R MM 34290 87075,COUNTY,251926052500000100,EMERGENCY MEDICAL SERVICE,-9091840.473455233,3351432.4941711784
LAKE CO EMS ST 141,702 S GROVE ST ,EUSTIS,32726,LAKE,"-81.68327953,28.84670200",17R MM 33349 91193,COUNTY,111926010011200008,EMERGENCY MEDICAL SERVICE,-9092941.083922049,3356149.065009325
LAKE CO EMS ST 241,9400 VETERANS HWY,LEESBURG,34788,LAKE,"-81.80240362,28.82584769",17R MM 21713 88955,MUNICIPAL,221925000200000500,EMERGENCY MEDICAL SERVICE,-9106201.916245006,3353498.9661840783
LAKE CO EMS ST 331,16240 COUNTY ROAD 474,CLERMONT,34714,LAKE,"-81.68554049,28.36957595",17R MM 32826 38334,COUNTY,262426000200004000,EMERGENCY MEDICAL SERVICE,-9093192.77196848,3295649.2730967714
LAKE CO EMS ST 101,1 CASSADY ST,UMATILLA,32784,LAKE,"-81.66752957,28.92664279",17R MN 34936 00041,MUNICIPAL,131826290001100301,EMERGENCY MEDICAL SERVICE,-9091187.806216754,3366312.6144070514
LAKE CO EMS ST 361,2200 HARTWOOD MARSH RD,CLERMONT,34711,LAKE,"-81.71530093,28.50007247",17R MM 29996 52808,MUNICIPAL,092326000200001100,EMERGENCY MEDICAL SERVICE,-9096505.689333398,3312169.0391259952
LAKE CO EMS ST 121,1300 N DONNELLY ST,MOUNT DORA,32757,LAKE,"-81.64429998,28.80816212",17R MM 37128 86902,MUNICIPAL,301927000100003000,EMERGENCY MEDICAL SERVICE,-9088601.89941077,3351251.955961055
LAKE CO EMS ST 161,1720 LANE PARK CUTOFF,TAVARES,32778,LAKE,"-81.74563196,28.77235543",17R MM 27215 82992,MUNICIPAL,062026000400006500,EMERGENCY MEDICAL SERVICE,-9099882.124565294,3346703.7641103645
LAKE CO EMS ST 311,529 E MYERS BLVD,MASCOTTE,34753,LAKE,"-81.88084678,28.57222154",17R MM 13852 60909,MUNICIPAL,142224020001100100,EMERGENCY MEDICAL SERVICE,-9114934.169604888,3321311.274031051
LAKE CO EMS ST 321,2180 LEGENDS WAY,CLERMONT,34711,LAKE,"-81.71437625,28.54871390",17R MM 30118 58196,MUNICIPAL,092226120500400000,EMERGENCY MEDICAL SERVICE,-9096402.754764097,3318331.859535811
LAKE CO EMS ST 231,3714 ROGERS INDUSTRIAL PARK RD,OKAHUMPKA,34762,LAKE,"-81.89242810,28.74105706",17R MM 12859 79623,MUNICIPAL,142024010000000101,EMERGENCY MEDICAL SERVICE,-9116223.39636827,3342729.501592128
LAKE CO EMS ST 171,4300 N HWY 19A,MOUNT DORA,32757,LAKE,"-81.68238517,28.81540744",17R MM 33417 87725,MUNICIPAL,231926000300009300,EMERGENCY MEDICAL SERVICE,-9092841.523932278,3352172.451709792
MEDIC 16,360 E RAILROAD AVE,BOCA GRANDE,33921,LEE,"-82.26092070,26.74991252",17R LK 74615 59357,MUNICIPAL,14432001000140070,EMERGENCY MEDICAL SERVICE,-9157243.804505987,3092261.2171043977
LEHIGH ACRES ALS - RESCUE 102,11 S HOMESTEAD RD,LEHIGH ACRES,33936,LEE,"-81.63993782,26.59835674",17R MK 36283 42110,MUNICIPAL,05452700000100010,EMERGENCY MEDICAL SERVICE,-9088116.306470826,3073380.725383306
LEHIGH ACRES ALS - RESCUE 104,3102 SW 16TH ST,LEHIGH ACRES,33971,LEE,"-81.67960311,26.59874280",17R MK 32334 42173,MUNICIPAL,02452609000840000,EMERGENCY MEDICAL SERVICE,-9092531.826074371,3073428.788385208
LEHIGH ACRES ALS - RESCUE 105,636 THOMAS SHERWIN AVE S,LEHIGH ACRES,33936,LEE,"-81.60426912,26.56278244",17R MK 39816 38152,MUNICIPAL,15452710000630120,EMERGENCY MEDICAL SERVICE,-9084145.6848176,3068952.5846406794
MEDIC 13,25001 CHAMBER OF COMMERCE DR,BONITA SPRINGS,34135,LEE,"-81.80703500,26.37582486",17R MK 19490 17557,MUNICIPAL,214725B2000011020,EMERGENCY MEDICAL SERVICE,-9106717.479588605,3045703.4134074487
T01,636 DEL PRADO BLVD,CAPE CORAL,33990,LEE,"-81.94217712,26.63922027",17R MK 06222 46822,PRIVATE,,EMERGENCY MEDICAL SERVICE,-9121761.431235136,3078468.947118302
MEDIC 34,636 DEL PRADO BLVD,CAPE CORAL,33990,LEE,"-81.94217712,26.63922027",17R MK 06222 46822,PRIVATE,,EMERGENCY MEDICAL SERVICE,-9121761.431235136,3078468.947118302
MEDIC 3,1035 TERRY ST,FORT MYERS,33916,LEE,"-81.84424454,26.65759064",17R MK 15984 48788,MUNICIPAL,074425P3000020000,EMERGENCY MEDICAL SERVICE,-9110859.626013909,3080756.970552763
T03,2776 CLEVELAND AVE,FORT MYERS,33901,LEE,"-81.87404774,26.62839039",17R MK 12995 45574,PRIVATE,,EMERGENCY MEDICAL SERVICE,-9114177.303405065,3077120.2602856904
MEDIC 37,28055 MANGO DR,BONITA SPRINGS,34134,LEE,"-81.81645288,26.32973602",17R MK 18519 12458,MUNICIPAL,044825B1000030290,EMERGENCY MEDICAL SERVICE,-9107765.8728518,3039977.810691497
ALS AT FMB FIRE STATION 32,17891 SAN CARLOS BLVD,FORT MYERS BEACH,33931,LEE,"-81.94797338,26.48160224",17R MK 05516 29368,MUNICIPAL,07462401000010270,EMERGENCY MEDICAL SERVICE,-9122406.668731129,3058852.7527018175
ALVA MEDIC,2660 STYLES RD,ALVA,33920,LEE,"-81.60755189,26.70618246",17R MK 39565 54036,MUNICIPAL,27432700000540010,EMERGENCY MEDICAL SERVICE,-9084511.121618863,3086810.84422349
LEHIGH ACRES ALS - RESCUE 101,1000 JOEL BLVD,LEHIGH ACRES,33972,LEE,"-81.59778174,26.63684493",17R MK 40500 46352,MUNICIPAL,23442707000250020,EMERGENCY MEDICAL SERVICE,-9083423.512624953,3078173.125154311
LEHIGH ACRES ALS - RESCUE 103,308 GUNNERY RD S,LEHIGH ACRES,33971,LEE,"-81.71443518,26.60902093",17R MK 28872 43330,MUNICIPAL,33442607000070270,EMERGENCY MEDICAL SERVICE,-9096409.314776188,3074708.427509276
MEDIC 2,2404 DR MARTIN LUTHER KING BLVD,FORT MYERS,33901,LEE,"-81.86513260,26.64057832",17R MK 13892 46918,MUNICIPAL,244424P1010000070,EMERGENCY MEDICAL SERVICE,-9113184.874913873,3078638.0786917843
MEDIC 28,707 SW 1ST ST,CAPE CORAL,33993,LEE,"-81.98924676,26.65064644",17R MK 01547 48123,MUNICIPAL,144423C1025500110,EMERGENCY MEDICAL SERVICE,-9127001.199793296,3079892.0295720873
ALS AT FMB FIRE ST 33,121 LENELL RD,FORT MYERS BEACH,33931,LEE,"-81.89984961,26.41555882",17R MK 10262 22019,MUNICIPAL,034724W1000070010,EMERGENCY MEDICAL SERVICE,-9117049.554444838,3050641.3857473154
MEDIC 4,4610 CORONADO PKWY,CAPE CORAL,33904,LEE,"-81.95838281,26.56660588",17R MK 04549 38791,MUNICIPAL,124523C3003190240,EMERGENCY MEDICAL SERVICE,-9123565.440807207,3069428.444580284
LEE COUNTY EMS - PINE ISLAND FIRE ST 152,5015 STRINGFELLOW RD,SAINT JAMES CITY,33956,LEE,"-82.08858566,26.53298528",17R LK 91549 35171,MUNICIPAL,23452200010020020,EMERGENCY MEDICAL SERVICE,-9138059.555128759,3065244.6150722867
MEDIC 24,1029 DIPLOMAT PKWY E,CAPE CORAL,33909,LEE,"-81.95138156,26.68316746",17R MK 05342 51696,MUNICIPAL,314324C4021110010,EMERGENCY MEDICAL SERVICE,-9122786.065532615,3083943.1694285134
MEDIC 21,21510 THREE OAKS PKWY,ESTERO,33928,LEE,"-81.78886493,26.42592055",17R MK 21337 23094,MUNICIPAL,34462500000230010,EMERGENCY MEDICAL SERVICE,-9104694.796458976,3051929.377100845
MEDIC 10,5700 PINE ISLAND RD,BOKEELIA,33922,LEE,"-82.11985740,26.61390219",17R LK 88511 44160,MUNICIPAL,284422030000F004B,EMERGENCY MEDICAL SERVICE,-9141540.710087592,3075316.1905413624
MEDIC 23,9700 TREELINE AVE,FORT MYERS,33913,LEE,"-81.78613089,26.60276894",17R MK 21730 42679,MUNICIPAL,354425P4000010000,EMERGENCY MEDICAL SERVICE,-9104390.444844738,3073930.033680204
MEDIC 5,2351 PALM RIDGE RD,SANIBEL,33957,LEE,"-82.07793780,26.43777804",17R LK 92521 24616,MUNICIPAL,264622T20030B0020,EMERGENCY MEDICAL SERVICE,-9136874.241034493,3053403.439028724
MEDIC 33,16901 ISLAND PARK RD,FORT MYERS,33908,LEE,"-81.85799356,26.49780585",17R MK 14497 31100,MUNICIPAL,0146240000001002A,EMERGENCY MEDICAL SERVICE,-9112390.160158161,3060868.114501843
MEDIC 18,3980 VERONICA S SHOEMAKER BLVD,FORT MYERS,33916,LEE,"-81.84043128,26.60982515",17R MK 16328 43495,MUNICIPAL,314425P2005000030,EMERGENCY MEDICAL SERVICE,-9110435.136745706,3074808.558844126
MEDIC 9,8013 SANIBEL BLVD,FORT MYERS,33912,LEE,"-81.82330945,26.46820999",17R MK 17932 27799,MUNICIPAL,17462507000360010,EMERGENCY MEDICAL SERVICE,-9108529.14344434,3057187.275686951
MEDIC 19,17350 NALLE RD,NORTH FORT MYERS,33917,LEE,"-81.80112988,26.71653989",17R MK 20315 55290,MUNICIPAL,22432500000140010,EMERGENCY MEDICAL SERVICE,-9106060.125015214,3088101.5710945814
MEDIC 14,4540 CHIQUITA BLVD S,CAPE CORAL,33914,LEE,"-82.00724801,26.56649337",17R LK 99682 38816,MUNICIPAL,094523C3047450010,EMERGENCY MEDICAL SERVICE,-9129005.089884022,3069414.440764676
MEDIC 25,19591 BEN HILL GRIFFIN PKWY,FORT MYERS,33913,LEE,"-81.78047096,26.45754898",17R MK 22195 26592,MUNICIPAL,23462500000010070,EMERGENCY MEDICAL SERVICE,-9103760.383597054,3055861.596574155
MEDIC 1,2100 CRYSTAL DR,FORT MYERS,33907,LEE,"-81.87050744,26.56413740",17R MK 13299 38455,COUNTY,1345240100007001A,EMERGENCY MEDICAL SERVICE,-9113783.199273808,3069121.2188376514
MEDIC 30,1627 EVEREST PKWY,CAPE CORAL,33904,LEE,"-81.93911926,26.60689005",17R MK 06500 43239,MUNICIPAL,324424C1012030130,EMERGENCY MEDICAL SERVICE,-9121421.032479495,3074443.1202380904
MEDIC 6,27701 BONITA GRANDE DR,BONITA SPRINGS,34135,LEE,"-81.73742297,26.33580170",17R MK 26410 13082,MUNICIPAL,324726B4000010150,EMERGENCY MEDICAL SERVICE,-9098968.303233745,3040731.2183053032
MEDIC 31,2900 TRAIL DAIRY CIR,NORTH FORT MYERS,33917,LEE,"-81.90951181,26.73496761",17R MK 09549 57403,MUNICIPAL,16432400000040040,EMERGENCY MEDICAL SERVICE,-9118125.145462887,3090398.296692979
ALS AT FMB FIRE STATION 31,3043 ESTERO BLVD,FORT MYERS BEACH,33931,LEE,"-81.93528556,26.44523628",17R MK 06751 25331,MUNICIPAL,294624W10120C009A,EMERGENCY MEDICAL SERVICE,-9120994.266104566,3054330.687128826
MEDIC 35,14750 SIX MILE CYPRESS PKWY,FORT MYERS,33912,LEE,"-81.86232313,26.52885981",17R MK 14088 34542,COUNTY,2545240000005001A,EMERGENCY MEDICAL SERVICE,-9112872.125592599,3064731.3160448615
MEDIC 15,16551 MCGREGOR BLVD,FORT MYERS,33908,LEE,"-81.96309409,26.50241242",17R MK 04026 31684,COUNTY,01462300000090000,EMERGENCY MEDICAL SERVICE,-9124089.898136582,3061441.118626027
MEDIC 8,15961 WINKLER RD,FORT MYERS,33908,LEE,"-81.89849490,26.51026468",17R MK 10470 32507,COUNTY,34452400000100040,EMERGENCY MEDICAL SERVICE,-9116898.749039449,3062417.903101036
MEDIC 26,9351 WORKMEN WAY,FORT MYERS,33905,LEE,"-81.80253735,26.67205614",17R MK 20144 50364,COUNTY,03442512000000070,EMERGENCY MEDICAL SERVICE,-9106216.803683108,3082558.9033873416
MEDIC 12,2307 HANCOCK BRIDGE PKWY,CAPE CORAL,33909,LEE,"-81.92590541,26.65303686",17R MK 07853 48340,COUNTY,084424C3015160010,EMERGENCY MEDICAL SERVICE,-9119950.073347159,3080189.764967633
T02,14750 SIX MILE CYPRESS PKWY,FORT MYERS,33912,LEE,"-81.86232313,26.52885981",17R MK 14088 34542,COUNTY,2545240000005001A,EMERGENCY MEDICAL SERVICE,-9112872.125592599,3064731.3160448615
MEDIC 7,121 PONDELLA RD,NORTH FORT MYERS,33903,LEE,"-81.88490855,26.66675646",17R MK 11944 49831,COUNTY,11442400000170020,EMERGENCY MEDICAL SERVICE,-9115386.323558846,3081898.7090992066
MEDIC 20,6061 S POINTE BLVD,FORT MYERS,33919,LEE,"-81.90480693,26.55483703",17R MK 09876 37449,COUNTY,16452400000131040,EMERGENCY MEDICAL SERVICE,-9117601.401119852,3067963.760357124
MEDSTAR OPERATIONS MCC 20,4682-4700 TERMINAL DR,FORT MYERS,33907,LEE,"-81.86647671,26.59233045",17R MK 13722 41575,COUNTY,01452400000070000,EMERGENCY MEDICAL SERVICE,-9113334.500626422,3072630.5014125705
LEE COUNTY SHERIFF HEADQUARTERS,14750 SIX MILE CYPRESS PKWY,FORT MYERS,33912,LEE,"-81.86232313,26.52885981",17R MK 14088 34542,COUNTY,2545240000005001A,EMERGENCY MEDICAL SERVICE,-9112872.125592599,3064731.3160448615
MEDIC 17,2860 GARDEN ST,NORTH FORT MYERS,33917,LEE,"-81.88487098,26.70838698",17R MK 11979 54442,COUNTY,26432400000260030,EMERGENCY MEDICAL SERVICE,-9115382.140973479,3087085.558383594
MEDIC 27,15650 PINE RIDGE RD,FORT MYERS,33908,LEE,"-81.93621038,26.51392857",17R MK 06715 32940,COUNTY,31452400000120000,EMERGENCY MEDICAL SERVICE,-9121097.217060512,3062873.69718425
LEON COUNTY EMERGENCY MEDICAL SERVICES HQ,911 EASTERWOOD DR,TALLAHASSEE,32311,LEON,"-84.22295920,30.45155998",16R GU 66669 72100,COUNTY,2133208510000,EMERGENCY MEDICAL SERVICE,-9375656.931686783,3561726.73032166
WOODVILLE EMS POST,1555 OAK RIDGE RD E,TALLAHASSEE,32305,LEON,"-84.25309477,30.32108197",16R GU 64125 57562,MUNICIPAL,3308208010000,EMERGENCY MEDICAL SERVICE,-9379011.607504597,3544889.0652568555
CHAIRES-CAPITOLA EMS POST,4701 CHAIRES CROSS RD,TALLAHASSEE,32317,LEON,"-84.12531834,30.43870998",16R GU 76085 70910,MUNICIPAL,1234208020000,EMERGENCY MEDICAL SERVICE,-9364787.599956445,3560067.4902935047
MEDIC 2,16 NE 1ST ST,CHIEFLAND,32626,LEVY,"-82.85893076,29.47915881",17R LN 19765 62513,MUNICIPAL,0692700000,EMERGENCY MEDICAL SERVICE,-9223813.979938934,3436774.7222996936
MEDIC 4,800 S MAIN ST,WILLISTON,32696,LEVY,"-82.44875964,29.37729939",17R LN 59398 50660,COUNTY,,EMERGENCY MEDICAL SERVICE,-9178153.939567992,3423755.999504757
MEDIC 5,9991 SW COUNTY ROAD 347,CEDAR KEY,32625,LEVY,"-83.01915084,29.18288182",17R LN 03660 29934,COUNTY,,EMERGENCY MEDICAL SERVICE,-9241649.597079022,3398943.448318627
MEDIC 1 & 6,9150 NE 80TH AVE,BRONSON,32621,LEVY,"-82.64318851,29.46405335",17R LN 40662 60524,,,EMERGENCY MEDICAL SERVICE,-9199797.662641173,3434843.2588162557
MEDIC 3,18152 SE US HWY 19,INGLIS,34449,LEVY,"-82.64931595,29.06466832",17R LN 39445 16273,,,EMERGENCY MEDICAL SERVICE,-9200479.766501285,3383879.4401348694
LIBERTY COUNTY EMS,12503 NW VIRGINIA WEAVER ST,BRISTOL,32321,LIBERTY,"-84.98069559,30.43236581",16R FU 93927 68427,COUNTY,031-1N-7W-01379 000,EMERGENCY MEDICAL SERVICE,-9460007.760598144,3559248.3879156555
MADISON COUNTY EMERGENCY MEDICAL SERVICES,1314 W BASE ST,MADISON,32340,MADISON,"-83.43338473,30.47608446",17R KP 66399 74058,COUNTY,,EMERGENCY MEDICAL SERVICE,-9287761.903080778,3564894.030416754
MANATEE COUNTY EMS ST 2,1225 14TH AVE W,PALMETTO,34221,MANATEE,"-82.58167575,27.52429422",17R LL 43796 45504,COUNTY,2803810009,EMERGENCY MEDICAL SERVICE,-9192950.092995137,3189129.4842203497
MANATEE COUNTY EMS ST 13,6100 15TH ST E,BRADENTON,34203,MANATEE,"-82.54714709,27.43250301",17R LL 47080 35291,COUNTY,6554800509,EMERGENCY MEDICAL SERVICE,-9189106.380992273,3177611.98375632
MANATEE COUNTY EMS ST 4,6001 MARINA DR,BRADENTON BEACH,34217,MANATEE,"-82.71538937,27.51153638",17R LL 30569 44266,COUNTY,7244000001,EMERGENCY MEDICAL SERVICE,-9207835.02500225,3187528.12056023
MANATEE COUNTY EMS ST 8,407 67TH ST W,BRADENTON,34209,MANATEE,"-82.62818117,27.49681319",17R LL 39163 42519,COUNTY,3766900058,EMERGENCY MEDICAL SERVICE,-9198127.05281654,3185680.295335109
MANATEE COUNTY EMS ST 11,5200 26TH ST W,BRADENTON,34207,MANATEE,"-82.58799448,27.44876782",17R LL 43065 37144,COUNTY,5269600051,EMERGENCY MEDICAL SERVICE,-9193653.491585197,3179652.11142428
MANATEE COUNTY EMS ST 17,15015 59TH AVE E,BRADENTON,34211,MANATEE,"-82.39148229,27.43596454",17R LL 62472 35493,COUNTY,582310209,EMERGENCY MEDICAL SERVICE,-9171777.853711478,3178046.1450382024
MANATEE COUNTY EMS ST 5,1501 DAM RD,BRADENTON,34212,MANATEE,"-82.35136641,27.48410367",17R LL 66495 40782,,,EMERGENCY MEDICAL SERVICE,-9167312.17442016,3184085.3950077114
MANATEE COUNTY EMS ST 16,206 2ND ST E,BRADENTON,34206,MANATEE,"-82.56150385,27.49760304",17R LL 45751 42521,,,EMERGENCY MEDICAL SERVICE,-9190704.567621987,3185779.419446803
MANATEE COUNTY EMS ST 9,10350 CORTEZ RD W,BRADENTON,34210,MANATEE,"-82.66485680,27.46231417",17R LL 35488 38744,COUNTY,7577100055,EMERGENCY MEDICAL SERVICE,-9202209.765351914,3181351.486285615
MANATEE COUNTY EMS ST 15,8800 E STATE ROAD 70,BRADENTON,34202,MANATEE,"-82.44766567,27.43699534",17R LL 56920 35670,COUNTY,1730930003,EMERGENCY MEDICAL SERVICE,-9178032.159955561,3178175.435873566
MANATEE COUNTY EMS ST 1,908 36TH AVE W,BRADENTON,34205,MANATEE,"-82.57100347,27.46818800",17R LL 44772 39274,COUNTY,4925310007,EMERGENCY MEDICAL SERVICE,-9191762.061021492,3182088.416683383
MANATEE COUNTY EMS ST 18,823 49TH ST E,PALMETTO,34221,MANATEE,"-82.55550885,27.55766110",17R LL 46427 49168,COUNTY,2274900059,EMERGENCY MEDICAL SERVICE,-9190037.207846915,3193318.5752957747
MANATEE COUNTY EMS ST 12,803 60TH ST CT E,BRADENTON,34208,MANATEE,"-82.48485361,27.49137131",17R LL 53316 41738,COUNTY,1122510009,EMERGENCY MEDICAL SERVICE,-9182171.901709111,3184997.3785782806
MANATEE COUNTY EMS ST 7,7611 PROSPECT RD,SARASOTA,34243,MANATEE,"-82.51734522,27.40439554",17R LL 49988 32141,COUNTY,1974500109,EMERGENCY MEDICAL SERVICE,-9185788.850976078,3174087.1157546854
MANATEE COUNTY EMS ST 6,3220 LAKEWOOD RANCH BLVD,BRADENTON,34211,MANATEE,"-82.43284223,27.47067543",17R LL 58428 39385,COUNTY,579100159,EMERGENCY MEDICAL SERVICE,-9176382.021546017,3182400.502306087
MANATEE COUNTY EMS ST 3,7415 N TAMIAMI TRL,SARASOTA,34243,MANATEE,"-82.56972521,27.40870463",17R LL 44815 32683,COUNTY,6764100001,EMERGENCY MEDICAL SERVICE,-9191619.76493628,3174627.446249734
MANATEE COUNTY EMS ST 10,2905 59TH ST W,BRADENTON,34209,MANATEE,"-82.61998400,27.47514602",17R LL 39941 40107,MUNICIPAL,5110200002,EMERGENCY MEDICAL SERVICE,-9197214.548784414,3182961.421258474
MANATEE COUNTY EMS ST 14,10215 WAUCHULA RD,MYAKKA CITY,34251,MANATEE,"-82.16205568,27.35498862",17R LL 85066 26290,MUNICIPAL,178300109,EMERGENCY MEDICAL SERVICE,-9146238.200701077,3167893.3240173836
OCALA FIRE/RESCUE SERVICE,410 NE 3RD ST,OCALA,34470,MARION,"-82.13311177,29.18943966",17R LN 89833 29505,MUNICIPAL,2820-050-001,EMERGENCY MEDICAL SERVICE,-9143016.179512883,3399779.6244067606
VILLAGE CENTER COMMUNITY DEVELOPMENT DISTRICT AMB #42,17202 SE 86TH BELLE MEADE CIR,LADY LAKE,32162,MARION,"-82.00001630,28.96694982",17R MN 02564 04735,MUNICIPAL,6755-000-008,EMERGENCY MEDICAL SERVICE,-9128200.059136607,3371440.159811022
EMS ALLIANCE,325 SW 60TH AVE,OCALA,34474,MARION,"-82.21783943,29.18397315",17R LN 81588 28982,PRIVATE,2318-007-101,EMERGENCY MEDICAL SERVICE,-9152448.01910523,3399082.597270545
COASTAL CARE ADV LIFE SUPORT,524 SE OSCEOLA ST,STUART,34994,MARTIN,"-80.24415757,27.19816719",17R NL 74860 08610,PRIVATE,043841020002001203,EMERGENCY MEDICAL SERVICE,-8932738.760122998,3148252.011775265
MED TRANS SPEC AMBULANCE,1501 SE DECKER AVE STE 103,STUART,34994,MARTIN,"-80.24245316,27.18583117",17R NL 75037 07244,PRIVATE,093841012000000000,EMERGENCY MEDICAL SERVICE,-8932549.025506372,3146708.1440988216
MARTIN COUNTY FIRE RESC,6000 SE TOWER DR,STUART,34997,MARTIN,"-80.22529178,27.13149907",17R NL 76774 01236,COUNTY,553841000065000804,EMERGENCY MEDICAL SERVICE,-8930638.629531564,3139910.4484695243
BAPTIST AIR TRANSPORT,8900 N KENDALL DR,MIAMI,33176,MIAMI-DADE,"-80.33848889,25.68609167",17R NJ 66378 41087,,,EMERGENCY MEDICAL SERVICE,-8943239.67426042,2960253.7114138347
AMERICAN AMBULANCE SERVICE INC,6605 NW 74TH AVE,MIAMI,33166,MIAMI-DADE,"-80.31762604,25.83377925",17R NJ 68387 57453,PRIVATE,3030140100393,EMERGENCY MEDICAL SERVICE,-8940917.232345197,2978508.314396596
FLORIDA MEDI-VAN AMB SVC INC,2950 NW 7TH AVE,MIAMI,33127,MIAMI-DADE,"-80.20765070,25.80468278",17R NJ 79428 54293,PRIVATE,0131260060010,EMERGENCY MEDICAL SERVICE,-8928674.833298935,2974910.1105704703
SKYSERVICE LIFEGUARD AMB,1521 ALTON RD STE 400,MIAMI BEACH,33139,MIAMI-DADE,"-80.14080968,25.78777979",17R NJ 86141 52463,PRIVATE,0232340180480,EMERGENCY MEDICAL SERVICE,-8921234.125619523,2972820.2149747387
TRINITY AIR AMB INTERNATIONAL,464 OCEAN BLVD,NORTH MIAMI BEACH,33160,MIAMI-DADE,"-80.11990481,25.96842024",17R NJ 88103 72482,PRIVATE,1912350020130,EMERGENCY MEDICAL SERVICE,-8918907.00586082,2995170.1803902644
VLG KEY BISCAYNE FIRE RESCUE,560 CRANDON BLVD,KEY BISCAYNE,33149,MIAMI-DADE,"-80.16435726,25.69088860",17R NJ 83848 41717,MUNICIPAL,2442320010060,EMERGENCY MEDICAL SERVICE,-8923855.429707604,2960846.2689531306
MIAMI BEACH FIRE AND RESCUE,2300 PINETREE DR,MIAMI BEACH,33140,MIAMI-DADE,"-80.13044394,25.79965151",17R NJ 87172 53784,MUNICIPAL,0232270000100,EMERGENCY MEDICAL SERVICE,-8920080.216051133,2974288.0102488836
HIALEAH FIRE RESCUE,83 E 5TH ST,HIALEAH,33010,MIAMI-DADE,"-80.28034033,25.82677052",17R NJ 72128 56697,MUNICIPAL,0431180012300,EMERGENCY MEDICAL SERVICE,-8936766.605773155,2977641.501054637
HIALEAH FIRE DEPARTMENT STATION 4,251 E 12TH AVE,MIAMI,33142,MIAMI-DADE,"-80.25672888,25.82465597",17R NJ 74496 56476,MUNICIPAL,0431160110220,EMERGENCY MEDICAL SERVICE,-8934138.191458123,2977379.9926542784
CORAL GABLES FIRE AND RESCUE,2815 SALZEDO ST,MIAMI,33134,MIAMI-DADE,"-80.26025041,25.74584786",17R NJ 74192 47746,MUNICIPAL,0341170055110,EMERGENCY MEDICAL SERVICE,-8934530.206637003,2967637.0121026933
RANDLE-EASTERN AMBULANCE SERV,7255 NW 19TH ST,MIAMI,33126,MIAMI-DADE,"-80.31597099,25.79150102",17R NJ 68577 52772,PRIVATE,3030350080020,EMERGENCY MEDICAL SERVICE,-8940732.993260924,2973280.2851223913
MCT EXPRESS MIAMI DADE AMBULANCE SERVICE,2766 NW 62ND ST,MIAMI,33142,MIAMI-DADE,"-80.24212922,25.83058459",17R NJ 75955 57141,PRIVATE,3031160097520,EMERGENCY MEDICAL SERVICE,-8932512.965247732,2978113.20485015
ADVANCED AIR AMB CORP,12360 SW 132ND CT STE 208,MIAMI,33186,MIAMI-DADE,"-80.40876570,25.65312241",17R NJ 59342 37402,PRIVATE,3059140570001,EMERGENCY MEDICAL SERVICE,-8951062.852673791,2956181.7121159583
MEDICAL 8 STATION,81850 OVERSEAS HWY,ISLAMORADA,33036,MONROE,"-80.63626191,24.91770924",17R NH 36729 55884,MUNICIPAL,3263 37 00095080000000,EMERGENCY MEDICAL SERVICE,-8976387.615606716,2865640.4381680884
Tavernier Vol Fire Dept/EMS  #22,151 MARINE AVE,TAVERNIER,33070,MONROE,"-80.51754096,25.01071922",17R NH 48680 66221,COUNTY,3462 38 00479100000000,EMERGENCY MEDICAL SERVICE,-8963171.659935484,2877061.296589049
ISLAMORADA VILLAGE OF ISLANDS FIRE RESCUE,81850 OVERSEAS HWY,ISLAMORADA,33036,MONROE,"-80.63626191,24.91770924",17R NH 36729 55884,MUNICIPAL,3263 37 00095080000000,EMERGENCY MEDICAL SERVICE,-8976387.615606716,2865640.4381680884
KEY LARGO AMBULANCE,98600 OVERSEAS HWY,KEY LARGO,33037,MONROE,"-80.45184534,25.08397133",17R NH 55277 74357,MUNICIPAL,3261 39 00088100000100,EMERGENCY MEDICAL SERVICE,-8955858.456847496,2886062.1401787703
MARATHON FIRE RESCUE,8900 OVERSEAS HWY,MARATHON,33050,MONROE,"-81.05198362,24.72471175",17R MH 94742 34467,MUNICIPAL,0166 32 00101160000000,EMERGENCY MEDICAL SERVICE,-9022665.544093203,2841969.3580360455
MARATHON FIRE RESCUE ST 1,3299 OVERSEAS HWY,MARATHON,33050,MONROE,"-81.09498323,24.71137052",17R MH 90392 32992,MUNICIPAL,0966 32 00102310000000,EMERGENCY MEDICAL SERVICE,-9027452.23862152,2840334.4198482865
Medical 3 Station,28 EMERALD DR,KEY WEST,33040,MONROE,"-81.65575309,24.59790305",17R MH 33613 20583,OTHER PUBLIC,2267 26 00156610000000,EMERGENCY MEDICAL SERVICE,-9089876.854152272,2826436.306461294
KEY WEST FIRE RESCUE (AMR),1980 N ROOSEVELT BLVD,KEY WEST,33040,MONROE,"-81.78199673,24.55983346",17R MH 20808 16434,PRIVATE,0568 25 00051870000100,EMERGENCY MEDICAL SERVICE,-9103930.232100604,2821776.161376724
FISHERMEN'S COMMUNITY HOSPITAL,3301 OVERSEAS HIGHWAY,MARATHON,33050,MONROE,"-81.09454950,24.71018620",17R MH 90436 32861,,,EMERGENCY MEDICAL SERVICE,-9027403.956415666,2840189.292809997
LOWER KEYS MEDICAL CENTER,5900 COLLEGE RD,KEY WEST,33040,MONROE,"-81.74236793,24.58096860",17R MH 24834 18752,,,EMERGENCY MEDICAL SERVICE,-9099518.774018314,2824363.164531392
MEDICAL 6 STATION,3301 OVERSEAS HWY,MARATHON,33050,MONROE,"-81.09446182,24.71072397",17R MH 90445 32920,,,EMERGENCY MEDICAL SERVICE,-9027394.196076581,2840255.191445331
MARINERS HOSPITAL,91500 OVERSEAS HIGHWAY,TAVERNIER,33070,MONROE,"-80.52231140,25.00608000",17R NH 48201 65705,,,EMERGENCY MEDICAL SERVICE,-8963702.702513054,2876491.4337359695
DEPOO HOSPITAL,1200 KENNEDY DR,KEY WEST,33040,MONROE,"-81.76735478,24.56442933",17R MH 22294 16935,,,EMERGENCY MEDICAL SERVICE,-9102300.298176534,2822338.6721457737
MEDICAL 9 STATION,151 MARINE AVE,TAVERNIER,33070,MONROE,"-80.51754096,25.01071922",17R NH 48680 66221,COUNTY,3462 38 00479100000000,EMERGENCY MEDICAL SERVICE,-8963171.659935484,2877061.296589049
MEDICAL 5 STATION,400 KEY DEER BLVD,BIG PINE KEY,33043,MONROE,"-81.35974257,24.67448990",17R MH 63603 28952,COUNTY,2666 29 00111460000000,EMERGENCY MEDICAL SERVICE,-9056925.114358097,2835815.695280141
Medical 4 Station,20950 OVERSEAS HWY,SUMMERLAND KEY,33042,MONROE,"-81.50636796,24.66434839",17R MH 48764 27876,COUNTY,3066 28 00174635004400,EMERGENCY MEDICAL SERVICE,-9073247.378216343,2834573.3600698523
Big Pine Vol Fire Station/EMS #13,400 KEY DEER BLVD,BIG PINE KEY,33043,MONROE,"-81.35974257,24.67448990",17R MH 63603 28952,COUNTY,2666 29 00111460000000,EMERGENCY MEDICAL SERVICE,-9056925.114358097,2835815.695280141
ISLAMORADA FIRE RESCUE,89990 OVERSEAS HIGHWAY,TAVERNIER,33070,MONROE,"-80.53940243,24.99522544",17R NH 46480 64498,COUNTY,0563 38 00428470000000,EMERGENCY MEDICAL SERVICE,-8965605.26773405,2875158.189112977
MEDICAL 7 STATION,10 S CONCH AVE,MARATHON,33050,MONROE,"-80.88994541,24.78947455",17R NH 11124 41641,COUNTY,1565 34 00099040000000,EMERGENCY MEDICAL SERVICE,-9004627.533705061,2849908.385177909
Big Pine Vol Fire Station/EMS #13,400 KEY DEER BLVD,BIG PINE KEY,33043,MONROE,"-81.35974257,24.67448990",17R MH 63603 28952,COUNTY,2666 29 00111460000000,EMERGENCY MEDICAL SERVICE,-9056925.114358097,2835815.695280141
NASSAU COUNTY FD ST 60,8263 US HIGHWAY 301,BRYCEVILLE,32009,NASSAU,"-81.93519680,30.39225550",17R MP 10157 62622,COUNTY,19-1S-24-0000-0005-0010,EMERGENCY MEDICAL SERVICE,-9120984.38608791,3554070.936747623
NASSAU COUNTY VFD ST 4,37203 PECAN ST,HILLIARD,32046,NASSAU,"-81.91915928,30.68969583",17R MP 11966 95573,COUNTY,09-3N-24-0000-0034-0000,EMERGENCY MEDICAL SERVICE,-9119199.097072676,3592515.471845724
NASSAU COUNTY VFD ST 8,540507 LEM TURNER RD,CALLAHAN,32011,NASSAU,"-81.77242442,30.53155588",17R MP 25900 77942,COUNTY,37-1N-25-0000-0004-0030,EMERGENCY MEDICAL SERVICE,-9102864.64740529,3572061.0273582595
NASSAU COUNTY VFD 6-A,8263 US HWY 301,BRYCEVILLE,32009,NASSAU,"-81.93537415,30.39178065",17R MP 10139 62570,COUNTY,19-1S-24-0000-0005-0010,EMERGENCY MEDICAL SERVICE,-9121004.128546165,3554009.6563718
NASSAU COUNTY FD ST 50,542300 US HWY 1,CALLAHAN,32011,NASSAU,"-81.82883472,30.56333339",17R MP 20514 81502,COUNTY,29-2N-25-0000-0015-0010,EMERGENCY MEDICAL SERVICE,-9109144.213245144,3576168.576453815
NASSAU COUNTY VFD ST 11,56300 NASSAU OAKS DR,CALLAHAN,32011,NASSAU,"-81.76098072,30.62833400",17R MP 27070 88659,COUNTY,48-3N-25-4196-000J-0000,EMERGENCY MEDICAL SERVICE,-9101590.74021656,3584574.7235943493
NASSAU COUNTY FD ST 30,86028 PAGES DAIRY RD,YULEE,32097,NASSAU,"-81.60425435,30.63354699",17R MP 42094 89146,COUNTY,51-3N-27-0000-0013-0020,EMERGENCY MEDICAL SERVICE,-9084144.04087255,3585249.1329195537
NASSAU COUNTY VFD ST 3B,3600 PIRATES WAY,YULEE,32097,NASSAU,"-81.53052046,30.67298503",17R MP 49180 93481,COUNTY,43-3N-28-509E-0020-0000,EMERGENCY MEDICAL SERVICE,-9075936.021772018,3590352.4513331684
NASSAU COUNTY VFD ST 10,43488 RATLIFF RD,CALLAHAN,32011,NASSAU,"-81.81250636,30.49813824",17R MP 22028 74265,COUNTY,16-1N-25-0750-0001-0020,EMERGENCY MEDICAL SERVICE,-9107326.5486384,3567742.925568273
NASSAU COUNTY FD ST 20,5518 FIRST COAST HWY,FERNANDINA BEACH,32034,NASSAU,"-81.45337843,30.57255659",17R MP 56525 82319,COUNTY,20-2N-28-0000-0001-0010,EMERGENCY MEDICAL SERVICE,-9067348.609848311,3577361.015141086
NASSAU COUNTY FD ST 40,37230 PEA FARM RD,HILLIARD,32046,NASSAU,"-81.90742367,30.68927911",17R MP 13090 95518,COUNTY,09-3N-24-0000-0031-0000,EMERGENCY MEDICAL SERVICE,-9117892.694720354,3592461.5265863324
NASSAU COUNTY VFD ST 7,1426 NASSAUVILLE RD,FERNANDINA BEACH,32034,NASSAU,"-81.51858390,30.57846090",17R MP 50276 83000,COUNTY,32-2N-28-0000-0023-0000,EMERGENCY MEDICAL SERVICE,-9074607.249964723,3578124.4249037784
NASSAU COUNTY VFD ST 3A,85230 MINER RD,YULEE,32097,NASSAU,"-81.57120695,30.60540404",17R MP 45245 86011,COUNTY,42-2N-27-0000-0001-0070,EMERGENCY MEDICAL SERVICE,-9080465.221551446,3581608.6823696382
NASSAU COUNTY FD ST 70,4061 PINE GROVE RD,FERNANDINA BEACH,32034,NASSAU,"-81.51341192,30.61675377",17R MP 50791 87242,COUNTY,40-2N-28-0000-0039-0000,EMERGENCY MEDICAL SERVICE,-9074031.507878505,3583076.707440671
FERNANDINA BEACH FD ST 2,2800 JOHN ROBAS RD,FERNANDINA BEACH,32034,NASSAU,"-81.43800021,30.63793416",17R MP 58028 89558,MUNICIPAL,00-00-31-1360-0064-0000,EMERGENCY MEDICAL SERVICE,-9065636.714548035,3585816.734665575
FERNANDINA BEACH FD ST 1,225 S 14TH ST,FERNANDINA BEACH,32034,NASSAU,"-81.45231768,30.66669414",17R MP 56669 92751,MUNICIPAL,00-00-31-1800-0242-0090,EMERGENCY MEDICAL SERVICE,-9067230.527813947,3589538.2642818666
NASSAU COUNTY VFD ST 3,86048 GOODBREAD RD,YULEE,32097,NASSAU,"-81.60358944,30.63617552",17R MP 42159 89437,COUNTY,50-3N-27-4720-0103-0030,EMERGENCY MEDICAL SERVICE,-9084070.023514379,3585589.202876514
NASSAU COUNTY VFD ST 6,10432 COUNTY ROAD 121,BRYCEVILLE,32009,NASSAU,"-82.02940158,30.41172770",17R MP 01126 64859,COUNTY,17-1S-23-0000-0002-0010,EMERGENCY MEDICAL SERVICE,-9131471.214021662,3556584.1488004583
NASSAU COUNTY VFD ST 9,3368 HENRY LEE RD,HILLIARD,32046,NASSAU,"-81.99283274,30.56160260",17R MP 04785 81437,COUNTY,27-2N-23-0000-0001-0040,EMERGENCY MEDICAL SERVICE,-9127400.388815211,3575944.8209375525
OKALOOSA CO EMS,1250 EGLIN PKWY,SHALIMAR,32579,OKALOOSA,"-86.58020589,30.44606780",16R EU 40306 68289,COUNTY,06-2S-23-224C-0001-01A0,EMERGENCY MEDICAL SERVICE,-9638064.431984061,3561017.532522156
FLORIDA FLIGHT I, , , ,ORANGE,"-81.36826867,28.57566005",17R MM 63985 61029,,,EMERGENCY MEDICAL SERVICE,-9057874.235531224,3321747.1355396663
REEDY CREEK FIRE AMB STATION 2,1600 W BUENA VISTA DR,ORLANDO,32830,ORANGE,"-81.57499092,28.34873865",17R MM 43647 35969,MUNICIPAL,272435000000009,EMERGENCY MEDICAL SERVICE,-9080886.450334243,3293013.3287020293
REEDY CREEK EMS ST 4,1920 E BUENA VISTA DR,ORLANDO,32830,ORANGE,"-81.51822311,28.37905852",17R MM 49226 39302,MUNICIPAL,282421000000035,EMERGENCY MEDICAL SERVICE,-9074567.087383807,3296849.001293232
REEDY CREEK EMS ST 1,651 E BUENA VISTA DR,ORLANDO,32830,ORANGE,"-81.54710684,28.36536922",17R MM 46389 37798,MUNICIPAL,282430000000004,EMERGENCY MEDICAL SERVICE,-9077782.409403896,3295117.074187411
REEDY CREEK EMS ST 3,1000 FLORIDIAN WAY,ORLANDO,32830,ORANGE,"-81.57964249,28.42336615",17R MM 43231 44238,MUNICIPAL,272402000000012,EMERGENCY MEDICAL SERVICE,-9081404.26128448,3302456.193838195
WINTER PARK EMS ST 61,325 W CANTON AVE,WINTER PARK,32789,ORANGE,"-81.35421587,28.60078933",17R MM 65367 63809,MUNICIPAL,302205939800010,EMERGENCY MEDICAL SERVICE,-9056309.884455739,3324932.9200675306
ORLANDO INTERNATIONAL AIRPORT EMS ST 3,8801 HEINTZELMAN BLVD,ORLANDO,32827,ORANGE,"-81.28705552,28.44105278",17R MM 71891 46095,MUNICIPAL,302403000000002,EMERGENCY MEDICAL SERVICE,-9048833.628355809,3304695.117346957
ORLANDO INTERNATIONAL AIRPORT EMS ST 1,5605 S PERIMETER RD,ORLANDO,32827,ORANGE,"-81.31091670,28.42134139",17R MM 69549 43917,MUNICIPAL,302403000000002,EMERGENCY MEDICAL SERVICE,-9051489.842716994,3302199.9069178966
APOPKA FD ST 1,175 E 5TH ST,APOPKA,32703,ORANGE,"-81.50843937,28.67229669",17R MM 50322 71785,MUNICIPAL,282109019660441,EMERGENCY MEDICAL SERVICE,-9073477.965816198,3334002.4974248596
HEALTH CENTRAL PARAMEDIC SERVICE (WEST ORANGE DISTRICT),2700 PROFESSIONAL PKWY,GOTHA,34734,ORANGE,"-81.54150183,28.54754216",17R MM 47029 57978,OTHER PUBLIC,282229557700010,EMERGENCY MEDICAL SERVICE,-9077158.462012067,3318183.3682298725
MAITLAND EMS ST 45,1776 INDEPENDENCE LN,MAITLAND,32751,ORANGE,"-81.36503761,28.62602955",17R MM 64318 66608,MUNICIPAL,292125651601010,EMERGENCY MEDICAL SERVICE,-9057514.555293513,3328133.5376144927
FL HOSPITAL EMS,1919 N ORANGE AVE STE A,ORLANDO,32803,ORANGE,"-81.37237971,28.56968480",17R MM 63580 60368,PRIVATE,292213610000010,EMERGENCY MEDICAL SERVICE,-9058331.874134568,3320989.729640013
RURAL METRO AMBULANCE,4728 OLD WINTER GARDEN RD,ORLANDO,32811,ORANGE,"-81.44181418,28.54493852",17R MM 56779 57650,PRIVATE,292229000000068,EMERGENCY MEDICAL SERVICE,-9066061.283468276,3317853.4207869205
AMERICAN AMBULANCE SERVICE OF CENTRAL FLORIDA,3747 SILVER STAR RD,ORLANDO,32808,ORANGE,"-81.42765947,28.57859829",17R MM 58177 61374,PRIVATE,292217598000190,EMERGENCY MEDICAL SERVICE,-9064485.589204967,3322119.5933412346
KISSIMMEE FIRE DEPT/AMB STATION 11,343 N. CLYDE AVE,KISSIMMEE,34741,OSCEOLA,"-81.41287637,28.29506358",17R MM 59515 29957,MUNICIPAL,22-25-29-2170-0002-0020,EMERGENCY MEDICAL SERVICE,-9062839.941832004,3286225.745735523
KISSIMMEE FIRE DEPT/AMB STATION 12,1403 DENN JOHN LN,KISSIMMEE,34744,OSCEOLA,"-81.37870928,28.30460133",17R MM 62869 31003,MUNICIPAL,14-25-29-00U0-0330-0000,EMERGENCY MEDICAL SERVICE,-9059036.478020256,3287431.610622353
KISSIMMEE FIRE DEPT/AMB STATION 14,1101 REGATTA BAY BLVD,KISSIMMEE,34741,OSCEOLA,"-81.41503239,28.33251655",17R MM 59318 34107,MUNICIPAL,09-25-29-1535-0001-0010,EMERGENCY MEDICAL SERVICE,-9063079.948635563,3290961.5710392706
KISSIMMEE FIRE DEPT/AMB STATION 13,1801 N HOAGLAND BLVD,KISSIMMEE,34741,OSCEOLA,"-81.44458148,28.30852556",17R MM 56412 31460,MUNICIPAL,18-25-29-1896-0001-0100,EMERGENCY MEDICAL SERVICE,-9066369.337726748,3287927.7841149853
SKY WAY ENTERPRISES AMBULANCE,3031 PATRICK ST,KISSIMMEE,34741,OSCEOLA,"-81.43328558,28.29057018",17R MM 57512 29467,MUNICIPAL,20-25-29-2360-0028-0010,EMERGENCY MEDICAL SERVICE,-9065111.884295613,3285657.6809372623
N PALM BEACH PUB SAFETY,560 US HIGHWAY 1,NORTH PALM BEACH,33408,PALM BEACH,"-80.05613087,26.81227694",17R NK 93803 65991,MUNICIPAL,68434216230030000,EMERGENCY MEDICAL SERVICE,-8911807.722882796,3100037.7462787046
PALM BEACH COUNTY FIRE RESCUE STATION 27,3411 SOUTHSHORE BLVD,WEST PALM BEACH,33414,PALM BEACH,"-80.26154771,26.63042321",17R NK 73504 45714,COUNTY,73414421020000010,EMERGENCY MEDICAL SERVICE,-8934674.621562611,3077373.4052571496
RIVIERA BEACH FIRE RESC,600 W BLUE HERON BLVD,WEST PALM BEACH,33404,PALM BEACH,"-80.06476448,26.78463664",17R NK 92968 62924,MUNICIPAL,56434228250300000,EMERGENCY MEDICAL SERVICE,-8912768.812589025,3096590.6129572894
W PALM BEACH FIRE RESCUE,500 N DIXIE HWY,WEST PALM BEACH,33401,PALM BEACH,"-80.05308257,26.71727176",17R NK 94184 55471,MUNICIPAL,74434322120040090,EMERGENCY MEDICAL SERVICE,-8911468.388311123,3088192.7806467065
PALM SPRINGS PUBLIC SAFETY,230 CYPRESS LN,LAKE WORTH,33461,PALM BEACH,"-80.09516990,26.64059679",17R NK 90058 46947,MUNICIPAL,70434418380010010,EMERGENCY MEDICAL SERVICE,-8916153.5280113,3078640.3792647785
RIVIERA BEACH FIRE RESCUE STATION 2,1663 W BLUE HERON BLVD,WEST PALM BEACH,33404,PALM BEACH,"-80.08204017,26.78086658",17R NK 91253 62493,MUNICIPAL,56434229040070010,EMERGENCY MEDICAL SERVICE,-8914691.93380298,3096120.4992506728
RIVIERA BEACH FIRE RESCUE STATION 4,7501 N MILITARY TRAIL,PALM BEACH GARDENS,33418,PALM BEACH,"-80.10759154,26.78669655",17R NK 88709 63121,MUNICIPAL,56424225370000400,EMERGENCY MEDICAL SERVICE,-8917536.299361851,3096847.483312802
TEQUESTA EMS,357 TEQUESTA DR,JUPITER,33469,PALM BEACH,"-80.09350725,26.95925476",17R NK 89972 82245,MUNICIPAL,60424025100030000,EMERGENCY MEDICAL SERVICE,-8915968.443044065,3118382.0915031517
PALM BEACH FIRE RESCUE/AMB STATION 1,360 S COUNTY RD,PALM BEACH,33480,PALM BEACH,"-80.03693956,26.70286968",17R NK 95802 53887,MUNICIPAL,50434323050070110,EMERGENCY MEDICAL SERVICE,-8909671.355990494,3086398.035402193
PALM SPRINGS DEPARTMENT OF PUBLIC SAFETY,226 CYPRESS LN,LAKE WORTH,33461,PALM BEACH,"-80.09505378,26.64147013",17R NK 90069 47044,MUNICIPAL,70434418380010010,EMERGENCY MEDICAL SERVICE,-8916140.602006119,3078749.1460045855
BOCA RATON FIRE RESCUE,2333 W GLADES RD,BOCA RATON,33431,PALM BEACH,"-80.12634877,26.36877372",17R NK 87160 16819,MUNICIPAL,06424714120010000,EMERGENCY MEDICAL SERVICE,-8919624.343955217,3044827.3049470736
PALM BEACH FIRE RESCUE/AMB STATION 2,300 N COUNTY RD,PALM BEACH,33480,PALM BEACH,"-80.03824417,26.72533229",17R NK 95654 56374,MUNICIPAL,50434314070000290,EMERGENCY MEDICAL SERVICE,-8909816.58448943,3089197.3589789486
BOYNTON BEACH FIRE/RESC,100 E BOYNTON BEACH BLVD,BOYNTON BEACH,33435,PALM BEACH,"-80.06237506,26.52867742",17R NK 93413 34575,MUNICIPAL,08434528060000020,EMERGENCY MEDICAL SERVICE,-8912502.82342287,3064708.6235815273
LAKE WORTH FIRE RESCUE,1020 LUCERNE AVE,LAKE WORTH,33460,PALM BEACH,"-80.05861696,26.61696369",17R NK 93716 44356,MUNICIPAL,38434421150140010,EMERGENCY MEDICAL SERVICE,-8912084.473244172,3075697.3895939426
DELRAY BEACH FIRE RESCUE,501 W ATLANTIC AVE,DELRAY BEACH,33444,PALM BEACH,"-80.07865788,26.46222807",17R NK 91844 27203,MUNICIPAL,12434616010200010,EMERGENCY MEDICAL SERVICE,-8914315.418162525,3056443.419394257
LAKE WORTH FIRE RESCUE STATION 2,1229 DETROIT ST,LAKE WORTH,33461,PALM BEACH,"-80.07207262,26.62895726",17R NK 92367 45675,MUNICIPAL,38434421020050010,EMERGENCY MEDICAL SERVICE,-8913582.350997297,3077190.851642406
MEDIC AMBULANCE SERVICES INCORPORATED,2620 FOREST HILL BOULEVARD,WEST PALM BEACH,33406,PALM BEACH,"-80.08211445,26.65009796",17R NK 91350 48009,PRIVATE,70434408230080010,EMERGENCY MEDICAL SERVICE,-8914700.202226002,3079823.715040171
WACKENHUT CORPORATION,6413 S CONGRESS AVE,BOCA RATON,33487,PALM BEACH,"-80.10281406,26.40334236",17R NK 89481 20664,PRIVATE,06434706190050000,EMERGENCY MEDICAL SERVICE,-8917004.471879365,3049122.993509734
AMERICAN MEDICAL RESPONSE,1105 BARNETT DR STE D,LAKE WORTH,33461,PALM BEACH,"-80.07078433,26.62933005",17R NK 92495 45717,PRIVATE,38434421020050020,EMERGENCY MEDICAL SERVICE,-8913438.938576719,3077237.275071815
PALM BEACH FIRE RESCUE/AMB STATION 3,2185 S OCEAN BLVD,PALM BEACH,33480,PALM BEACH,"-80.03868666,26.63954102",17R NK 95681 46872,MUNICIPAL,50434411030001201,EMERGENCY MEDICAL SERVICE,-8909865.842784526,3078508.892580785
RIVIERA BEACH FIRE RESCUE STATION 3,5010 N OCEAN DR,WEST PALM BEACH,33404,PALM BEACH,"-80.03387997,26.79881618",17R NK 96026 64517,MUNICIPAL,56434222010000011,EMERGENCY MEDICAL SERVICE,-8909330.764018372,3098358.896428369
HEALTH CARE DISTRICT OF PALM BEACH COUNTY - TRAUMA HAWK,4255 SOUTHERN BOULEVARD,WEST PALM BEACH,33406,PALM BEACH,"-80.10817087,26.67873819",17R NK 88735 51163,COUNTY,00424336000005040,EMERGENCY MEDICAL SERVICE,-8917600.78966853,3083391.3483635234
GREENACRES DEPT PUB SAF,2995 JOG RD,LAKE WORTH,33467,PALM BEACH,"-80.14645992,26.63101158",17R NK 84960 45851,COUNTY,18424327050220012,EMERGENCY MEDICAL SERVICE,-8921863.106929025,3077446.675815013
PALM BEACH MEDICAL TRANSPORT,3301 ELECTRONICS WAY,WEST PALM BEACH,33407,PALM BEACH,"-80.06698432,26.74112645",17R NK 92782 58103,COUNTY,74434309130000070,EMERGENCY MEDICAL SERVICE,-8913015.92407417,3091165.9815841103
PASCO COUNTY EMS ST 24,14317 4TH ST,DADE CITY,33523,PASCO,"-82.18715213,28.36643800",17R LM 83668 38368,COUNTY,2124260000019000000,EMERGENCY MEDICAL SERVICE,-9149031.924318854,3295252.284622202
PASCO COUNTY EMS ST 28,21709 HALE RD,LAND O LAKES,34639,PASCO,"-82.45679032,28.22676883",17R LM 57057 23182,COUNTY,1826130020000000153,EMERGENCY MEDICAL SERVICE,-9179047.911413258,3277594.3509831238
PASCO COUNTY EMS ST 36,34516 BLANTON RD,DADE CITY,33523,PASCO,"-82.24459648,28.41424912",17R LM 78094 43722,COUNTY,2124070000008000010,EMERGENCY MEDICAL SERVICE,-9155426.600693112,3301302.2295581773
PASCO COUNTY EMS ST 25,34335 CHANCEY RD,WESLEY CHAPEL,33543,PASCO,"-82.24835472,28.20826267",17R LM 77490 20903,COUNTY,2126190010059000040,EMERGENCY MEDICAL SERVICE,-9155844.965570763,3275256.411858987
PASCO COUNTY EMS ST 15,11538 TRINITY BLVD ,ODESSA,33556,PASCO,"-82.62399458,28.18689483",17R LM 40589 18973,COUNTY,1726320000001000230,EMERGENCY MEDICAL SERVICE,-9197661.003434101,3272557.4512458844
PASCO COUNTY EMS ST 27,12221 CURLEY ST,SAN ANTONIO,33576,PASCO,"-82.27470904,28.33555441",17R LM 75052 35034,COUNTY,2025020010008000010,EMERGENCY MEDICAL SERVICE,-9158778.715668814,3291345.77315472
PASCO COUNTY EMS ST 13,27329 DAYFLOWER BLVD,WESLEY CHAPEL,33544,PASCO,"-82.36379878,28.24330968",17R LM 66203 24909,COUNTY,19261200200000000B1,EMERGENCY MEDICAL SERVICE,-9168696.139868153,3279684.350669938
PASCO COUNTY EMS ST 11,6700 RIELLY CT,PORT RICHEY,34668,PASCO,"-82.70387233,28.29262990",17R LM 32912 30796,COUNTY,1625210010037000080,EMERGENCY MEDICAL SERVICE,-9206552.954101996,3285918.0715837735
PASCO COUNTY EMS ST 16,35801 STATE ROAD 54,ZEPHYRHILLS,33541,PASCO,"-82.22489709,28.23028652",17R LM 79816 23320,COUNTY,2126080000002000011,EMERGENCY MEDICAL SERVICE,-9153233.674793735,3278038.79734889
PASCO COUNTY EMS ST 22,9930 LAND O LAKES BLVD,LAND O LAKES,34637,PASCO,"-82.49617766,28.30246149",17R LM 53295 31616,COUNTY,1825220000003000010,EMERGENCY MEDICAL SERVICE,-9183432.489866469,3287161.0593867963
PASCO COUNTY EMS ST 20,15900 LITTLE RANCH RD,SPRING HILL,34610,PASCO,"-82.55308831,28.39875714",17R LM 47851 42356,COUNTY,1724130040000002540,EMERGENCY MEDICAL SERVICE,-9189767.753837137,3299341.5999473925
PASCO COUNTY EMS ST 33,29129 JOHNSTON RD,DADE CITY,33523,PASCO,"-82.33298679,28.40974490",17R LM 69429 43315,COUNTY,2024080000010000010,EMERGENCY MEDICAL SERVICE,-9165266.164410768,3300732.155936647
PASCO COUNTY EMS ST 26,28229 ARONWOOD BLVD,WESLEY CHAPEL,33543,PASCO,"-82.34982547,28.17672891",17R LM 67492 17516,COUNTY,2026310000911000000,EMERGENCY MEDICAL SERVICE,-9167140.638167487,3271273.588365666
PASCO COUNTY EMS ST 39,11630 COUNTY LINE RD,HUDSON,34667,PASCO,"-82.62340569,28.43316896",17R LM 41013 46260,COUNTY,1724050000499000030,EMERGENCY MEDICAL SERVICE,-9197595.44923625,3303697.069676007
PASCO COUNTY EMS ST 19,5025 CROSS BAYOU BLVD,NEW PORT RICHEY,34652,PASCO,"-82.73123336,28.24202271",17R LM 30148 25227,COUNTY,1626080010029000010,EMERGENCY MEDICAL SERVICE,-9209598.770711094,3279521.725641637
PASCO COUNTY EMS ST 30,7951 MASSACHUSETTS AVE,NEW PORT RICHEY,34653,PASCO,"-82.68475503,28.25946987",17R LM 34735 27096,COUNTY,1625340010042000020,EMERGENCY MEDICAL SERVICE,-9204424.825849183,3281726.5649212864
PASCO COUNTY EMS ST 23,21300 STATE ROAD 54,LUTZ,33549,PASCO,"-82.46401867,28.19069764",17R LM 56299 19194,COUNTY,1826250000061000000,EMERGENCY MEDICAL SERVICE,-9179852.567531746,3273037.7422999707
PASCO COUNTY EMS ST 17,2951 SEVEN SPRINGS BLVD,NEW PORT RICHEY,34655,PASCO,"-82.69511548,28.20246701",17R LM 33630 20794,COUNTY,1626220060000000010,EMERGENCY MEDICAL SERVICE,-9205578.146726437,3274524.311377222
PASCO COUNTY EMERGENCY SERVICES DEPT. EMS,4111 LAND O LAKES BLVD,LAND O LAKES,34638,PASCO,"-82.45961111,28.21788840",17R LM 56768 22202,COUNTY,1826130000047000010,EMERGENCY MEDICAL SERVICE,-9179361.920126744,3276472.4092365955
PASCO COUNTY EMS ST 21,10417 FRIERSON LAKE DR,HUDSON,34669,PASCO,"-82.64267769,28.33306276",17R LM 38974 35194,COUNTY,1725060770000005580,EMERGENCY MEDICAL SERVICE,-9199740.79830102,3291030.65006046
PASCO COUNTY EMS ST 18,39731 BAY AVE,ZEPHYRHILLS,33540,PASCO,"-82.15927314,28.18193665",17R LM 86205 17900,COUNTY,2126360020000004170,EMERGENCY MEDICAL SERVICE,-9145928.449816443,3271931.26374943
PASCO COUNTY EMS ST 32,38223 CENTENNIAL RD,DADE CITY,33525,PASCO,"-82.18265847,28.30325852",17R LM 84040 31364,COUNTY,2125140000009000030,EMERGENCY MEDICAL SERVICE,-9148531.69256983,3287261.830684671
PASCO COUNTY FIRE RESCUE SUPPLY (STORAGE),2036 CHESAPEAKE DR,ODESSA,33556,PASCO,"-82.57733206,28.18889337",17R LM 45173 19134,COUNTY,1726260020003000100,EMERGENCY MEDICAL SERVICE,-9192466.555919018,3272809.8624796006
PASCO COUNTY EMS ST 35,9506 CRABTREE DR ,PORT RICHEY,34668,PASCO,"-82.70242731,28.29516698",17R LM 33057 31076,COUNTY,1625210040000000020,EMERGENCY MEDICAL SERVICE,-9206392.095707323,3286238.818849004
PASCO COUNTY EMS ST 31,11245 OLD TAMPA BAY RD,SAN ANTONIO,33523,PASCO,"-82.32924135,28.32102062",17R LM 69688 33481,,,EMERGENCY MEDICAL SERVICE,-9164849.224522794,3289507.7642936856
PASCO COUNTY EMS ST 34,38316 COUNTY ROAD 575,DADE CITY,33523,PASCO,"-82.18179287,28.46361666",17R LM 84299 49130,COUNTY,212326003000B000040,EMERGENCY MEDICAL SERVICE,-9148435.334512558,3307551.9879474887
NEW PORT RICHEY EMS ST 2,6121 HIGH ST,NEW PORT RICHEY,34653,PASCO,"-82.71316329,28.23643060",17R LM 31912 24582,MUNICIPAL,162609015000D000010,EMERGENCY MEDICAL SERVICE,-9207587.218957985,3278815.1129733087
NEW PORT RICHEY EMS ST 1,6333 MADISON ST,NEW PORT RICHEY,34652,PASCO,"-82.71579258,28.25074293",17R LM 31677 26172,MUNICIPAL,1626050030080000000,EMERGENCY MEDICAL SERVICE,-9207879.91073775,3280623.6746563106
PASCO COUNTY EMS ST 37,18015 STATE ROAD 54 ,LAND O LAKES,34638,PASCO,"-82.51797084,28.19549739",17R LM 51009 19791,COUNTY,18262800009110000F0,EMERGENCY MEDICAL SERVICE,-9185858.495307771,3273643.9712862773
PASCO COUNTY EMS ST 10,7912 RHODES RD,HUDSON,34667,PASCO,"-82.68321760,28.37083902",17R LM 35058 39434,COUNTY,1624270170001000012,EMERGENCY MEDICAL SERVICE,-9204253.680426419,3295809.0696568643
EAST LAKE TARPON EMS,3375 TARPON LAKE BLVD,PALM HARBOR,34685,PINELLAS,"-82.70154009,28.10034251",17R LM 32841 09487,,16 27 33 00000 110 0200,EMERGENCY MEDICAL SERVICE,-9206293.330926951,3261630.5843291148
SAFETY HARBOR EMS,700 MAIN ST,SAFETY HARBOR,34695,PINELLAS,"-82.69439817,27.99054058",17R LL 33374 97311,MUNICIPAL,16 29 03 96498 030 0010,EMERGENCY MEDICAL SERVICE,-9205498.296182461,3247781.2250823425
PALM HARBOR EMS,250 W LAKE RD,PALM HARBOR,34684,PINELLAS,"-82.73515832,28.06573054",17R LM 29483 05698,MUNICIPAL,16 28 07 00000 130 0700,EMERGENCY MEDICAL SERVICE,-9210035.694460195,3257263.4375424725
SEMINOLE EMS,11195 70TH AVE N,SEMINOLE,33772,PINELLAS,"-82.79480417,27.83707828",17R LL 23249 80447,MUNICIPAL,15 30 27 70758 300 2503,EMERGENCY MEDICAL SERVICE,-9216675.440184519,3228448.5723205055
CLEARWATER EMS,610 FRANKLIN ST,CLEARWATER,33756,PINELLAS,"-82.79806358,27.96335693",17R LL 23133 94444,MUNICIPAL,15 29 15 54450 007 0010,EMERGENCY MEDICAL SERVICE,-9217038.276266593,3244354.7222113833
DUNEDIN EMS,1046 VIRGINIA ST,DUNEDIN,34698,PINELLAS,"-82.77073989,28.01250628",17R LL 25900 99851,MUNICIPAL,15 28 26 00000 430 0500,EMERGENCY MEDICAL SERVICE,-9213996.617229734,3250550.636778902
BAYFRONT MEDICAL CENTER BAYFLITE 5 AMBULANCE,107 8TH AVE SE,SAINT PETERSBURG,33701,PINELLAS,"-82.63264655,27.76268100",17R LL 39111 71981,MUNICIPAL,17 31 20 00241 001 0020,EMERGENCY MEDICAL SERVICE,-9198624.13706132,3219086.106685061
PINELLAS PARK EMS,11350 43RD ST N,CLEARWATER,33762,PINELLAS,"-82.69292275,27.87537145",17R LL 33342 84548,MUNICIPAL,16 30 15 29243 000 0110,EMERGENCY MEDICAL SERVICE,-9205334.052829355,3233270.047394952
MADEIRA BEACH EMS,300 MUNICIPAL DR,SAINT PETERSBURG,33708,PINELLAS,"-82.80165406,27.80450381",17R LL 22521 76848,MUNICIPAL,15 31 09 00000 130 0100,EMERGENCY MEDICAL SERVICE,-9217437.966274623,3224348.475657598
GULFPORT EMS,5314 23RD AVE S,SAINT PETERSBURG,33707,PINELLAS,"-82.70580712,27.74705489",17R LL 31876 70348,MUNICIPAL,16 31 33 93942 000 2150,EMERGENCY MEDICAL SERVICE,-9206768.334188515,3217120.465301566
SOUTH PASADENA EMS,911 OLEANDER WAY S,SAINT PETERSBURG,33707,PINELLAS,"-82.73297167,27.75998595",17R LL 29218 71818,MUNICIPAL,16 31 30 88632 000 0140,EMERGENCY MEDICAL SERVICE,-9209792.278054178,3218747.070393466
TREASURE ISLAND EMS,180 108TH AVE,SAINT PETERSBURG,33706,PINELLAS,"-82.76833195,27.77082728",17R LL 25750 73069,MUNICIPAL,15 31 23 91818 008 0121,EMERGENCY MEDICAL SERVICE,-9213728.566962516,3220110.9570965273
PINELLAS SUNCOAST EMS,304 1ST ST,INDIAN ROCKS BEACH,33785,PINELLAS,"-82.84991679,27.88107724",17R LL 17894 85403,MUNICIPAL,14 30 12 42858 009 0170,EMERGENCY MEDICAL SERVICE,-9222810.548862223,3233988.6070665014
LARGO EMS,201 HIGHLAND AVE NE,LARGO,33770,PINELLAS,"-82.77582113,27.91933708",17R LL 25251 89535,MUNICIPAL,15 29 35 71824 000 0010,EMERGENCY MEDICAL SERVICE,-9214562.258655116,3238807.8423712472
PINELLAS PARK EMS,5000 82ND AVE N,PINELLAS PARK,33781,PINELLAS,"-82.70252203,27.84615445",17R LL 32352 81323,MUNICIPAL,16 30 28 21330 001 0040,EMERGENCY MEDICAL SERVICE,-9206402.639805017,3229591.1955869356
PINELLAS PARK EMS,6565 94TH AVE,PINELLAS PARK,33782,PINELLAS,"-82.72812465,27.85775216",17R LL 29849 82644,MUNICIPAL,16 30 20 69804 200 2503,EMERGENCY MEDICAL SERVICE,-9209252.70979632,3231051.399251307
ST PETE BEACH EMS,7301 GULF BLVD,SAINT PETERSBURG,33706,PINELLAS,"-82.75063894,27.74121287",17R LL 27447 69763,MUNICIPAL,15 31 36 77994 055 0010,EMERGENCY MEDICAL SERVICE,-9211758.989825737,3216385.6581532015
TARPON SPRINGS FIRE RESCUE,444 S HUEY AVE,TARPON SPRINGS,34689,PINELLAS,"-82.74490733,28.14276276",17R LM 28648 14248,MUNICIPAL,16 27 18 39564 000 0010,EMERGENCY MEDICAL SERVICE,-9211120.949437099,3266984.860243313
OLDSMAR EMS,225 PINE AVE N,OLDSMAR,34677,PINELLAS,"-82.67058809,28.04408269",17R LM 35797 03211,MUNICIPAL,16 28 14 20225 000 0020,EMERGENCY MEDICAL SERVICE,-9202847.770276213,3254532.745796571
AIR AMBULANCE NETWORK,905 E MARTIN LUTHER KING JR DR,TARPON SPRINGS,34689,PINELLAS,"-82.74282938,28.14193481",17R LM 28850 14153,PRIVATE,15 27 12 89982 047 0300,EMERGENCY MEDICAL SERVICE,-9210889.633326754,3266880.33630249
PINELLAS CO EMS AUTHORITY/SUNSTAR,12490 ULMERTON RD,LARGO,33774,PINELLAS,"-82.81066643,27.88576706",17R LL 21766 85865,COUNTY,15 30 09 00000 230 0100,EMERGENCY MEDICAL SERVICE,-9218441.21909398,3234579.248611975
AIR MD AMBULANCE,4707 140TH AVE,CLEARWATER,33762,PINELLAS,"-82.69728758,27.89952098",17R LL 32950 87229,COUNTY,16 30 03 00118 000 0100,EMERGENCY MEDICAL SERVICE,-9205819.943168575,3236311.5797716994
LEALMAN EMS,4017 56TH AVE N,SAINT PETERSBURG,33714,PINELLAS,"-82.68792330,27.82319964",17R LL 33755 78760,COUNTY,16 30 34 54432 000 0310,EMERGENCY MEDICAL SERVICE,-9204777.516672751,3226701.5401006867
POLK CO PUB SAFETY DEPT EMS DIV,BARTOW AIRPORT BLDG 250 STE 12,BARTOW,33830,POLK,"-81.78356941,27.95258219",17R ML 22922 92196,COUNTY,252923000000011010,EMERGENCY MEDICAL SERVICE,-9104105.301775036,3242996.8034758274
POLK CO EMS STA 15-26 LAKELAND S,3822 S FLORIDA AVE,LAKELAND,33813,POLK,"-81.95633819,27.99437491",17R ML 05963 96947,COUNTY,242906275000001031,EMERGENCY MEDICAL SERVICE,-9123337.83503043,3248264.6123092864
POLK CO EMS STA 13 HAINES CITY,901 LEDWITH AVE,HAINES CITY,33844,POLK,"-81.62447961,28.10341190",17R MM 38657 08815,COUNTY,272729783000078010,EMERGENCY MEDICAL SERVICE,-9086395.506786633,3262017.931487321
POLK CO EMS STA 5 SUN AIR,7800 WATKINS RD,HAINES CITY,33844,POLK,"-81.53004814,28.01250002",17R ML 47889 98700,COUNTY,282829000000022020,EMERGENCY MEDICAL SERVICE,-9075883.442759348,3250549.8469992247
POLK CO EMS STA 19 DAVENPORT,6525 RONALD REAGAN PKWY,DAVENPORT,33896,POLK,"-81.65473392,28.25457071",17R MM 35776 25576,COUNTY,272606000000034020,EMERGENCY MEDICAL SERVICE,-9089763.400841925,3281107.4093339797
POLK CO EMS STA 7 MULBERRY,700 9TH AVE NE,MULBERRY,33860,POLK,"-81.96573769,27.89912821",17R ML 04955 86403,COUNTY,233001000000041050,EMERGENCY MEDICAL SERVICE,-9124384.181709502,3236262.1068914207
POLK CO EMS STA 23 GOLFVIEW,2902 STATE ROAD 60 E,LAKE WALES,33898,POLK,"-81.54109759,27.89402721",17R ML 46745 85580,COUNTY,283008941000031100,EMERGENCY MEDICAL SERVICE,-9077113.46293012,3235619.603522489
POLK CO EMS STA 11-18-32 WNTR HVN,229 AVE D NW,WINTER HAVEN,33881,POLK,"-81.72966148,28.02609294",17R MM 28274 00307,COUNTY,262820554000008070,EMERGENCY MEDICAL SERVICE,-9098104.298755681,3252263.910745427
POLK CO EMS STA 25 LAKE ALFRED,300 N SEMINOLE AVE,LAKE ALFRED,33850,POLK,"-81.72846671,28.09443858",17R MM 28436 07878,COUNTY,,EMERGENCY MEDICAL SERVICE,-9097971.297981536,3260885.559891796
POLK CO EMS STA 9-30 AUBURNDALE,310 3RD ST,AUBURNDALE,33823,POLK,"-81.77850968,28.06221775",17R MM 23497 04339,COUNTY,252811000000021010,EMERGENCY MEDICAL SERVICE,-9103542.055398997,3256820.2911960166
POLK CO EMS STA 10-24 LAKELAND N,5201 CORNELL ST,LAKELAND,33810,POLK,"-81.97484434,28.10903328",17R MM 04244 09664,COUNTY,232726010000002204,EMERGENCY MEDICAL SERVICE,-9125397.929357404,3262727.359903245
POLK CO EMS STA 27 POINCIANA,2910 S MARIGOLD AVE,KISSIMMEE,34759,POLK,"-81.46984761,28.13103815",17R MM 53859 11807,COUNTY,282713933480020006,EMERGENCY MEDICAL SERVICE,-9069181.950741716,3265504.770527457
POLK CO EMS STA 22 EAGLE LAKE,185 3RD ST S,EAGLE LAKE,33839,POLK,"-81.75919754,27.97920405",17R ML 25338 95130,COUNTY,262907679000063010,EMERGENCY MEDICAL SERVICE,-9101392.237872165,3246352.148669141
POLK CO EMS STA 12 CYPRSS GARDENS,2101 REGISTER RD,WINTER HAVEN,33884,POLK,"-81.68585217,27.99548886",17R ML 32561 96892,COUNTY,262902663640001580,EMERGENCY MEDICAL SERVICE,-9093227.468280049,3248405.049445466
POLK CO EMS ST 20 POLK CITY,200 N COMMONWEALTH AVE,POLK CITY,33868,POLK,"-81.82484816,28.18129085",17R MM 19033 17560,COUNTY,252633296500089010,EMERGENCY MEDICAL SERVICE,-9108700.431331418,3271849.704232675
POLK CO EMS STA 3 LAKE WALES,2029 STATE HWY 60 W,LAKE WALES,33859,POLK,"-81.62219357,27.90308856",17R ML 38769 86622,COUNTY,273004000000014080,EMERGENCY MEDICAL SERVICE,-9086141.025631404,3236760.9598140754
POLK CO EMS STA 6 NALCREST,10399 LEISURE LANE W,LAKE WALES,33898,POLK,"-81.42508694,27.85999142",17R ML 58150 81765,COUNTY,293021000000013020,EMERGENCY MEDICAL SERVICE,-9064199.215641584,3231333.3508244166
POLK CO EMS STA 2 FORT MEADE,1235 N 9TH ST,FORT MEADE,33841,POLK,"-81.78472410,27.76280406",17R ML 22674 71174,COUNTY,253123000000024020,EMERGENCY MEDICAL SERVICE,-9104233.84199619,3219101.5883016116
POLK CO EMS STA 21 LAKELAND SE,WATERFIELD CIR,LAKELAND,33803,POLK,"-81.89957338,27.99850032",17R ML 11548 97362,COUNTY,,EMERGENCY MEDICAL SERVICE,-9117018.804935338,3248784.715916699
POLK CO EMS STA 4 FROSTPROOF,47 N LAKE REEDY BLVD,FROSTPROOF,33843,POLK,"-81.52816237,27.74633175",17R ML 47948 69214,MUNICIPAL,283133000000031010,EMERGENCY MEDICAL SERVICE,-9075673.520671817,3217029.5071612564
POLK CO EMS STA 1-8 BARTOW,1450 PINEHURST ST,BARTOW,33830,POLK,"-81.82915386,27.87718243",17R ML 18381 83873,COUNTY,253017429532002130,EMERGENCY MEDICAL SERVICE,-9109179.739813328,3233498.109565993
POLK CO EMS STA 14-16 LAKELAND E,1255 E LIME ST,LAKELAND,33801,POLK,"-81.93785155,28.04027220",17R MM 07820 02018,COUNTY,242820000000033020,EMERGENCY MEDICAL SERVICE,-9121279.911606926,3254052.1420593145
POLK CO EMS ST 17-31 LAKELAND W,1800 W PARKER ST,LAKELAND,33815,POLK,"-81.98331749,28.05059057",17R MM 03360 03196,COUNTY,232814083510001000,EMERGENCY MEDICAL SERVICE,-9126341.15635703,3255353.60108546
PUTNAM COUNTY EMS ST 86 - CRESCENT CITY,312 UNION AVE,CRESCENT CITY,32112,PUTNAM,"-81.53588310,29.46191153",17R MN 48038 59282,COUNTY,13-12-27-0000-0130-0010,EMERGENCY MEDICAL SERVICE,-9076532.988366418,3434569.4175542253
PUTNAM COUNTY EMS ST 88 - FLORAHOME,103 OAK AVE N,FLORAHOME,32140,PUTNAM,"-81.88524434,29.73317860",17R MN 14391 89547,COUNTY,10-09-24-2600-0000-0000,EMERGENCY MEDICAL SERVICE,-9115423.703544525,3469298.3419193905
PUTNAM COUNTY EMS ST 84 - EAST PALATKA,158 W LOUIS BROER RD,EAST PALATKA,32131,PUTNAM,"-81.60031787,29.65506179",17R MN 41900 80715,MUNICIPAL,05-10-27-3400-0000-0010,EMERGENCY MEDICAL SERVICE,-9083705.833413089,3459287.8650911716
PUTNAM COUNTY EMS ST 82 - INTERLACHEN,170 S COUNTY ROAD 315,INTERLACHEN,32148,PUTNAM,"-81.88482006,29.61864289",17R MN 14334 76856,COUNTY,15-10-24-0000-0220-0020,EMERGENCY MEDICAL SERVICE,-9115376.47301083,3454623.529511861
PUTNAM COUNTY EMS ST 83 - SATSUMA,109 S 1ST ST,SATSUMA,32189,PUTNAM,"-81.65896490,29.54863371",17R MN 36157 68953,COUNTY,39-11-26-8230-0010-0130,EMERGENCY MEDICAL SERVICE,-9090234.391048478,3445661.862844673
PUTNAM COUNTY EMS ST 81/85 - MAIN STATION,120-1 ORIE GRIFFIN BLVD,PALATKA,32177,PUTNAM,"-81.66045721,29.66884751",17R MN 36089 82274,COUNTY,37-09-26-0000-0070-0000,EMERGENCY MEDICAL SERVICE,-9090400.514464233,3461053.905653325
PUTNAM COUNTY EMS ST 87 - OCHWILLA,299 N STATE ROAD 21,HAWTHORNE,32640,PUTNAM,"-82.02922767,29.62777251",17R MN 00362 77983,COUNTY,18-10-23-0000-0010-0000,EMERGENCY MEDICAL SERVICE,-9131451.854546452,3455792.6427504346
ST LUCIE CO EMS ST 5,1616 SE PORT ST LUCIE BLVD,PORT SAINT LUCIE,34952,ST. LUCIE,"-80.30321923,27.27091885",17R NL 68965 16634,COUNTY,3422-525-0010-010-3,EMERGENCY MEDICAL SERVICE,-8939313.473286033,3157360.445656009
ST LUCIE CO EMS ST 1,2400 RHODE ISLAND AVE,FORT PIERCE,34950,ST. LUCIE,"-80.34871912,27.42990308",17R NL 64370 34220,COUNTY,2416-504-0754-010-3,EMERGENCY MEDICAL SERVICE,-8944378.498325698,3177285.8966848003
ST LUCIE CO EMS ST 8,7583 S OCEAN DR,JENSEN BEACH,34957,ST. LUCIE,"-80.23154913,27.32766690",17R NL 76021 22962,COUNTY,3522-231-0002-100-7,EMERGENCY MEDICAL SERVICE,-8931335.19497545,3164469.3821060318
ST LUCIE CO EMS ST 6,350 E MIDWAY RD,FORT PIERCE,34982,ST. LUCIE,"-80.32025668,27.37478954",17R NL 67216 28131,COUNTY,3403-501-0340-000-9,EMERGENCY MEDICAL SERVICE,-8941210.073720818,3170375.2918312233
ST LUCIE CO EMS ST 12,1850 SE VILLAGE GREEN DR,PORT SAINT LUCIE,34952,ST. LUCIE,"-80.29745323,27.29953036",17R NL 69518 19807,COUNTY,3420-835-0005-000-8,EMERGENCY MEDICAL SERVICE,-8938671.60583542,3160944.209496776
ST LUCIE CO EMS ST 14,300 NW CALIFORNIA BLVD,PORT SAINT LUCIE,34986,ST. LUCIE,"-80.39931485,27.31643428",17R NL 59430 21627,COUNTY,3323-750-0049-030-9,EMERGENCY MEDICAL SERVICE,-8950010.789344843,3163061.961544733
STATION #2 SOUTH BEACH,855 SEAWAY DR,FORT PIERCE,34949,ST. LUCIE,"-80.30335843,27.46237406",17R NL 68833 37842,COUNTY,2402-133-0001-000-6,EMERGENCY MEDICAL SERVICE,-8939328.969756482,3181358.999842232
ST LUCIE CO EMS ST 13,273 SW BECKER RD,PORT SAINT LUCIE,34953,ST. LUCIE,"-80.35808374,27.20992822",17R NL 63569 09849,COUNTY,4432-422-0001-000-2,EMERGENCY MEDICAL SERVICE,-8945420.963298973,3149724.077437026
ST LUCIE CO EMS ST 15,721 AVENUE D,FORT PIERCE,34950,ST. LUCIE,"-80.32975867,27.45211980",17R NL 66230 36691,COUNTY,2410-601-0176-000-4,EMERGENCY MEDICAL SERVICE,-8942267.830828682,3180072.593963948
ST LUCIE CO EMS ST 3,250 SW PRIMA VISTA BLVD,PORT SAINT LUCIE,34983,ST. LUCIE,"-80.35058250,27.31738984",17R NL 64251 21756,COUNTY,3420-800-0030-000-4,EMERGENCY MEDICAL SERVICE,-8944585.928529559,3163181.685796773
ST LUCIE CO EMS ST 10,777 SW DALTON CIR,PORT SAINT LUCIE,34953,ST. LUCIE,"-80.37058138,27.26328637",17R NL 62302 15753,COUNTY,3420-705-0004-010-4,EMERGENCY MEDICAL SERVICE,-8946812.193787843,3156404.586230594
ST LUCIE CO EMS ST 4,2850 CURTIS KING BLVD,FORT PIERCE,34946,ST. LUCIE,"-80.36266465,27.48495675",17R NL 62960 40312,COUNTY,1429-333-0000-000-3,EMERGENCY MEDICAL SERVICE,-8945930.908143658,3184192.441089755
ST LUCIE CO EMS ST 11,3501 SHINN RD,FORT PIERCE,34945,ST. LUCIE,"-80.47284880,27.40258265",17R NL 52114 31136,COUNTY,2330-311-0001-000-2,EMERGENCY MEDICAL SERVICE,-8958196.55093233,3173859.7978029815
MARTIN MEMORIAL EMERGENCY CENTER ST LUCIE,1095 NW St Lucie West Blvd,Port St. Lucie,34986,ST. LUCIE,"-80.38235424,27.31914002",17R NL 61106 21934,,,EMERGENCY MEDICAL SERVICE,-8948122.743133418,3163400.9723303025
PORT ST LUCIE VOLUNTEER AMBULANCE,1800 SE TIFFANY AVE,PORT SAINT LUCIE,34952,ST. LUCIE,"-80.29371947,27.28696016",17R NL 69896 18416,MUNICIPAL,3420-750-0005-000-8,EMERGENCY MEDICAL SERVICE,-8938255.96540371,3159369.6022975207
ST LUCIE CO EMS ST 7,4900 FORT PIERCE BLVD,FORT PIERCE,34951,ST. LUCIE,"-80.40219540,27.52311029",17R NL 59035 44519,COUNTY,1301-601-0030-010-4,EMERGENCY MEDICAL SERVICE,-8950331.450405203,3188980.87019351
LIFELINE MEDICAL SERVICES INC,3192 W MIDWAY RD,FORT PIERCE,34981,ST. LUCIE,"-80.35715386,27.37471333",17R NL 63568 28103,PRIVATE,3405-133-0003-000-2,EMERGENCY MEDICAL SERVICE,-8945317.449572599,3170365.738202981
ST LUCIE CO EMS ST 9,3395 STATE HIGHWAY A1A N,FORT PIERCE,34949,ST. LUCIE,"-80.30233611,27.49773136",17R NL 68912 41759,STATE OF FLORIDA TIITF,1426-111-0001-000-9,EMERGENCY MEDICAL SERVICE,-8939215.16496039,3185795.5233925935
LIFEGUARD AMBULANCE SERVICE MAIN FACILITY,4340 AVALON BLVD,MILTON,32583,SANTA ROSA,"-87.08033200,30.59290295",16R DU 92298 84489,PRIVATE,17-1N-28-0000-07802-0000,EMERGENCY MEDICAL SERVICE,-9693738.21601128,3579991.934434914
AMBITRANS MEDICAL TRANSPORT,235 CENTER CT,VENICE,34285,SARASOTA,"-82.42906521,27.08059229",17R LK 58307 96166,PRIVATE,0428-14-0004,EMERGENCY MEDICAL SERVICE,-9175961.565747757,3133544.304030302
LONGBOAT KEY EMS ST 2,2162 GULF OF MEXICO DR,LONGBOAT KEY,34228,SARASOTA,"-82.61809582,27.36057322",17R LL 39963 27411,MUNICIPAL,0008-04-0006,EMERGENCY MEDICAL SERVICE,-9197004.357118886,3168593.2869878644
NORTH PORT EMS ST 84,1890 WEST PRICE BLVD,NORTH PORT,34288,SARASOTA,"-82.16647412,27.06895957",17R LK 84334 94609,MUNICIPAL,0983-04-8839,EMERGENCY MEDICAL SERVICE,-9146730.05921349,3132089.981216533
ENGLEWOOD EMS ST 73,1967 ENGLEWOOD RD,ENGLEWOOD,34223,SARASOTA,"-82.37808528,27.00358234",17R LK 63269 87578,MUNICIPAL,0485-06-0001,EMERGENCY MEDICAL SERVICE,-9170286.506132614,3123919.322506947
VENICE EMS ST 53,5300 EAST LAUREL ROAD,VENICE,34285,SARASOTA,"-82.37689938,27.13688087",17R LL 63548 02344,MUNICIPAL,0391-00-1030,EMERGENCY MEDICAL SERVICE,-9170154.49229908,3140583.638537357
VENICE EMS ST 51,112 S HARBOR DR,VENICE,34285,SARASOTA,"-82.45045516,27.09899485",17R LK 56209 98229,MUNICIPAL,0176-08-0001,EMERGENCY MEDICAL SERVICE,-9178342.683762606,3135845.300468668
SARASOTA CO EMS ST 11,2200 STICKNEY POINT RD,SARASOTA,34231,SARASOTA,"-82.52037238,27.26214880",17R LL 49497 16385,COUNTY,0103-15-0046,EMERGENCY MEDICAL SERVICE,-9186125.833025446,3156262.1280588084
SARASOTA CO EMS ST 17,5431 DESOTO ROAD,SARASOTA,34235,SARASOTA,"-82.46126215,27.38161015",17R LL 55504 29550,COUNTY,0014-00-1000,EMERGENCY MEDICAL SERVICE,-9179545.712164432,3171230.330905863
NORTH PORT EMS ST 81,4980 CITY CENTER BLVD,NORTH PORT,34286,SARASOTA,"-82.20804211,27.07387089",17R LK 80217 95191,MUNICIPAL,0977-00-1030,EMERGENCY MEDICAL SERVICE,-9151357.387307152,3132703.975804325
VENICE EMS ST 52,200 N GROVE ST,VENICE,34285,SARASOTA,"-82.43579083,27.10072684",17R LK 57666 98404,MUNICIPAL,0408-01-0091,EMERGENCY MEDICAL SERVICE,-9176710.258669153,3136061.8822945803
ENGLEWOOD EMS ST 71,599 S INDIANA AVE,ENGLEWOOD,34223,SARASOTA,"-82.35283601,26.95213823",17R LK 65713 81852,MUNICIPAL,0854-04-0019,EMERGENCY MEDICAL SERVICE,-9167475.769996617,3117493.3249180866
NORTH PORT EMS ST 85,1308 N BISCAYNE DR,NORTH PORT,34291,SARASOTA,"-82.25422496,27.07805278",17R LK 75642 95700,MUNICIPAL,0972-16-9155,EMERGENCY MEDICAL SERVICE,-9155593.276019158,3133609.746996491
NORTH PORT EMS ST 83,1150 NABATOFF ST,NORTH PORT,34288,SARASOTA,"-82.11829525,27.06826707",17R LK 89111 94488,MUNICIPAL,1122-15-9656,EMERGENCY MEDICAL SERVICE,-9141366.812284218,3132003.409130841
SARASOTA CO EMS ST 21,721 CENTER RD,VENICE,34285,SARASOTA,"-82.39848387,27.07970675",17R LK 61339 96034,COUNTY,0424-13-0002,EMERGENCY MEDICAL SERVICE,-9172557.266841698,3133433.588355011
SARASOTA CO EMS ST 12,3110 BEE RIDGE RD,SARASOTA,34239,SARASOTA,"-82.50774200,27.29845464",17R LL 50795 20393,COUNTY,0072-03-0007,EMERGENCY MEDICAL SERVICE,-9184719.825429847,3160809.453288308
SARASOTA CO EMS ST 13,1170 BEACH RD,SARASOTA,34242,SARASOTA,"-82.54701641,27.26644243",17R LL 46865 16894,COUNTY,0107-08-0001,EMERGENCY MEDICAL SERVICE,-9189091.832767662,3156799.8294171114
SARASOTA CO EMS ST 26,8020 S TAMIAMI TRAIL,VENICE,34293,SARASOTA,"-82.31634879,27.04551987",17R LK 69444 92159,COUNTY,0785-00-1010,EMERGENCY MEDICAL SERVICE,-9163414.03092484,3129160.006969188
SARASOTA CO EMS ST 2,2070 WALDEMERE ST,SARASOTA,34239,SARASOTA,"-82.52809794,27.31894650",17R LL 48809 22687,COUNTY,2035-12-0019,EMERGENCY MEDICAL SERVICE,-9186985.839138258,3163376.725000564
SARASOTA EMS ST 16,5875 HUMMINGBIRD AVE,SARASOTA,34241,SARASOTA,"-82.44080161,27.26701653",17R LL 57380 16831,COUNTY,0285-01-0001,EMERGENCY MEDICAL SERVICE,-9177268.055696959,3156871.7279934464
SARASOTA CO EMS ST 6,4100 N LOCKWOOD RIDGE RD,SARASOTA,34235,SARASOTA,"-82.50528185,27.36987008",17R LL 51134 28301,COUNTY,0029-10-0006,EMERGENCY MEDICAL SERVICE,-9184445.963132441,3169758.614880344
SARASOTA CO EMS ST 1,1445 4TH ST,SARASOTA,34236,SARASOTA,"-82.54155105,27.33999183",17R LL 47506 25035,COUNTY,2026-11-0064,EMERGENCY MEDICAL SERVICE,-9188483.432362292,3166013.8304173443
SARASOTA CO EMS ST 3,47 N ADAMS DR,SARASOTA,34236,SARASOTA,"-82.57654932,27.31994499",17R LL 44016 22858,COUNTY,2014-05-0084,EMERGENCY MEDICAL SERVICE,-9192379.42166943,3163501.8300792663
SARASOTA CO EMS ST 22,4531 STATE ROAD 776,VENICE,34293,SARASOTA,"-82.40127508,27.04384207",17R LK 61018 92064,COUNTY,0460-04-0001,EMERGENCY MEDICAL SERVICE,-9172867.98208293,3128950.3044586526
SARASOTA CO EMS ST 18,7232 MYAKKA VALLEY TRL,SARASOTA,34241,SARASOTA,"-82.34165283,27.24818804",17R LL 67174 14636,COUNTY,0613-00-1032,EMERGENCY MEDICAL SERVICE,-9166230.863867948,3154513.9308695705
SARASOTA CO EMS ST 4,3530 OLD BRADENTON RD,SARASOTA,34234,SARASOTA,"-82.54660684,27.36656610",17R LL 47042 27985,COUNTY,2020-04-0025,EMERGENCY MEDICAL SERVICE,-9189046.239780568,3169344.4621986933
SARASOTA CO EMS ST 7,4754 17TH ST,SARASOTA,34232,SARASOTA,"-82.47203070,27.35171287",17R LL 54399 26251,COUNTY,0040-02-0002,EMERGENCY MEDICAL SERVICE,-9180744.462235834,3167482.764666116
SARASOTA CO EMS ST 19,15911 RAWLS RD,SARASOTA,34240,SARASOTA,"-82.26861774,27.31349778",17R LL 74478 21796,COUNTY,0554-00-3042,EMERGENCY MEDICAL SERVICE,-9158100.63486915,3162694.049097763
SARASOTA CO EMS ST 23,1930 N TAMIAMI TRAIL,NOKOMIS,34275,SARASOTA,"-82.46599933,27.15249625",17R LL 54737 04173,COUNTY,0164-03-0005,EMERGENCY MEDICAL SERVICE,-9180073.053278217,3142537.0937002464
SARASOTA CO EMS ST 5,400 N BENEVA RD,SARASOTA,34232,SARASOTA,"-82.49697578,27.34019106",17R LL 51917 25004,COUNTY,2032-12-0006,EMERGENCY MEDICAL SERVICE,-9183521.33571769,3166038.7974079833
SARASOTA CO EMS ST 14,8821 S TAMIAMI TRL,SARASOTA,34238,SARASOTA,"-82.49100137,27.22176126",17R LL 52351 11876,COUNTY,0132-11-0036,EMERGENCY MEDICAL SERVICE,-9182856.268009517,3151205.3133278755
SARASOTA CO EMS ST 8,6750 BEE RIDGE RD,SARASOTA,34241,SARASOTA,"-82.43647606,27.29825698",17R LL 57849 20288,COUNTY,0261-01-0081,EMERGENCY MEDICAL SERVICE,-9176786.537517542,3160784.691138725
LONGWOOD FIRE RESCUE ST 15,301 W WARREN AVE,LONGWOOD,32750,SEMINOLE,"-81.35073683,28.70043755",17R MM 65740 74847,MUNICIPAL,312030300037A0000,EMERGENCY MEDICAL SERVICE,-9055922.599073721,3337573.417024848
CASSELBERRY FIRE RESCUE ST 25,1055 RED BUG LAKE RD,CASSELBERRY,32707,SEMINOLE,"-81.32051974,28.64668181",17R MM 68675 68884,MUNICIPAL,212130300003E0000,EMERGENCY MEDICAL SERVICE,-9052558.848386118,3330752.9447453106
SANFORD FIRE RESCUE ST 31,1303 S FRENCH AVE,SANFORD,32771,SEMINOLE,"-81.27272364,28.79976952",17R MM 73385 85832,MUNICIPAL,36193030000100000,EMERGENCY MEDICAL SERVICE,-9047238.211068034,3350185.781531142
CASSELBERRY FIRE RESCUE ST 21,681 SEMINOLA BLVD,CASSELBERRY,32707,SEMINOLE,"-81.32348678,28.67789216",17R MM 68395 72342,MUNICIPAL,0921305010C000030,EMERGENCY MEDICAL SERVICE,-9052889.138306709,3334712.454969342
OVIEDO FIRE RESCUE ST 44,42 S CENTRAL AVE,OVIEDO,32765,SEMINOLE,"-81.20817613,28.66940407",17R MM 79659 71377,MUNICIPAL,15213150400000110,EMERGENCY MEDICAL SERVICE,-9040052.814762374,3333635.4937791117
OVIEDO FIRE RESCUE ST 46,300 ALEXANDRIA BLVD,OVIEDO,32765,SEMINOLE,"-81.20335195,28.65335085",17R MM 80127 69597,MUNICIPAL,222131300002A0000,EMERGENCY MEDICAL SERVICE,-9039515.789649833,3331598.9149149912
THE VILLAGES DEPT OF PUBLIC SAFETY,8013 E COUNTY ROAD 466,THE VILLAGES,32159,SUMTER,"-81.97071085,28.91958084",17R MM 05377 99463,COUNTY,D13=014,EMERGENCY MEDICAL SERVICE,-9124937.79211955,3365414.4540603566
SUWANNEE FIRE RESCUE,13530 80TH TER,LIVE OAK,32060,SUWANNEE,"-83.02688864,30.30312669",17R LP 05088 54115,COUNTY,2102S13E05267000000,EMERGENCY MEDICAL SERVICE,-9242510.965761555,3542573.765531436
DOCTORS MEMORIAL HOSPITAL EMS,333 N BYRON BUTLER  PKWY,PERRY,32348,TAYLOR,"-83.59324910,30.12008806",17R KP 50146 34930,PRIVATE,23040703141000,EMERGENCY MEDICAL SERVICE,-9305557.923077015,3518995.4021139564
UNION COUNTY EMS,550 SE 6TH ST,LAKE BUTLER,32054,UNION,"-82.33136625,30.01809990",17R LP 71610 21537,COUNTY,32-05-20-22-010-0010-0,EMERGENCY MEDICAL SERVICE,-9165085.767322939,3505876.629508202
MASSAIR FLIGHT SVC INC AMB,635 S AIRPARK RD,EDGEWATER,32132,VOLUSIA,"-80.92570578,28.97748514",17R NN 07237 05493,PRIVATE,34183807030080,EMERGENCY MEDICAL SERVICE,-9008608.359523505,3372780.7097678245
EDGEWATER DEPT OF FIRE RESCUE,1605 S RIDGEWOOD AVE,EDGEWATER,32132,VOLUSIA,"-80.89737766,28.97601422",17R NN 09997 05332,MUNICIPAL,34180232000010,EMERGENCY MEDICAL SERVICE,-9005454.887074701,3372593.5360660264
ORANGE CITY FIRE/RESCUE,215 N HOLLY AVE,ORANGE CITY,32763,VOLUSIA,"-81.29817062,28.95021477",17R MN 70944 02506,MUNICIPAL,30180212000400,EMERGENCY MEDICAL SERVICE,-9050070.956067825,3369311.0150067285
PORT ORANGE DEPT FIRE/RESC-AIRPORT RD,6701 AIRPORT RD,PORT ORANGE,32128,VOLUSIA,"-81.03818338,29.06812610",17R MN 96283 15534,MUNICIPAL,33163100000025,EMERGENCY MEDICAL SERVICE,-9021129.308577947,3384319.822027787
HOLLY HILL FIRE RESCUE,1020 DAYTONA AVE,DAYTONA BEACH,32117,VOLUSIA,"-81.03830863,29.24350375",17R MN 96277 34964,MUNICIPAL,32143505070110,EMERGENCY MEDICAL SERVICE,-9021143.250936769,3406675.2632133
S DAYTONA FIRE DEPT 1ST RESP,1672 S RIDGEWOOD AVE,DAYTONA BEACH,32119,VOLUSIA,"-81.00829571,29.18076795",17R MN 99193 28013,MUNICIPAL,33154401030010,EMERGENCY MEDICAL SERVICE,-9017802.228825549,3398673.925020519
PONCE INLET FIRE RESCUE,4680 S PENINSULA DR,PORT ORANGE,32127,VOLUSIA,"-80.94096359,29.09868767",17R NN 05744 18920,MUNICIPAL,34161901000071,EMERGENCY MEDICAL SERVICE,-9010306.851410508,3388212.7702109804
PORT ORANGE DEPT FIRE/RESC-TRAILWOOD,6027 CENTRAL PARK BOULEVARD ,PORT ORANGE,32127,VOLUSIA,"-80.99237870,29.09282880",17R NN 00741 18270,MUNICIPAL,33162202000010,EMERGENCY MEDICAL SERVICE,-9016030.354592811,3387466.3748082533
PORT ORANGE DEPT FIRE/RESC-RIDGEWOOD,4200 RIDGEWOOD AVE,PORT ORANGE,32127,VOLUSIA,"-80.98634584,29.14069373",17R NN 01328 23573,MUNICIPAL,33164108000010,EMERGENCY MEDICAL SERVICE,-9015358.780296577,3393565.4108914086
PORT ORANGE DEPT OF FIRE/RESCUE,1090 CITY CENTER BLVD,PORT ORANGE,32129,VOLUSIA,"-81.02356714,29.12541007",17R MN 97707 21880,MUNICIPAL,33160800050013,EMERGENCY MEDICAL SERVICE,-9019502.236649776,3391617.6304956437
DELTONA FIRE/RESC STA 61,1685 PROVIDENCE BLVD,DELTONA,32725,VOLUSIA,"-81.22585290,28.90629005",17R MM 77982 97624,MUNICIPAL,31183014000020,EMERGENCY MEDICAL SERVICE,-9042020.583996281,3363724.255806073
DAYTONA BCH FIRE DEPT,301 S BEACH ST,DAYTONA BEACH,32114,VOLUSIA,"-81.01696743,29.20824606",17R MN 98350 31057,MUNICIPAL,33153906000031,EMERGENCY MEDICAL SERVICE,-9018767.559540233,3402177.886018226
EDGEWATER FIRE RESCUE ST 57,2628 HIBISCUS DR,EDGEWATER,32141,VOLUSIA,"-80.89580477,28.95389765",17R NN 10153 02882,MUNICIPAL,34180201068010,EMERGENCY MEDICAL SERVICE,-9005279.793905882,3369779.5461176476
NEW SMYRNA BCH FIRE DEPT,1400 STATE ROAD 44,NEW SMYRNA BEACH,32168,VOLUSIA,"-80.93752830,29.01596960",17R NN 06083 09756,MUNICIPAL,34174133050030,EMERGENCY MEDICAL SERVICE,-9009924.436064983,3377678.7646425306
EVAC AMBULANCE SERVICE,112 CARSWELL AVE,DAYTONA BEACH,32117,VOLUSIA,"-81.03341705,29.22596805",17R MN 96752 33021,COUNTY,32144401340050,EMERGENCY MEDICAL SERVICE,-9020598.723523812,3404438.261873571
WAKULLA CO AMBULANCE SERVICE,318 TRICE LN,CRAWFORDVILLE,32327,WAKULLA,"-84.36510630,30.18555284",16R GU 53699 42280,COUNTY,00-00-076-000-10257-031,EMERGENCY MEDICAL SERVICE,-9391480.674297543,3527423.2986104437
MEDART VFD,48 MEDART VFD LN,CRAWFORDVILLE,32327,WAKULLA,"-84.38789790,30.09069128",16R GU 51745 31713,COUNTY,36-4S-02W-000-02411-001,EMERGENCY MEDICAL SERVICE,-9394017.823330125,3515212.6965617323
ST MARKS VFD,32 SHELL ISLAND RD,SAINT MARKS,32355,WAKULLA,"-84.20774282,30.16116792",16R GU 68923 39938,COUNTY,02-4S-01E-000-05625-001,EMERGENCY MEDICAL SERVICE,-9373963.051673705,3524283.3440244617
WALTON COUNTY FIRE-RESCUE ST 2,11200 US HWY 331 S,DEFUNIAK SPRINGS,32433,WALTON,"-86.24971777,30.86075949",16R EV 71731 14411,COUNTY,09-4N-20-29000-007-0000,EMERGENCY MEDICAL SERVICE,-9601274.663640028,3614679.284307289
WALTON COUNTY FIRE-RESCUE ST 3,60 COUNTY ROAD 181 E,DEFUNIAK SPRINGS,32433,WALTON,"-86.13480307,30.97055828",16R EV 82623 26660,COUNTY,33-6N-19-22010-00M-0040,EMERGENCY MEDICAL SERVICE,-9588482.417767785,3628926.1652113493
WALTON COUNTY FIRE-RESCUE HQ,63 BOPETE MANOR RD,DEFUNIAK SPRINGS,32435,WALTON,"-86.09360082,30.72438009",16R EU 86779 99407,COUNTY,25-3N-19-19070-001-5460,EMERGENCY MEDICAL SERVICE,-9583895.804277843,3597006.1444747304
WALTON COUNTY FIRE-RESCUE ST 11A,1700 COUNTY HIGHWAY 1087,DEFUNIAK SPRINGS,32433,WALTON,"-86.30612097,30.75990901",16R EV 66408 03199,COUNTY,13-3N-21-37000-002-0000,EMERGENCY MEDICAL SERVICE,-9607553.438465778,3601607.854865876
WALTON COUNTY FIRE-RESCUE ST 1,113 WEBSTER LN,LAUREL HILL,32567,WALTON,"-86.30297376,30.96925222",16R EV 66564 26402,COUNTY,01-5N-21-39000-007-0000,EMERGENCY MEDICAL SERVICE,-9607203.092470253,3628756.6026730505
WALTON COUNTY FIRE-RESCUE ST 8,7958 STATE HWY 81 S,PONCE DE LEON,32455,WALTON,"-85.94346627,30.58905636",16R FU 01295 84535,COUNTY,09-2N-17-05000-012-0010,EMERGENCY MEDICAL SERVICE,-9567182.902325299,3579494.502451264
WALTON COUNTY FIRE-RESCUE ST 4,49 S DAVIS LN,DEFUNIAK SPRINGS,32435,WALTON,"-86.09305034,30.72462329",16R EU 86832 99435,COUNTY,25-3N-19-19070-001-5460,EMERGENCY MEDICAL SERVICE,-9583834.52491213,3597037.6386821824
WALTON COUNTY FIRE-RESCUE ST 6,5966 COUNTY ROAD 1883,PONCE DE LEON,32455,WALTON,"-86.05642684,30.83597501",16R EV 90234 11804,COUNTY,20-4N-18-11000-005-0000,EMERGENCY MEDICAL SERVICE,-9579757.615708705,3611465.6474792175
CHIPLEY EMS,1360 BRICKYARD RD,CHIPLEY,32428,WASHINGTON,"-85.54289060,30.76553747",16R FV 39450 04525,,,EMERGENCY MEDICAL SERVICE,-9522591.022040525,3602337.0096035874
WASHINGTON COUNTY EMS - CHIPLEY STATION,818 3RD STREET,CHIPLEY,32428,WASHINGTON,"-85.54403954,30.77103070",16R FV 39333 05132,,,EMERGENCY MEDICAL SERVICE,-9522718.921812821,3603048.6865568054
WASHINGTON CO EMS - VERNON STATION,3199 MOSS HILL RD,VERNON,32462,WASHINGTON,"-85.69336988,30.61162661",16R FU 25246 87289,COUNTY,00000000-00-4182-0003,EMERGENCY MEDICAL SERVICE,-9539342.299796056,3582413.516018685
