,Name,CITY,COUNTY,Longitude,Latitude,FACILITY_TYPE,fs_Longitude,fs_Latitude,fb_Longitude,fb_Latitude,ng_Longitude,ng_Latitude
0,U.S. COAST GUARD STATION,PANAMA CITY,BAY,-85.75506058,30.16991497,COAST GUARD,,,,,,
1,US COAST GUARD - PORT CANAVERAL STATION,CAPE CANAVERAL,BREVARD,-80.62145586,28.4160511,COAST GUARD,,,,,,
2,U.S. COAST GUARD STATION,FORT LAUDERDALE,BROWARD,-80.11333329,26.08833329,COAST GUARD,,,,,,
3,U.S. COAST GUARD STATION,ATLANTIC BEACH,DUVAL,-81.43462378,30.38785501,COAST GUARD,,,,,,
4,U.S. COAST GUARD STATION,PENSACOLA,ESCAMBIA,-87.29027127,30.3450822,COAST GUARD,,,,,,
5,U.S. COAST GUARD STATION,FORT MYERS BEACH,LEE,-81.94555388,26.46161753,COAST GUARD,,,,,,
6,U.S. COAST GUARD STATION,YANKEETOWN,LEVY,-82.71200715,29.0320795,COAST GUARD,,,,,,
7,U.S. COAST GUARD STATION,BRADENTON,MANATEE,-82.68674725,27.46643297,COAST GUARD,,,,,,
8,U.S. COAST GUARD STATION,MIAMI BEACH,MIAMI-DADE,-80.14494685,25.77111105,COAST GUARD,,,,,,
9,U.S. COAST GUARD STATION,MARATHON,MONROE,-81.10608585,24.71006115,COAST GUARD,,,,,,
10,U.S. COAST GUARD STATION,ISLAMORADA,MONROE,-80.58670518,24.95367362,COAST GUARD,,,,,,
11,U.S. COAST GUARD STATION,KEY WEST,MONROE,-81.79875116,24.56610356,COAST GUARD,,,,,,
12,U.S. COAST GUARD STATION,FORT WALTON BEACH,OKALOOSA,-86.52598282,30.39133273,COAST GUARD,,,,,,
13,U.S. COAST GUARD STATION,WEST PALM BEACH,PALM BEACH,-80.04500002,26.77166672,COAST GUARD,,,,,,
14,U.S. COAST GUARD STATION,CLEARWATER BEACH,PINELLAS,-82.83334436,27.94760463,COAST GUARD,,,,,,
15,U.S. COAST GUARD STATION,SAINT PETERSBURG,PINELLAS,-82.62695054,27.76200358,COAST GUARD,,,,,,
16,U.S. COAST GUARD AIR STATION,CLEARWATER,PINELLAS,-82.69460031,27.9116817,COAST GUARD,,,,,,
17,U.S. COAST GUARD STATION,FORT PIERCE,ST. LUCIE,-80.30709475,27.46394771,COAST GUARD,,,,,,
18,COAST GUARD LESSOR,NOKOMIS,SARASOTA,-82.46939024,27.12312776,COAST GUARD,,,,,,
19,U.S. COAST GUARD STATION,VENICE,SARASOTA,-82.45081933,27.07742368,COAST GUARD,,,,,,
20,U.S. COAST GUARD STATION,NEW SMYRNA BEACH,VOLUSIA,-80.91462565,29.06422844,COAST GUARD,,,,,,
21,,GAINESVILLE,ALACHUA,,,FIRE STATION,-82.37061276,29.69186153,,,,
22,,GAINESVILLE,ALACHUA,,,FIRE STATION,-82.35492015,29.63559258,,,,
23,,GAINESVILLE,ALACHUA,,,FIRE STATION,-82.30834182,29.66056646,,,,
24,,GAINESVILLE,ALACHUA,,,FIRE STATION,-82.31939272,29.64328610,,,,
25,,GAINESVILLE,ALACHUA,,,FIRE STATION,-82.43644934,29.58904961,,,,
26,,GAINESVILLE,ALACHUA,,,FIRE STATION,-82.35595783,29.61934912,,,,
27,,GAINESVILLE,ALACHUA,,,FIRE STATION,-82.27287642,29.63878247,,,,
28,,GAINESVILLE,ALACHUA,,,FIRE STATION,-82.33850482,29.68031480,,,,
29,,GAINESVILLE,ALACHUA,,,FIRE STATION,-82.30674589,29.65993415,,,,
30,,GAINESVILLE,ALACHUA,,,FIRE STATION,-82.30674589,29.65993415,,,,
31,,GAINESVILLE,ALACHUA,,,FIRE STATION,-82.38810021,29.70642201,,,,
32,,GAINESVILLE,ALACHUA,,,FIRE STATION,-82.18703327,29.63841672,,,,
33,,GAINESVILLE,ALACHUA,,,FIRE STATION,-82.35290756,29.70979567,,,,
34,,GAINESVILLE,ALACHUA,,,FIRE STATION,-82.32454197,29.64678700,,,,
35,,GAINESVILLE,ALACHUA,,,FIRE STATION,-82.43616689,29.66754728,,,,
36,,GAINESVILLE,ALACHUA,,,FIRE STATION,-82.37691215,29.65146070,,,,
37,,GAINESVILLE,ALACHUA,,,FIRE STATION,-82.38961597,29.63582580,,,,
38,,GAINESVILLE,ALACHUA,,,FIRE STATION,-82.27910233,29.69590866,,,,
39,,HAWTHORNE,ALACHUA,,,FIRE STATION,-82.08679035,29.58612338,,,,
40,,HAWTHORNE,ALACHUA,,,FIRE STATION,-82.13456659,29.70689838,,,,
41,,HAWTHORNE,ALACHUA,,,FIRE STATION,-82.10794753,29.45367890,,,,
42,,ARCHER,ALACHUA,,,FIRE STATION,-82.52496731,29.53357700,,,,
43,,MICANOPY,ALACHUA,,,FIRE STATION,-82.27998208,29.50849416,,,,
44,,HIGH SPRINGS,ALACHUA,,,FIRE STATION,-82.59944557,29.82761126,,,,
45,,HIGH SPRINGS,ALACHUA,,,FIRE STATION,-82.59944557,29.82761126,,,,
46,,HIGH SPRINGS,ALACHUA,,,FIRE STATION,-82.55667076,29.81075897,,,,
47,,ALACHUA,ALACHUA,,,FIRE STATION,-82.40441773,29.84331315,,,,
48,,ALACHUA,ALACHUA,,,FIRE STATION,-82.49322052,29.79267387,,,,
49,,NEWBERRY,ALACHUA,,,FIRE STATION,-82.60709509,29.64961533,,,,
50,,NEWBERRY,ALACHUA,,,FIRE STATION,-82.49477119,29.68589740,,,,
51,,NEWBERRY,ALACHUA,,,FIRE STATION,-82.57150054,29.59870971,,,,
52,,WALDO,ALACHUA,,,FIRE STATION,-82.16946133,29.79067945,,,,
53,,SANDERSON,BAKER,,,FIRE STATION,-82.29259762,30.43780580,,,,
54,,SANDERSON,BAKER,,,FIRE STATION,-82.27369681,30.24958987,,,,
55,,SANDERSON,BAKER,,,FIRE STATION,-82.23130720,30.50881310,,,,
56,,SANDERSON,BAKER,,,FIRE STATION,-82.43265627,30.20363774,,,,
57,,MACCLENNY,BAKER,,,FIRE STATION,-82.12556286,30.33869178,,,,
58,,MACCLENNY,BAKER,,,FIRE STATION,-82.12099237,30.28281132,,,,
59,,MACCLENNY,BAKER,,,FIRE STATION,-82.12959048,30.27020215,,,,
60,,MACCLENNY,BAKER,,,FIRE STATION,-82.12398324,30.25039324,,,,
61,,MACCLENNY,BAKER,,,FIRE STATION,-82.13964792,30.27944278,,,,
62,,GLEN SAINT MARY,BAKER,,,FIRE STATION,-82.16112094,30.27589154,,,,
63,,GLEN SAINT MARY,BAKER,,,FIRE STATION,-82.23464918,30.37741996,,,,
64,,PANAMA CITY,BAY,,,FIRE STATION,-85.63588903,30.28598845,,,,
65,,PANAMA CITY,BAY,,,FIRE STATION,-85.68093289,30.20681091,,,,
66,,PANAMA CITY,BAY,,,FIRE STATION,-85.67384600,30.20766498,,,,
67,,PANAMA CITY,BAY,,,FIRE STATION,-85.63276017,30.15874447,,,,
68,,PANAMA CITY,BAY,,,FIRE STATION,-85.78629835,30.17172259,,,,
69,,PANAMA CITY,BAY,,,FIRE STATION,-85.70861365,30.19121092,,,,
70,,PANAMA CITY,BAY,,,FIRE STATION,-85.60507317,30.12920022,,,,
71,,PANAMA CITY,BAY,,,FIRE STATION,-85.66333142,30.18215071,,,,
72,,PANAMA CITY,BAY,,,FIRE STATION,-85.79457031,30.35580316,,,,
73,,PANAMA CITY,BAY,,,FIRE STATION,-85.70160495,30.18459726,,,,
74,,PANAMA CITY,BAY,,,FIRE STATION,-85.50721647,30.13520664,,,,
75,,PANAMA CITY,BAY,,,FIRE STATION,-85.57421836,30.14065320,,,,
76,,PANAMA CITY,BAY,,,FIRE STATION,-85.58458984,30.06728785,,,,
77,,PANAMA CITY,BAY,,,FIRE STATION,-85.68439657,30.38657328,,,,
78,,PANAMA CITY,BAY,,,FIRE STATION,-85.62347010,30.20107323,,,,
79,,PANAMA CITY,BAY,,,FIRE STATION,-85.61064815,30.15272965,,,,
80,,PANAMA CITY,BAY,,,FIRE STATION,-85.65196126,30.15779701,,,,
81,,PANAMA CITY,BAY,,,FIRE STATION,-85.74907986,30.15374025,,,,
82,,PANAMA CITY,BAY,,,FIRE STATION,-85.77032914,30.15611193,,,,
83,,LYNN HAVEN,BAY,,,FIRE STATION,-85.63199072,30.21343836,,,,
84,,LYNN HAVEN,BAY,,,FIRE STATION,-85.64790639,30.23665950,,,,
85,,FOUNTAIN,BAY,,,FIRE STATION,-85.42402000,30.47137285,,,,
86,,YOUNGSTOWN,BAY,,,FIRE STATION,-85.55011505,30.31333073,,,,
87,,YOUNGSTOWN,BAY,,,FIRE STATION,-85.43927033,30.36021161,,,,
88,,PORT SAINT JOE,BAY,,,FIRE STATION,-85.40519437,29.94135693,,,,
89,,PANAMA CITY BEACH,BAY,,,FIRE STATION,-85.89030115,30.23044132,,,,
90,,PANAMA CITY BEACH,BAY,,,FIRE STATION,-85.85958629,30.28999253,,,,
91,,PANAMA CITY BEACH,BAY,,,FIRE STATION,-85.80442422,30.18155695,,,,
92,,PANAMA CITY BEACH,BAY,,,FIRE STATION,-85.94732262,30.25553479,,,,
93,,PANAMA CITY BEACH,BAY,,,FIRE STATION,-85.97496531,30.26711465,,,,
94,,LAWTEY,BRADFORD,,,FIRE STATION,-82.07246133,30.04522808,,,,
95,,BROOKER,BRADFORD,,,FIRE STATION,-82.33440915,29.88933555,,,,
96,,BROOKER,BRADFORD,,,FIRE STATION,-82.25431467,30.00369516,,,,
97,,STARKE,BRADFORD,,,FIRE STATION,-82.15694367,29.90031886,,,,
98,,STARKE,BRADFORD,,,FIRE STATION,-82.10863119,29.94558764,,,,
99,,STARKE,BRADFORD,,,FIRE STATION,-82.15231246,30.01992527,,,,
100,,STARKE,BRADFORD,,,FIRE STATION,-82.06836183,29.83478792,,,,
101,,HAMPTON,BRADFORD,,,FIRE STATION,-82.13584770,29.86413801,,,,
102,,INDIALANTIC,BREVARD,,,FIRE STATION,-80.57020499,28.09159380,,,,
103,,INDIALANTIC,BREVARD,,,FIRE STATION,-80.57864295,28.12748600,,,,
104,,COCOA,BREVARD,,,FIRE STATION,-80.75952383,28.38810358,,,,
105,,COCOA,BREVARD,,,FIRE STATION,-80.78090436,28.47649236,,,,
106,,COCOA,BREVARD,,,FIRE STATION,-80.73118487,28.35819424,,,,
107,,COCOA,BREVARD,,,FIRE STATION,-80.78352995,28.35917987,,,,
108,,COCOA,BREVARD,,,FIRE STATION,-80.80535196,28.43129601,,,,
109,,COCOA,BREVARD,,,FIRE STATION,-80.74292113,28.35494125,,,,
110,,COCOA,BREVARD,,,FIRE STATION,-80.76234731,28.44843758,,,,
111,,PALM BAY,BREVARD,,,FIRE STATION,-80.66914123,27.99874865,,,,
112,,PALM BAY,BREVARD,,,FIRE STATION,-80.61613261,28.01960100,,,,
113,,PALM BAY,BREVARD,,,FIRE STATION,-80.63424827,27.99340539,,,,
114,,PALM BAY,BREVARD,,,FIRE STATION,-80.67627790,27.94792723,,,,
115,,PALM BAY,BREVARD,,,FIRE STATION,-80.67219673,28.03054178,,,,
116,,PALM BAY,BREVARD,,,FIRE STATION,-80.69702005,28.02386602,,,,
117,,PALM BAY,BREVARD,,,FIRE STATION,-80.62856893,27.95195995,,,,
118,,PALM BAY,BREVARD,,,FIRE STATION,-80.60507957,28.03128164,,,,
119,,PALM BAY,BREVARD,,,FIRE STATION,-80.61231258,28.00114587,,,,
120,,ROCKLEDGE,BREVARD,,,FIRE STATION,-80.72239519,28.33146070,,,,
121,,ROCKLEDGE,BREVARD,,,FIRE STATION,-80.72551276,28.34294316,,,,
122,,ROCKLEDGE,BREVARD,,,FIRE STATION,-80.72153299,28.30240859,,,,
123,,ROCKLEDGE,BREVARD,,,FIRE STATION,-80.72329770,28.33431213,,,,
124,,ROCKLEDGE,BREVARD,,,FIRE STATION,-80.74223842,28.33263578,,,,
125,,MALABAR,BREVARD,,,FIRE STATION,-80.58465189,27.99940630,,,,
126,,MALABAR,BREVARD,,,FIRE STATION,-80.56378740,27.96447116,,,,
127,,TITUSVILLE,BREVARD,,,FIRE STATION,-80.72990423,28.64176848,,,,
128,,TITUSVILLE,BREVARD,,,FIRE STATION,-80.80785946,28.61001523,,,,
129,,TITUSVILLE,BREVARD,,,FIRE STATION,-80.82209050,28.55595503,,,,
130,,TITUSVILLE,BREVARD,,,FIRE STATION,-80.82007011,28.60621618,,,,
131,,TITUSVILLE,BREVARD,,,FIRE STATION,-80.68355615,28.64457523,,,,
132,,TITUSVILLE,BREVARD,,,FIRE STATION,-80.83899306,28.62238645,,,,
133,,TITUSVILLE,BREVARD,,,FIRE STATION,-80.82962485,28.54225220,,,,
134,,TITUSVILLE,BREVARD,,,FIRE STATION,-80.83110664,28.58955940,,,,
135,,MELBOURNE,BREVARD,,,FIRE STATION,-80.67157126,28.16702029,,,,
136,,MELBOURNE,BREVARD,,,FIRE STATION,-80.64865297,28.13564493,,,,
137,,MELBOURNE,BREVARD,,,FIRE STATION,-80.71298288,28.23450306,,,,
138,,MELBOURNE,BREVARD,,,FIRE STATION,-80.64673135,28.09899955,,,,
139,,MELBOURNE,BREVARD,,,FIRE STATION,-80.63267893,28.12862039,,,,
140,,MELBOURNE,BREVARD,,,FIRE STATION,-80.62773128,28.10747567,,,,
141,,MELBOURNE,BREVARD,,,FIRE STATION,-80.67046723,28.07966927,,,,
142,,MELBOURNE,BREVARD,,,FIRE STATION,-80.61891030,28.06358963,,,,
143,,MELBOURNE,BREVARD,,,FIRE STATION,-80.67124609,28.12120599,,,,
144,,MELBOURNE,BREVARD,,,FIRE STATION,-80.67679596,28.22591177,,,,
145,,MELBOURNE,BREVARD,,,FIRE STATION,-80.65551459,28.14737128,,,,
146,,MELBOURNE,BREVARD,,,FIRE STATION,-80.63666970,28.05010859,,,,
147,,MELBOURNE,BREVARD,,,FIRE STATION,-80.70290258,28.14667906,,,,
148,,MELBOURNE,BREVARD,,,FIRE STATION,-80.61398004,28.08482653,,,,
149,,MERRITT ISLAND,BREVARD,,,FIRE STATION,-80.70720152,28.38392034,,,,
150,,MERRITT ISLAND,BREVARD,,,FIRE STATION,-80.66791171,28.37122358,,,,
151,,MERRITT ISLAND,BREVARD,,,FIRE STATION,-80.71033731,28.47220199,,,,
152,,MERRITT ISLAND,BREVARD,,,FIRE STATION,-80.68849312,28.34018082,,,,
153,,SEBASTIAN,BREVARD,,,FIRE STATION,-80.50591561,27.88308082,,,,
154,,MIMS,BREVARD,,,FIRE STATION,-80.86848032,28.73531348,,,,
155,,MIMS,BREVARD,,,FIRE STATION,-80.84568104,28.66614879,,,,
156,,MIMS,BREVARD,,,FIRE STATION,-80.84568104,28.66614879,,,,
157,,MIMS,BREVARD,,,FIRE STATION,-80.87575167,28.76622897,,,,
158,,SATELLITE BEACH,BREVARD,,,FIRE STATION,-80.60332493,28.20381377,,,,
159,,SATELLITE BEACH,BREVARD,,,FIRE STATION,-80.59468607,28.15216059,,,,
160,,SATELLITE BEACH,BREVARD,,,FIRE STATION,-80.60637995,28.17250733,,,,
161,,MELBOURNE BEACH,BREVARD,,,FIRE STATION,-80.48650525,27.92733751,,,,
162,,MELBOURNE BEACH,BREVARD,,,FIRE STATION,-80.56373842,28.06793096,,,,
163,,MELBOURNE BEACH,BREVARD,,,FIRE STATION,-80.54768705,28.04587920,,,,
164,,PATRICK AFB,BREVARD,,,FIRE STATION,-80.60415294,28.23502353,,,,
165,,PATRICK AFB,BREVARD,,,FIRE STATION,-80.59324921,28.52923532,,,,
166,,PATRICK AFB,BREVARD,,,FIRE STATION,-80.58225374,28.48525507,,,,
167,,ORLANDO,BREVARD,,,FIRE STATION,-80.65496903,28.58173912,,,,
168,,ORLANDO,BREVARD,,,FIRE STATION,-80.60399341,28.60246841,,,,
169,,ORLANDO,BREVARD,,,FIRE STATION,-80.65371750,28.52001409,,,,
170,,CAPE CANAVERAL,BREVARD,,,FIRE STATION,-80.60654835,28.41751337,,,,
171,,CAPE CANAVERAL,BREVARD,,,FIRE STATION,-80.61379585,28.40312246,,,,
172,,CAPE CANAVERAL,BREVARD,,,FIRE STATION,-80.60442080,28.38749849,,,,
173,,COCOA BEACH,BREVARD,,,FIRE STATION,-80.60976481,28.31774413,,,,
174,,COCOA BEACH,BREVARD,,,FIRE STATION,-80.60976481,28.31774413,,,,
175,,COCOA BEACH,BREVARD,,,FIRE STATION,-80.61011902,28.35955319,,,,
176,,VIERA,BREVARD,,,FIRE STATION,-80.73844443,28.26453698,,,,
177,,FORT LAUDERDALE,BROWARD,,,FIRE STATION,-80.39430008,26.06988439,,,,
178,,FORT LAUDERDALE,BROWARD,,,FIRE STATION,-80.14930852,26.12367379,,,,
179,,FORT LAUDERDALE,BROWARD,,,FIRE STATION,-80.14930852,26.12367379,,,,
180,,FORT LAUDERDALE,BROWARD,,,FIRE STATION,-80.24003629,26.15441865,,,,
181,,FORT LAUDERDALE,BROWARD,,,FIRE STATION,-80.40686593,26.11557322,,,,
182,,FORT LAUDERDALE,BROWARD,,,FIRE STATION,-80.25868169,26.11644183,,,,
183,,FORT LAUDERDALE,BROWARD,,,FIRE STATION,-80.38048539,26.06059882,,,,
184,,FORT LAUDERDALE,BROWARD,,,FIRE STATION,-80.09700874,26.19265965,,,,
185,,FORT LAUDERDALE,BROWARD,,,FIRE STATION,-80.17789980,26.04808584,,,,
186,,FORT LAUDERDALE,BROWARD,,,FIRE STATION,-80.25924641,26.15885600,,,,
187,,FORT LAUDERDALE,BROWARD,,,FIRE STATION,-80.17020581,26.19122983,,,,
188,,FORT LAUDERDALE,BROWARD,,,FIRE STATION,-80.17419492,26.19598653,,,,
189,,FORT LAUDERDALE,BROWARD,,,FIRE STATION,-80.14725068,26.08868236,,,,
190,,FORT LAUDERDALE,BROWARD,,,FIRE STATION,-80.12069780,26.14850045,,,,
191,,FORT LAUDERDALE,BROWARD,,,FIRE STATION,-80.11989813,26.08305251,,,,
192,,FORT LAUDERDALE,BROWARD,,,FIRE STATION,-80.12158242,26.18947867,,,,
193,,FORT LAUDERDALE,BROWARD,,,FIRE STATION,-80.20480601,26.14024810,,,,
194,,FORT LAUDERDALE,BROWARD,,,FIRE STATION,-80.17752303,26.10936564,,,,
195,,FORT LAUDERDALE,BROWARD,,,FIRE STATION,-80.14523020,26.08333091,,,,
196,,FORT LAUDERDALE,BROWARD,,,FIRE STATION,-80.28756104,26.19935863,,,,
197,,FORT LAUDERDALE,BROWARD,,,FIRE STATION,-80.29550183,26.14546688,,,,
198,,FORT LAUDERDALE,BROWARD,,,FIRE STATION,-80.27114469,26.21295277,,,,
199,,FORT LAUDERDALE,BROWARD,,,FIRE STATION,-80.20575389,26.07780313,,,,
200,,FORT LAUDERDALE,BROWARD,,,FIRE STATION,-80.22439493,26.15074756,,,,
201,,FORT LAUDERDALE,BROWARD,,,FIRE STATION,-80.29294875,26.16901997,,,,
202,,FORT LAUDERDALE,BROWARD,,,FIRE STATION,-80.15446533,26.13909045,,,,
203,,FORT LAUDERDALE,BROWARD,,,FIRE STATION,-80.33214747,26.15086594,,,,
204,,FORT LAUDERDALE,BROWARD,,,FIRE STATION,-80.21885486,26.12041240,,,,
205,,FORT LAUDERDALE,BROWARD,,,FIRE STATION,-80.36040172,26.12210236,,,,
206,,FORT LAUDERDALE,BROWARD,,,FIRE STATION,-80.15543330,26.18589351,,,,
207,,FORT LAUDERDALE,BROWARD,,,FIRE STATION,-80.14227805,26.17439745,,,,
208,,FORT LAUDERDALE,BROWARD,,,FIRE STATION,-80.18681104,26.13220994,,,,
209,,FORT LAUDERDALE,BROWARD,,,FIRE STATION,-80.21225161,26.09712968,,,,
210,,FORT LAUDERDALE,BROWARD,,,FIRE STATION,-80.31045214,26.12180287,,,,
211,,FORT LAUDERDALE,BROWARD,,,FIRE STATION,-80.17145042,26.06953564,,,,
212,,FORT LAUDERDALE,BROWARD,,,FIRE STATION,-80.10656185,26.13842624,,,,
213,,FORT LAUDERDALE,BROWARD,,,FIRE STATION,-80.17130723,26.17379384,,,,
214,,FORT LAUDERDALE,BROWARD,,,FIRE STATION,-80.20657479,26.16927664,,,,
215,,FORT LAUDERDALE,BROWARD,,,FIRE STATION,-80.41299473,26.04325475,,,,
216,,FORT LAUDERDALE,BROWARD,,,FIRE STATION,-80.13942368,26.15628321,,,,
217,,FORT LAUDERDALE,BROWARD,,,FIRE STATION,-80.10290857,26.16803916,,,,
218,,FORT LAUDERDALE,BROWARD,,,FIRE STATION,-80.28138191,26.10499859,,,,
219,,FORT LAUDERDALE,BROWARD,,,FIRE STATION,-80.38167397,26.09287046,,,,
220,,FORT LAUDERDALE,BROWARD,,,FIRE STATION,-80.10619453,26.11048920,,,,
221,,FORT LAUDERDALE,BROWARD,,,FIRE STATION,-80.23632002,26.12860568,,,,
222,,FORT LAUDERDALE,BROWARD,,,FIRE STATION,-80.34588970,26.04318939,,,,
223,,FORT LAUDERDALE,BROWARD,,,FIRE STATION,-80.26827468,26.13336578,,,,
224,,FORT LAUDERDALE,BROWARD,,,FIRE STATION,-80.20882885,26.18991119,,,,
225,,FORT LAUDERDALE,BROWARD,,,FIRE STATION,-80.15036901,26.07241791,,,,
226,,FORT LAUDERDALE,BROWARD,,,FIRE STATION,-80.37912644,26.06150027,,,,
227,,FORT LAUDERDALE,BROWARD,,,FIRE STATION,-80.25515482,26.18802574,,,,
228,,FORT LAUDERDALE,BROWARD,,,FIRE STATION,-80.31329408,26.07571894,,,,
229,,FORT LAUDERDALE,BROWARD,,,FIRE STATION,-80.17118205,26.20469133,,,,
230,,FORT LAUDERDALE,BROWARD,,,FIRE STATION,-80.18710435,26.14038797,,,,
231,,FORT LAUDERDALE,BROWARD,,,FIRE STATION,-80.23940273,26.06632124,,,,
232,,DEERFIELD BEACH,BROWARD,,,FIRE STATION,-80.09141970,26.31773347,,,,
233,,DEERFIELD BEACH,BROWARD,,,FIRE STATION,-80.07605868,26.31423353,,,,
234,,DEERFIELD BEACH,BROWARD,,,FIRE STATION,-80.12531677,26.31337024,,,,
235,,DEERFIELD BEACH,BROWARD,,,FIRE STATION,-80.15204664,26.30903858,,,,
236,,DEERFIELD BEACH,BROWARD,,,FIRE STATION,-80.12027109,26.29850422,,,,
237,,DANIA BEACH,BROWARD,,,FIRE STATION,-80.14533493,26.05261579,,,,
238,,POMPANO BEACH,BROWARD,,,FIRE STATION,-80.27319576,26.32096493,,,,
239,,POMPANO BEACH,BROWARD,,,FIRE STATION,-80.27967793,26.23585729,,,,
240,,POMPANO BEACH,BROWARD,,,FIRE STATION,-80.22124951,26.23905886,,,,
241,,POMPANO BEACH,BROWARD,,,FIRE STATION,-80.12532741,26.22509674,,,,
242,,POMPANO BEACH,BROWARD,,,FIRE STATION,-80.20584873,26.24136621,,,,
243,,POMPANO BEACH,BROWARD,,,FIRE STATION,-80.10068321,26.27479240,,,,
244,,POMPANO BEACH,BROWARD,,,FIRE STATION,-80.15064337,26.26569904,,,,
245,,POMPANO BEACH,BROWARD,,,FIRE STATION,-80.09012152,26.23622418,,,,
246,,POMPANO BEACH,BROWARD,,,FIRE STATION,-80.15899988,26.23011980,,,,
247,,POMPANO BEACH,BROWARD,,,FIRE STATION,-80.28362874,26.28195777,,,,
248,,POMPANO BEACH,BROWARD,,,FIRE STATION,-80.23765011,26.23776780,,,,
249,,POMPANO BEACH,BROWARD,,,FIRE STATION,-80.19731941,26.25752160,,,,
250,,POMPANO BEACH,BROWARD,,,FIRE STATION,-80.23027632,26.21025488,,,,
251,,POMPANO BEACH,BROWARD,,,FIRE STATION,-80.25115438,26.31228472,,,,
252,,POMPANO BEACH,BROWARD,,,FIRE STATION,-80.20680427,26.20140342,,,,
253,,POMPANO BEACH,BROWARD,,,FIRE STATION,-80.26527068,26.26533735,,,,
254,,POMPANO BEACH,BROWARD,,,FIRE STATION,-80.09370416,26.27634896,,,,
255,,POMPANO BEACH,BROWARD,,,FIRE STATION,-80.22190820,26.31110778,,,,
256,,POMPANO BEACH,BROWARD,,,FIRE STATION,-80.21979650,26.28605971,,,,
257,,POMPANO BEACH,BROWARD,,,FIRE STATION,-80.18575927,26.31147543,,,,
258,,POMPANO BEACH,BROWARD,,,FIRE STATION,-80.12764105,26.25748751,,,,
259,,POMPANO BEACH,BROWARD,,,FIRE STATION,-80.10381875,26.24336064,,,,
260,,HOLLYWOOD,BROWARD,,,FIRE STATION,-80.18346425,25.98698286,,,,
261,,HOLLYWOOD,BROWARD,,,FIRE STATION,-80.21833149,26.03640307,,,,
262,,HOLLYWOOD,BROWARD,,,FIRE STATION,-80.41350579,26.00709228,,,,
263,,HOLLYWOOD,BROWARD,,,FIRE STATION,-80.26481142,25.98147070,,,,
264,,HOLLYWOOD,BROWARD,,,FIRE STATION,-80.37118871,26.00833613,,,,
265,,HOLLYWOOD,BROWARD,,,FIRE STATION,-80.11838912,25.98627983,,,,
266,,HOLLYWOOD,BROWARD,,,FIRE STATION,-80.23211932,26.00483853,,,,
267,,HOLLYWOOD,BROWARD,,,FIRE STATION,-80.17744754,26.01107046,,,,
268,,HOLLYWOOD,BROWARD,,,FIRE STATION,-80.14871650,26.01465773,,,,
269,,HOLLYWOOD,BROWARD,,,FIRE STATION,-80.22074960,25.98162934,,,,
270,,HOLLYWOOD,BROWARD,,,FIRE STATION,-80.21664775,26.02597958,,,,
271,,HOLLYWOOD,BROWARD,,,FIRE STATION,-80.14238110,25.99791887,,,,
272,,HOLLYWOOD,BROWARD,,,FIRE STATION,-80.11604158,26.02539858,,,,
273,,HOLLYWOOD,BROWARD,,,FIRE STATION,-80.39279938,25.98234744,,,,
274,,HOLLYWOOD,BROWARD,,,FIRE STATION,-80.28573982,26.04401555,,,,
275,,HOLLYWOOD,BROWARD,,,FIRE STATION,-80.34427291,25.98486375,,,,
276,,HOLLYWOOD,BROWARD,,,FIRE STATION,-80.27167741,26.00777101,,,,
277,,HOLLYWOOD,BROWARD,,,FIRE STATION,-80.32080598,26.00710680,,,,
278,,WEST BROWARD COUNTY,BROWARD,,,FIRE STATION,-80.62838337,26.14547702,,,,
279,,HALLANDALE,BROWARD,,,FIRE STATION,-80.12645396,25.98770861,,,,
280,,HALLANDALE,BROWARD,,,FIRE STATION,-80.15005321,25.98160155,,,,
281,,ALTHA,CALHOUN,,,FIRE STATION,-85.18364276,30.44990513,,,,
282,,ALTHA,CALHOUN,,,FIRE STATION,-85.12818262,30.57084100,,,,
283,,ALTHA,CALHOUN,,,FIRE STATION,-85.22687478,30.47779445,,,,
284,,BLOUNTSTOWN,CALHOUN,,,FIRE STATION,-85.14640301,30.45340864,,,,
285,,BLOUNTSTOWN,CALHOUN,,,FIRE STATION,-85.08338517,30.43419829,,,,
286,,BLOUNTSTOWN,CALHOUN,,,FIRE STATION,-85.04347395,30.47442252,,,,
287,,BLOUNTSTOWN,CALHOUN,,,FIRE STATION,-85.05045657,30.44698011,,,,
288,,BLOUNTSTOWN,CALHOUN,,,FIRE STATION,-85.10865344,30.48824562,,,,
289,,BLOUNTSTOWN,CALHOUN,,,FIRE STATION,-85.13881307,30.29072212,,,,
290,,WEWAHITCHKA,CALHOUN,,,FIRE STATION,-85.24247886,30.26514450,,,,
291,,PUNTA GORDA,CHARLOTTE,,,FIRE STATION,-82.02213943,26.88409896,,,,
292,,PUNTA GORDA,CHARLOTTE,,,FIRE STATION,-81.96076828,27.00657052,,,,
293,,PUNTA GORDA,CHARLOTTE,,,FIRE STATION,-82.01466646,26.86064017,,,,
294,,PUNTA GORDA,CHARLOTTE,,,FIRE STATION,-81.76000474,26.79966427,,,,
295,,PUNTA GORDA,CHARLOTTE,,,FIRE STATION,-82.06930656,26.90944160,,,,
296,,PUNTA GORDA,CHARLOTTE,,,FIRE STATION,-81.99200963,26.95479031,,,,
297,,PUNTA GORDA,CHARLOTTE,,,FIRE STATION,-82.00069298,26.92213422,,,,
298,,PUNTA GORDA,CHARLOTTE,,,FIRE STATION,-82.03569363,27.00164874,,,,
299,,PUNTA GORDA,CHARLOTTE,,,FIRE STATION,-82.00665411,26.98756317,,,,
300,,PUNTA GORDA,CHARLOTTE,,,FIRE STATION,-82.00845796,26.91499504,,,,
301,,PUNTA GORDA,CHARLOTTE,,,FIRE STATION,-82.04669538,26.92559000,,,,
302,,ROTONDA WEST,CHARLOTTE,,,FIRE STATION,-82.29008815,26.90906791,,,,
303,,PLACIDA,CHARLOTTE,,,FIRE STATION,-82.31549256,26.86825209,,,,
304,,PLACIDA,CHARLOTTE,,,FIRE STATION,-82.28773662,26.85174180,,,,
305,,PORT CHARLOTTE,CHARLOTTE,,,FIRE STATION,-82.09155782,27.02629665,,,,
306,,PORT CHARLOTTE,CHARLOTTE,,,FIRE STATION,-82.22314541,26.91739679,,,,
307,,PORT CHARLOTTE,CHARLOTTE,,,FIRE STATION,-82.09212497,26.97616611,,,,
308,,PORT CHARLOTTE,CHARLOTTE,,,FIRE STATION,-82.21025133,26.96618917,,,,
309,,PORT CHARLOTTE,CHARLOTTE,,,FIRE STATION,-82.15683476,27.00460789,,,,
310,,PORT CHARLOTTE,CHARLOTTE,,,FIRE STATION,-82.23303590,27.01030245,,,,
311,,ENGLEWOOD,CHARLOTTE,,,FIRE STATION,-82.31045363,26.92103098,,,,
312,,ENGLEWOOD,CHARLOTTE,,,FIRE STATION,-82.27755497,26.93537830,,,,
313,,ENGLEWOOD,CHARLOTTE,,,FIRE STATION,-82.31086011,26.89814437,,,,
314,,CRYSTAL RIVER,CITRUS,,,FIRE STATION,-82.53874221,28.87433882,,,,
315,,CRYSTAL RIVER,CITRUS,,,FIRE STATION,-82.59677278,28.90087216,,,,
316,,CRYSTAL RIVER,CITRUS,,,FIRE STATION,-82.60132838,28.87170787,,,,
317,,CRYSTAL RIVER,CITRUS,,,FIRE STATION,-82.67126159,28.83253726,,,,
318,,DUNNELLON,CITRUS,,,FIRE STATION,-82.56906235,29.00968716,,,,
319,,DUNNELLON,CITRUS,,,FIRE STATION,-82.46653211,29.00187912,,,,
320,,FLORAL CITY,CITRUS,,,FIRE STATION,-82.30309510,28.73485484,,,,
321,,FLORAL CITY,CITRUS,,,FIRE STATION,-82.24015132,28.76988387,,,,
322,,HOMOSASSA,CITRUS,,,FIRE STATION,-82.51603916,28.72333920,,,,
323,,HOMOSASSA,CITRUS,,,FIRE STATION,-82.61553540,28.78156328,,,,
324,,HOMOSASSA,CITRUS,,,FIRE STATION,-82.57330482,28.80616807,,,,
325,,HOMOSASSA,CITRUS,,,FIRE STATION,-82.56765371,28.71216565,,,,
326,,BEVERLY HILLS,CITRUS,,,FIRE STATION,-82.48766722,28.93271296,,,,
327,,BEVERLY HILLS,CITRUS,,,FIRE STATION,-82.46821488,28.91787939,,,,
328,,HERNANDO,CITRUS,,,FIRE STATION,-82.37397264,28.96518622,,,,
329,,HERNANDO,CITRUS,,,FIRE STATION,-82.37332028,28.90072102,,,,
330,,INVERNESS,CITRUS,,,FIRE STATION,-82.36099160,28.72223437,,,,
331,,INVERNESS,CITRUS,,,FIRE STATION,-82.41872807,28.85883339,,,,
332,,INVERNESS,CITRUS,,,FIRE STATION,-82.33001028,28.83452503,,,,
333,,INVERNESS,CITRUS,,,FIRE STATION,-82.26957663,28.84968142,,,,
334,,INVERNESS,CITRUS,,,FIRE STATION,-82.33995293,28.79846895,,,,
335,,LECANTO,CITRUS,,,FIRE STATION,-82.49328428,28.82119726,,,,
336,,LECANTO,CITRUS,,,FIRE STATION,-82.48323260,28.79891861,,,,
337,,MIDDLEBURG,CLAY,,,FIRE STATION,-81.95474560,30.09983985,,,,
338,,MIDDLEBURG,CLAY,,,FIRE STATION,-81.86728711,30.06843583,,,,
339,,GREEN COVE SPRINGS,CLAY,,,FIRE STATION,-81.69621113,29.98543025,,,,
340,,GREEN COVE SPRINGS,CLAY,,,FIRE STATION,-81.81815720,30.04878119,,,,
341,,GREEN COVE SPRINGS,CLAY,,,FIRE STATION,-81.68138586,29.92137971,,,,
342,,GREEN COVE SPRINGS,CLAY,,,FIRE STATION,-81.74404386,29.97986207,,,,
343,,ORANGE PARK,CLAY,,,FIRE STATION,-81.74333496,30.17632002,,,,
344,,ORANGE PARK,CLAY,,,FIRE STATION,-81.70250741,30.16454647,,,,
345,,ORANGE PARK,CLAY,,,FIRE STATION,-81.85083818,30.17463935,,,,
346,,ORANGE PARK,CLAY,,,FIRE STATION,-81.77030735,30.12732114,,,,
347,,STARKE,CLAY,,,FIRE STATION,-81.98252083,29.97530688,,,,
348,,FLEMING ISLAND,CLAY,,,FIRE STATION,-81.69778454,30.08622567,,,,
349,,KEYSTONE HEIGHTS,CLAY,,,FIRE STATION,-81.92180018,29.81355174,,,,
350,,KEYSTONE HEIGHTS,CLAY,,,FIRE STATION,-82.03220339,29.78521313,,,,
351,,NAPLES,COLLIER,,,FIRE STATION,-81.72671580,26.09609140,,,,
352,,NAPLES,COLLIER,,,FIRE STATION,-81.63237369,26.22791573,,,,
353,,NAPLES,COLLIER,,,FIRE STATION,-81.80587552,26.25021970,,,,
354,,NAPLES,COLLIER,,,FIRE STATION,-81.70058004,26.04619337,,,,
355,,NAPLES,COLLIER,,,FIRE STATION,-81.54802067,26.36564438,,,,
356,,NAPLES,COLLIER,,,FIRE STATION,-81.74913794,26.21106183,,,,
357,,NAPLES,COLLIER,,,FIRE STATION,-81.79511108,26.13876062,,,,
358,,NAPLES,COLLIER,,,FIRE STATION,-81.68322728,26.15394593,,,,
359,,NAPLES,COLLIER,,,FIRE STATION,-81.73214894,26.09077085,,,,
360,,NAPLES,COLLIER,,,FIRE STATION,-81.51174957,25.95730998,,,,
361,,NAPLES,COLLIER,,,FIRE STATION,-81.59229804,26.36531329,,,,
362,,NAPLES,COLLIER,,,FIRE STATION,-81.70417720,26.18274801,,,,
363,,NAPLES,COLLIER,,,FIRE STATION,-81.78946403,26.15172793,,,,
364,,NAPLES,COLLIER,,,FIRE STATION,-81.76158450,26.29819507,,,,
365,,NAPLES,COLLIER,,,FIRE STATION,-81.78346031,26.26952096,,,,
366,,NAPLES,COLLIER,,,FIRE STATION,-81.78955982,26.21177495,,,,
367,,NAPLES,COLLIER,,,FIRE STATION,-81.76998800,26.11284300,,,,
368,,NAPLES,COLLIER,,,FIRE STATION,-81.79862320,26.17771839,,,,
369,,NAPLES,COLLIER,,,FIRE STATION,-81.69007820,26.25238456,,,,
370,,NAPLES,COLLIER,,,FIRE STATION,-81.78446638,26.22504279,,,,
371,,NAPLES,COLLIER,,,FIRE STATION,-81.72562985,26.27238081,,,,
372,,NAPLES,COLLIER,,,FIRE STATION,-81.75075756,26.13817938,,,,
373,,NAPLES,COLLIER,,,FIRE STATION,-81.76818965,26.18175198,,,,
374,,NAPLES,COLLIER,,,FIRE STATION,-81.76818965,26.18175198,,,,
375,,NAPLES,COLLIER,,,FIRE STATION,-81.77666800,26.14936000,,,,
376,,NAPLES,COLLIER,,,FIRE STATION,-81.72733883,25.98432441,,,,
377,,IMMOKALEE,COLLIER,,,FIRE STATION,-81.45032536,26.43418488,,,,
378,,IMMOKALEE,COLLIER,,,FIRE STATION,-81.44692261,26.34179913,,,,
379,,IMMOKALEE,COLLIER,,,FIRE STATION,-81.41024458,26.42181499,,,,
380,,MARCO ISLAND,COLLIER,,,FIRE STATION,-81.71496598,25.93746699,,,,
381,,MARCO ISLAND,COLLIER,,,FIRE STATION,-81.72270787,25.95713361,,,,
382,,BONITA SPRINGS,COLLIER,,,FIRE STATION,-81.81957075,26.32211124,,,,
383,,OCHOPEE,COLLIER,,,FIRE STATION,-81.07509505,26.16732469,,,,
384,,OCHOPEE,COLLIER,,,FIRE STATION,-81.38421264,25.85857111,,,,
385,,OCHOPEE,COLLIER,,,FIRE STATION,-81.28162372,25.89535995,,,,
386,,LAKE CITY,COLUMBIA,,,FIRE STATION,-82.73406599,30.16535049,,,,
387,,LAKE CITY,COLUMBIA,,,FIRE STATION,-82.61854856,30.35842368,,,,
388,,LAKE CITY,COLUMBIA,,,FIRE STATION,-82.59704776,30.01873188,,,,
389,,LAKE CITY,COLUMBIA,,,FIRE STATION,-82.49534565,30.10982503,,,,
390,,LAKE CITY,COLUMBIA,,,FIRE STATION,-82.63883205,30.19097640,,,,
391,,LAKE CITY,COLUMBIA,,,FIRE STATION,-82.69866332,30.27806908,,,,
392,,LAKE CITY,COLUMBIA,,,FIRE STATION,-82.67304572,30.17530309,,,,
393,,LAKE CITY,COLUMBIA,,,FIRE STATION,-82.67304572,30.17530309,,,,
394,,LAKE CITY,COLUMBIA,,,FIRE STATION,-82.70123100,30.06978767,,,,
395,,FORT WHITE,COLUMBIA,,,FIRE STATION,-82.71603575,29.92555898,,,,
396,,ARCADIA,DESOTO,,,FIRE STATION,-81.99977247,27.09244868,,,,
397,,ARCADIA,DESOTO,,,FIRE STATION,-81.97762394,27.20093992,,,,
398,,ARCADIA,DESOTO,,,FIRE STATION,-81.84258211,27.20878422,,,,
399,,ARCADIA,DESOTO,,,FIRE STATION,-81.86190107,27.21698706,,,,
400,,OLD TOWN,DIXIE,,,FIRE STATION,-82.97991934,29.60372641,,,,
401,,OLD TOWN,DIXIE,,,FIRE STATION,-83.01274591,29.64112041,,,,
402,,OLD TOWN,DIXIE,,,FIRE STATION,-82.98525250,29.73653735,,,,
403,,OLD TOWN,DIXIE,,,FIRE STATION,-83.12475768,29.34728986,,,,
404,,OLD TOWN,DIXIE,,,FIRE STATION,-82.98507598,29.74870670,,,,
405,,CROSS CITY,DIXIE,,,FIRE STATION,-83.12454576,29.63601544,,,,
406,,HORSESHOE BEACH,DIXIE,,,FIRE STATION,-83.28599990,29.44162156,,,,
407,,STEINHATCHEE,DIXIE,,,FIRE STATION,-83.36232727,29.66257998,,,,
408,,JACKSONVILLE,DUVAL,,,FIRE STATION,-81.65344302,30.36605889,,,,
409,,JACKSONVILLE,DUVAL,,,FIRE STATION,-81.68758366,30.40910542,,,,
410,,JACKSONVILLE,DUVAL,,,FIRE STATION,-81.54548175,30.32370869,,,,
411,,JACKSONVILLE,DUVAL,,,FIRE STATION,-81.70504560,30.31170415,,,,
412,,JACKSONVILLE,DUVAL,,,FIRE STATION,-81.78571865,30.30113421,,,,
413,,JACKSONVILLE,DUVAL,,,FIRE STATION,-81.64188372,30.38949435,,,,
414,,JACKSONVILLE,DUVAL,,,FIRE STATION,-81.72355556,30.54784753,,,,
415,,JACKSONVILLE,DUVAL,,,FIRE STATION,-81.63532073,30.42112964,,,,
416,,JACKSONVILLE,DUVAL,,,FIRE STATION,-81.68370183,30.49632625,,,,
417,,JACKSONVILLE,DUVAL,,,FIRE STATION,-81.48310856,30.35996544,,,,
418,,JACKSONVILLE,DUVAL,,,FIRE STATION,-81.63017760,30.30560165,,,,
419,,JACKSONVILLE,DUVAL,,,FIRE STATION,-81.72175347,30.36775540,,,,
420,,JACKSONVILLE,DUVAL,,,FIRE STATION,-81.44660942,30.26618912,,,,
421,,JACKSONVILLE,DUVAL,,,FIRE STATION,-81.71368864,30.28458215,,,,
422,,JACKSONVILLE,DUVAL,,,FIRE STATION,-81.80732655,30.37250676,,,,
423,,JACKSONVILLE,DUVAL,,,FIRE STATION,-81.75961921,30.43019135,,,,
424,,JACKSONVILLE,DUVAL,,,FIRE STATION,-81.48026901,30.52120349,,,,
425,,JACKSONVILLE,DUVAL,,,FIRE STATION,-81.62934398,30.46630892,,,,
426,,JACKSONVILLE,DUVAL,,,FIRE STATION,-81.62563120,30.35516271,,,,
427,,JACKSONVILLE,DUVAL,,,FIRE STATION,-81.65435958,30.30475863,,,,
428,,JACKSONVILLE,DUVAL,,,FIRE STATION,-81.74341436,30.20391189,,,,
429,,JACKSONVILLE,DUVAL,,,FIRE STATION,-81.63957587,30.32097131,,,,
430,,JACKSONVILLE,DUVAL,,,FIRE STATION,-81.68910375,30.32684020,,,,
431,,JACKSONVILLE,DUVAL,,,FIRE STATION,-81.67627046,30.35968997,,,,
432,,JACKSONVILLE,DUVAL,,,FIRE STATION,-81.70183367,30.43973883,,,,
433,,JACKSONVILLE,DUVAL,,,FIRE STATION,-81.65097923,30.32993199,,,,
434,,JACKSONVILLE,DUVAL,,,FIRE STATION,-81.44019906,30.39182252,,,,
435,,JACKSONVILLE,DUVAL,,,FIRE STATION,-81.48362199,30.28941639,,,,
436,,JACKSONVILLE,DUVAL,,,FIRE STATION,-81.74815074,30.28105348,,,,
437,,JACKSONVILLE,DUVAL,,,FIRE STATION,-81.56649022,30.21907210,,,,
438,,JACKSONVILLE,DUVAL,,,FIRE STATION,-81.54140041,30.40375152,,,,
439,,JACKSONVILLE,DUVAL,,,FIRE STATION,-81.64145851,30.32111202,,,,
440,,JACKSONVILLE,DUVAL,,,FIRE STATION,-81.66501365,30.33784548,,,,
441,,JACKSONVILLE,DUVAL,,,FIRE STATION,-81.75675919,30.33666978,,,,
442,,JACKSONVILLE,DUVAL,,,FIRE STATION,-81.86127923,30.31329162,,,,
443,,JACKSONVILLE,DUVAL,,,FIRE STATION,-81.71072916,30.37444841,,,,
444,,JACKSONVILLE,DUVAL,,,FIRE STATION,-81.65424459,30.34026356,,,,
445,,JACKSONVILLE,DUVAL,,,FIRE STATION,-81.88161118,30.22082420,,,,
446,,JACKSONVILLE,DUVAL,,,FIRE STATION,-82.00850417,30.20021565,,,,
447,,JACKSONVILLE,DUVAL,,,FIRE STATION,-81.63114789,30.46986934,,,,
448,,JACKSONVILLE,DUVAL,,,FIRE STATION,-81.61225776,30.19513302,,,,
449,,JACKSONVILLE,DUVAL,,,FIRE STATION,-81.59401905,30.36671719,,,,
450,,JACKSONVILLE,DUVAL,,,FIRE STATION,-81.54484698,30.17079261,,,,
451,,JACKSONVILLE,DUVAL,,,FIRE STATION,-81.40334868,30.38750775,,,,
452,,JACKSONVILLE,DUVAL,,,FIRE STATION,-81.65642230,30.37833540,,,,
453,,JACKSONVILLE,DUVAL,,,FIRE STATION,-81.61893897,30.25830294,,,,
454,,JACKSONVILLE,DUVAL,,,FIRE STATION,-81.60025197,30.29486127,,,,
455,,JACKSONVILLE,DUVAL,,,FIRE STATION,-81.69743905,30.25098909,,,,
456,,JACKSONVILLE,DUVAL,,,FIRE STATION,-81.66532389,30.33129662,,,,
457,,JACKSONVILLE,DUVAL,,,FIRE STATION,-81.58381497,30.50903549,,,,
458,,JACKSONVILLE,DUVAL,,,FIRE STATION,-81.98003444,30.30076579,,,,
459,,JACKSONVILLE,DUVAL,,,FIRE STATION,-81.69953341,30.22608387,,,,
460,,JACKSONVILLE,DUVAL,,,FIRE STATION,-81.52691994,30.12253736,,,,
461,,JACKSONVILLE,DUVAL,,,FIRE STATION,-81.63169454,30.16599198,,,,
462,,JACKSONVILLE,DUVAL,,,FIRE STATION,-81.73801939,30.24777000,,,,
463,,JACKSONVILLE,DUVAL,,,FIRE STATION,-81.70168996,30.35222578,,,,
464,,JACKSONVILLE,DUVAL,,,FIRE STATION,-81.70047739,30.48665067,,,,
465,,JACKSONVILLE,DUVAL,,,FIRE STATION,-81.56221983,30.27526543,,,,
466,,JACKSONVILLE,DUVAL,,,FIRE STATION,-81.58946892,30.33096992,,,,
467,,JACKSONVILLE,DUVAL,,,FIRE STATION,-81.77665066,30.24693833,,,,
468,,JACKSONVILLE,DUVAL,,,FIRE STATION,-81.71435331,30.33114302,,,,
469,,JACKSONVILLE,DUVAL,,,FIRE STATION,-81.46031827,30.32569124,,,,
470,,ATLANTIC BEACH,DUVAL,,,FIRE STATION,-81.40277830,30.33270925,,,,
471,,ATLANTIC BEACH,DUVAL,,,FIRE STATION,-81.40985451,30.37145015,,,,
472,,ATLANTIC BEACH,DUVAL,,,FIRE STATION,-81.41879260,30.36381344,,,,
473,,ATLANTIC BEACH,DUVAL,,,FIRE STATION,-81.41411457,30.38869866,,,,
474,,NEPTUNE BEACH,DUVAL,,,FIRE STATION,-81.39696311,30.32384315,,,,
475,,JACKSONVILLE BEACH,DUVAL,,,FIRE STATION,-81.39547339,30.26711477,,,,
476,,JACKSONVILLE BEACH,DUVAL,,,FIRE STATION,-81.39197446,30.28648684,,,,
477,,PENSACOLA,ESCAMBIA,,,FIRE STATION,-87.24908166,30.42909909,,,,
478,,PENSACOLA,ESCAMBIA,,,FIRE STATION,-87.27765439,30.38887296,,,,
479,,PENSACOLA,ESCAMBIA,,,FIRE STATION,-87.22298981,30.45839582,,,,
480,,PENSACOLA,ESCAMBIA,,,FIRE STATION,-87.19238907,30.49184705,,,,
481,,PENSACOLA,ESCAMBIA,,,FIRE STATION,-87.31156906,30.46636223,,,,
482,,PENSACOLA,ESCAMBIA,,,FIRE STATION,-87.24435392,30.41242601,,,,
483,,PENSACOLA,ESCAMBIA,,,FIRE STATION,-87.19391681,30.47570313,,,,
484,,PENSACOLA,ESCAMBIA,,,FIRE STATION,-87.39425724,30.53633614,,,,
485,,PENSACOLA,ESCAMBIA,,,FIRE STATION,-87.27325688,30.52270567,,,,
486,,PENSACOLA,ESCAMBIA,,,FIRE STATION,-87.23119084,30.42889772,,,,
487,,PENSACOLA,ESCAMBIA,,,FIRE STATION,-87.18153758,30.45800317,,,,
488,,PENSACOLA,ESCAMBIA,,,FIRE STATION,-87.21156809,30.42265081,,,,
489,,PENSACOLA,ESCAMBIA,,,FIRE STATION,-87.28614794,30.44657454,,,,
490,,PENSACOLA,ESCAMBIA,,,FIRE STATION,-87.30693948,30.49015998,,,,
491,,PENSACOLA,ESCAMBIA,,,FIRE STATION,-87.46945883,30.29165601,,,,
492,,PENSACOLA,ESCAMBIA,,,FIRE STATION,-87.40220273,30.39310764,,,,
493,,PENSACOLA,ESCAMBIA,,,FIRE STATION,-87.21238972,30.51690141,,,,
494,,PENSACOLA,ESCAMBIA,,,FIRE STATION,-87.27443041,30.34641443,,,,
495,,PENSACOLA,ESCAMBIA,,,FIRE STATION,-87.27894144,30.39179762,,,,
496,,PENSACOLA,ESCAMBIA,,,FIRE STATION,-87.30868901,30.42068832,,,,
497,,PENSACOLA,ESCAMBIA,,,FIRE STATION,-87.18937835,30.46867300,,,,
498,,PENSACOLA,ESCAMBIA,,,FIRE STATION,-87.25626971,30.47391145,,,,
499,,PENSACOLA,ESCAMBIA,,,FIRE STATION,-87.44091780,30.31596354,,,,
500,,PENSACOLA,ESCAMBIA,,,FIRE STATION,-87.34318624,30.35720465,,,,
501,,MOLINO,ESCAMBIA,,,FIRE STATION,-87.34386617,30.71647667,,,,
502,,MOLINO,ESCAMBIA,,,FIRE STATION,-87.34735733,30.71542441,,,,
503,,GULF BREEZE,ESCAMBIA,,,FIRE STATION,-87.11533171,30.33828593,,,,
504,,CANTONMENT,ESCAMBIA,,,FIRE STATION,-87.32557823,30.61781449,,,,
505,,MC DAVID,ESCAMBIA,,,FIRE STATION,-87.41211503,30.79312077,,,,
506,,MC DAVID,ESCAMBIA,,,FIRE STATION,-87.47836713,30.89983481,,,,
507,,MC DAVID,ESCAMBIA,,,FIRE STATION,-87.32182917,30.86975703,,,,
508,,CENTURY,ESCAMBIA,,,FIRE STATION,-87.27938629,30.95606828,,,,
509,,CENTURY,ESCAMBIA,,,FIRE STATION,-87.31413944,30.97022570,,,,
510,,CENTURY,ESCAMBIA,,,FIRE STATION,-87.42854095,30.96971377,,,,
511,,PALM COAST,FLAGLER,,,FIRE STATION,-81.19567262,29.61672673,,,,
512,,PALM COAST,FLAGLER,,,FIRE STATION,-81.20510462,29.47168352,,,,
513,,PALM COAST,FLAGLER,,,FIRE STATION,-81.22057660,29.58716864,,,,
514,,PALM COAST,FLAGLER,,,FIRE STATION,-81.20560992,29.47178641,,,,
515,,PALM COAST,FLAGLER,,,FIRE STATION,-81.20209264,29.55876337,,,,
516,,PALM COAST,FLAGLER,,,FIRE STATION,-81.26039494,29.58953924,,,,
517,,PALM COAST,FLAGLER,,,FIRE STATION,-81.24554027,29.47341912,,,,
518,,PALM COAST,FLAGLER,,,FIRE STATION,-81.19845484,29.60722478,,,,
519,,PALM COAST,FLAGLER,,,FIRE STATION,-81.24081950,29.55131619,,,,
520,,BUNNELL,FLAGLER,,,FIRE STATION,-81.19469019,29.40371799,,,,
521,,BUNNELL,FLAGLER,,,FIRE STATION,-81.36972305,29.42416721,,,,
522,,BUNNELL,FLAGLER,,,FIRE STATION,-81.21925137,29.49497817,,,,
523,,BUNNELL,FLAGLER,,,FIRE STATION,-81.30866787,29.50653196,,,,
524,,BUNNELL,FLAGLER,,,FIRE STATION,-81.24869812,29.47478193,,,,
525,,ORMOND BEACH,FLAGLER,,,FIRE STATION,-81.22766811,29.26567076,,,,
526,,FLAGLER BEACH,FLAGLER,,,FIRE STATION,-81.12762716,29.47983284,,,,
527,,FLAGLER BEACH,FLAGLER,,,FIRE STATION,-81.12984503,29.47765936,,,,
528,,CARRABELLE,FRANKLIN,,,FIRE STATION,-84.59746714,29.88459434,,,,
529,,CARRABELLE,FRANKLIN,,,FIRE STATION,-84.59125341,29.80444864,,,,
530,,CARRABELLE,FRANKLIN,,,FIRE STATION,-84.66499549,29.85239536,,,,
531,,EASTPOINT,FRANKLIN,,,FIRE STATION,-84.86509355,29.74604888,,,,
532,,EASTPOINT,FRANKLIN,,,FIRE STATION,-84.89523619,29.64847339,,,,
533,,EASTPOINT,FRANKLIN,,,FIRE STATION,-84.85807549,29.66608570,,,,
534,,PANACEA,FRANKLIN,,,FIRE STATION,-84.44162957,29.93142847,,,,
535,,PANACEA,FRANKLIN,,,FIRE STATION,-84.37592491,29.89464232,,,,
536,,APALACHICOLA,FRANKLIN,,,FIRE STATION,-84.98968998,29.72331523,,,,
537,,APALACHICOLA,FRANKLIN,,,FIRE STATION,-84.99330515,29.73318250,,,,
538,,QUINCY,GADSDEN,,,FIRE STATION,-84.61585709,30.43074123,,,,
539,,QUINCY,GADSDEN,,,FIRE STATION,-84.84668314,30.59084059,,,,
540,,QUINCY,GADSDEN,,,FIRE STATION,-84.69390721,30.66263731,,,,
541,,QUINCY,GADSDEN,,,FIRE STATION,-84.58170156,30.58896189,,,,
542,,QUINCY,GADSDEN,,,FIRE STATION,-84.62838100,30.47432085,,,,
543,,QUINCY,GADSDEN,,,FIRE STATION,-84.61466452,30.69000423,,,,
544,,QUINCY,GADSDEN,,,FIRE STATION,-84.74297969,30.56913629,,,,
545,,QUINCY,GADSDEN,,,FIRE STATION,-84.56832406,30.58742098,,,,
546,,MIDWAY,GADSDEN,,,FIRE STATION,-84.45466532,30.50530239,,,,
547,,HAVANA,GADSDEN,,,FIRE STATION,-84.35644123,30.65841677,,,,
548,,HAVANA,GADSDEN,,,FIRE STATION,-84.41388123,30.62585091,,,,
549,,GRETNA,GADSDEN,,,FIRE STATION,-84.65946491,30.61935444,,,,
550,,HIGH SPRINGS,GILCHRIST,,,FIRE STATION,-82.71436559,29.81525795,,,,
551,,BELL,GILCHRIST,,,FIRE STATION,-82.84436112,29.65816873,,,,
552,,BELL,GILCHRIST,,,FIRE STATION,-82.86596273,29.78433674,,,,
553,,TRENTON,GILCHRIST,,,FIRE STATION,-82.68989668,29.63693867,,,,
554,,TRENTON,GILCHRIST,,,FIRE STATION,-82.81787970,29.61007148,,,,
555,,BRANFORD,GILCHRIST,,,FIRE STATION,-82.81682246,29.89148889,,,,
556,,MOORE HAVEN,GLADES,,,FIRE STATION,-81.31673973,26.79941479,,,,
557,,MOORE HAVEN,GLADES,,,FIRE STATION,-81.08556597,26.99266932,,,,
558,,MOORE HAVEN,GLADES,,,FIRE STATION,-81.30857919,26.94330870,,,,
559,,MOORE HAVEN,GLADES,,,FIRE STATION,-81.22814042,26.78469062,,,,
560,,MOORE HAVEN,GLADES,,,FIRE STATION,-81.31408906,26.92650731,,,,
561,,MOORE HAVEN,GLADES,,,FIRE STATION,-81.09364565,26.83601561,,,,
562,,OKEECHOBEE,GLADES,,,FIRE STATION,-81.07695768,27.08184508,,,,
563,,OKEECHOBEE,GLADES,,,FIRE STATION,-80.87746006,27.14430938,,,,
564,,LABELLE,GLADES,,,FIRE STATION,-81.49229174,26.82939420,,,,
565,,WEWAHITCHKA,GULF,,,FIRE STATION,-85.21958569,29.88732491,,,,
566,,WEWAHITCHKA,GULF,,,FIRE STATION,-85.20206985,30.10609902,,,,
567,,WEWAHITCHKA,GULF,,,FIRE STATION,-85.30056536,30.14989789,,,,
568,,WEWAHITCHKA,GULF,,,FIRE STATION,-85.19912626,30.11289904,,,,
569,,WEWAHITCHKA,GULF,,,FIRE STATION,-85.25553228,30.17155983,,,,
570,,WEWAHITCHKA,GULF,,,FIRE STATION,-85.06922368,29.89790220,,,,
571,,WEWAHITCHKA,GULF,,,FIRE STATION,-85.15578487,30.01049351,,,,
572,,PORT SAINT JOE,GULF,,,FIRE STATION,-85.31151144,29.68491766,,,,
573,,PORT SAINT JOE,GULF,,,FIRE STATION,-85.36701426,29.90914185,,,,
574,,PORT SAINT JOE,GULF,,,FIRE STATION,-85.30227444,29.81289814,,,,
575,,PORT SAINT JOE,GULF,,,FIRE STATION,-85.39360684,29.73885380,,,,
576,,PORT SAINT JOE,GULF,,,FIRE STATION,-85.37586916,29.99775990,,,,
577,,PORT SAINT JOE,GULF,,,FIRE STATION,-85.31682967,29.84262112,,,,
578,,JENNINGS,HAMILTON,,,FIRE STATION,-83.09902642,30.60339012,,,,
579,,JENNINGS,HAMILTON,,,FIRE STATION,-83.22343982,30.60120068,,,,
580,,WHITE SPRINGS,HAMILTON,,,FIRE STATION,-82.75785126,30.33002573,,,,
581,,WHITE SPRINGS,HAMILTON,,,FIRE STATION,-82.85786405,30.39400727,,,,
582,,JASPER,HAMILTON,,,FIRE STATION,-82.94945895,30.51824338,,,,
583,,JASPER,HAMILTON,,,FIRE STATION,-83.13323018,30.48872562,,,,
584,,BOWLING GREEN,HARDEE,,,FIRE STATION,-81.82899530,27.63869565,,,,
585,,ZOLFO SPRINGS,HARDEE,,,FIRE STATION,-81.79676129,27.49471127,,,,
586,,WAUCHULA,HARDEE,,,FIRE STATION,-81.81012559,27.55659553,,,,
587,,CLEWISTON,HENDRY,,,FIRE STATION,-80.93492096,26.75341832,,,,
588,,CLEWISTON,HENDRY,,,FIRE STATION,-81.09767830,26.63690147,,,,
589,,CLEWISTON,HENDRY,,,FIRE STATION,-80.99771199,26.32619524,,,,
590,,CLEWISTON,HENDRY,,,FIRE STATION,-81.21929173,26.73727708,,,,
591,,CLEWISTON,HENDRY,,,FIRE STATION,-80.99482854,26.31977115,,,,
592,,CLEWISTON,HENDRY,,,FIRE STATION,-80.90573943,26.30170637,,,,
593,,LABELLE,HENDRY,,,FIRE STATION,-81.43863112,26.75713805,,,,
594,,LABELLE,HENDRY,,,FIRE STATION,-81.41752906,26.54375186,,,,
595,,SPRING HILL,HERNANDO,,,FIRE STATION,-82.62068065,28.45853162,,,,
596,,SPRING HILL,HERNANDO,,,FIRE STATION,-82.62082809,28.45804339,,,,
597,,SPRING HILL,HERNANDO,,,FIRE STATION,-82.56504181,28.45290802,,,,
598,,SPRING HILL,HERNANDO,,,FIRE STATION,-82.49123735,28.52487591,,,,
599,,SPRING HILL,HERNANDO,,,FIRE STATION,-82.50659220,28.46857580,,,,
600,,SPRING HILL,HERNANDO,,,FIRE STATION,-82.52620086,28.50229686,,,,
601,,SPRING HILL,HERNANDO,,,FIRE STATION,-82.65073161,28.48540618,,,,
602,,SPRING HILL,HERNANDO,,,FIRE STATION,-82.57569318,28.48564558,,,,
603,,BROOKSVILLE,HERNANDO,,,FIRE STATION,-82.26542324,28.64558156,,,,
604,,BROOKSVILLE,HERNANDO,,,FIRE STATION,-82.30032415,28.54320769,,,,
605,,BROOKSVILLE,HERNANDO,,,FIRE STATION,-82.47364270,28.61372334,,,,
606,,BROOKSVILLE,HERNANDO,,,FIRE STATION,-82.40077792,28.55418348,,,,
607,,BROOKSVILLE,HERNANDO,,,FIRE STATION,-82.40060817,28.55443685,,,,
608,,BROOKSVILLE,HERNANDO,,,FIRE STATION,-82.52527618,28.54181965,,,,
609,,BROOKSVILLE,HERNANDO,,,FIRE STATION,-82.56223499,28.52307258,,,,
610,,BROOKSVILLE,HERNANDO,,,FIRE STATION,-82.39947888,28.55281136,,,,
611,,BROOKSVILLE,HERNANDO,,,FIRE STATION,-82.43957772,28.47476376,,,,
612,,BROOKSVILLE,HERNANDO,,,FIRE STATION,-82.33790483,28.63693266,,,,
613,,WEBSTER,HERNANDO,,,FIRE STATION,-82.20641456,28.51760575,,,,
614,,WEEKI WACHEE,HERNANDO,,,FIRE STATION,-82.61659118,28.53566273,,,,
615,,SEBRING,HIGHLANDS,,,FIRE STATION,-81.43990402,27.49677298,,,,
616,,SEBRING,HIGHLANDS,,,FIRE STATION,-81.51844479,27.53412560,,,,
617,,SEBRING,HIGHLANDS,,,FIRE STATION,-81.41972384,27.50112293,,,,
618,,SEBRING,HIGHLANDS,,,FIRE STATION,-81.42695673,27.38705883,,,,
619,,SEBRING,HIGHLANDS,,,FIRE STATION,-81.49921738,27.47042664,,,,
620,,SEBRING,HIGHLANDS,,,FIRE STATION,-81.48783257,27.51612872,,,,
621,,SEBRING,HIGHLANDS,,,FIRE STATION,-81.47005427,27.47360791,,,,
622,,SEBRING,HIGHLANDS,,,FIRE STATION,-81.48782513,27.51617606,,,,
623,,SEBRING,HIGHLANDS,,,FIRE STATION,-81.43186979,27.50088143,,,,
624,,SEBRING,HIGHLANDS,,,FIRE STATION,-81.41956464,27.47160160,,,,
625,,SEBRING,HIGHLANDS,,,FIRE STATION,-81.42187881,27.43762847,,,,
626,,SEBRING,HIGHLANDS,,,FIRE STATION,-81.34584403,27.45718311,,,,
627,,SEBRING,HIGHLANDS,,,FIRE STATION,,,,,,
628,,LAKE PLACID,HIGHLANDS,,,FIRE STATION,-81.42027633,27.32503679,,,,
629,,LAKE PLACID,HIGHLANDS,,,FIRE STATION,-81.36728937,27.29706766,,,,
630,,LAKE PLACID,HIGHLANDS,,,FIRE STATION,-81.32512442,27.25167340,,,,
631,,LAKE PLACID,HIGHLANDS,,,FIRE STATION,-81.32400018,27.31337174,,,,
632,,LAKE PLACID,HIGHLANDS,,,FIRE STATION,-81.32333419,27.29983054,,,,
633,,LAKE PLACID,HIGHLANDS,,,FIRE STATION,-81.30899506,27.22631844,,,,
634,,AVON PARK,HIGHLANDS,,,FIRE STATION,-81.45725237,27.59582876,,,,
635,,AVON PARK,HIGHLANDS,,,FIRE STATION,-81.49845981,27.59492425,,,,
636,,AVON PARK,HIGHLANDS,,,FIRE STATION,-81.52295739,27.63778371,,,,
637,,LORIDA,HIGHLANDS,,,FIRE STATION,-81.04578696,27.35719650,,,,
638,,LORIDA,HIGHLANDS,,,FIRE STATION,-81.26138413,27.44807214,,,,
639,,VENUS,HIGHLANDS,,,FIRE STATION,-81.39259451,27.07393566,,,,
640,,RUSKIN,HILLSBOROUGH,,,FIRE STATION,-82.42869504,27.71351725,,,,
641,,TAMPA,HILLSBOROUGH,,,FIRE STATION,-82.39790534,27.96340572,,,,
642,,TAMPA,HILLSBOROUGH,,,FIRE STATION,-82.45017551,27.92158197,,,,
643,,TAMPA,HILLSBOROUGH,,,FIRE STATION,-82.50455513,28.06716709,,,,
644,,TAMPA,HILLSBOROUGH,,,FIRE STATION,-82.43513243,27.96337674,,,,
645,,TAMPA,HILLSBOROUGH,,,FIRE STATION,-82.43492770,27.94675037,,,,
646,,TAMPA,HILLSBOROUGH,,,FIRE STATION,-82.33604058,27.94148447,,,,
647,,TAMPA,HILLSBOROUGH,,,FIRE STATION,-82.42770739,28.03584444,,,,
648,,TAMPA,HILLSBOROUGH,,,FIRE STATION,-82.54946810,28.04181715,,,,
649,,TAMPA,HILLSBOROUGH,,,FIRE STATION,-82.39031389,27.94203082,,,,
650,,TAMPA,HILLSBOROUGH,,,FIRE STATION,-82.45558194,27.98032535,,,,
651,,TAMPA,HILLSBOROUGH,,,FIRE STATION,-82.42683038,27.99866021,,,,
652,,TAMPA,HILLSBOROUGH,,,FIRE STATION,-82.50519438,28.09811407,,,,
653,,TAMPA,HILLSBOROUGH,,,FIRE STATION,-82.42254316,27.97169925,,,,
654,,TAMPA,HILLSBOROUGH,,,FIRE STATION,-82.47460000,28.02468000,,,,
655,,TAMPA,HILLSBOROUGH,,,FIRE STATION,-82.39088524,28.10621292,,,,
656,,TAMPA,HILLSBOROUGH,,,FIRE STATION,-82.53430744,27.97432422,,,,
657,,TAMPA,HILLSBOROUGH,,,FIRE STATION,-82.49199214,27.85283935,,,,
658,,TAMPA,HILLSBOROUGH,,,FIRE STATION,-82.36966132,28.06310104,,,,
659,,TAMPA,HILLSBOROUGH,,,FIRE STATION,-82.58457842,27.99971176,,,,
660,,TAMPA,HILLSBOROUGH,,,FIRE STATION,-82.50929668,28.02796175,,,,
661,,TAMPA,HILLSBOROUGH,,,FIRE STATION,-82.39072691,27.98980214,,,,
662,,TAMPA,HILLSBOROUGH,,,FIRE STATION,-82.55955061,27.99496631,,,,
663,,TAMPA,HILLSBOROUGH,,,FIRE STATION,-82.36832862,27.91816043,,,,
664,,TAMPA,HILLSBOROUGH,,,FIRE STATION,-82.51759001,27.96053175,,,,
665,,TAMPA,HILLSBOROUGH,,,FIRE STATION,-82.45105528,28.00265900,,,,
666,,TAMPA,HILLSBOROUGH,,,FIRE STATION,-82.39226624,28.03302311,,,,
667,,TAMPA,HILLSBOROUGH,,,FIRE STATION,-82.44798087,28.07350123,,,,
668,,TAMPA,HILLSBOROUGH,,,FIRE STATION,-82.34776719,28.14161538,,,,
669,,TAMPA,HILLSBOROUGH,,,FIRE STATION,-82.49220128,27.99662473,,,,
670,,TAMPA,HILLSBOROUGH,,,FIRE STATION,-82.50818929,27.93048739,,,,
671,,TAMPA,HILLSBOROUGH,,,FIRE STATION,-82.47205633,27.94429074,,,,
672,,TAMPA,HILLSBOROUGH,,,FIRE STATION,-82.42331939,28.07061780,,,,
673,,TAMPA,HILLSBOROUGH,,,FIRE STATION,-82.50239492,27.89295430,,,,
674,,TAMPA,HILLSBOROUGH,,,FIRE STATION,-82.47305303,27.83290318,,,,
675,,TAMPA,HILLSBOROUGH,,,FIRE STATION,-82.61056662,28.01785379,,,,
676,,TAMPA,HILLSBOROUGH,,,FIRE STATION,-82.45448474,27.95174063,,,,
677,,TAMPA,HILLSBOROUGH,,,FIRE STATION,-82.58244355,28.03755462,,,,
678,,TAMPA,HILLSBOROUGH,,,FIRE STATION,-82.57043333,28.07554960,,,,
679,,TAMPA,HILLSBOROUGH,,,FIRE STATION,-82.33462369,27.97338311,,,,
680,,TAMPA,HILLSBOROUGH,,,FIRE STATION,-82.49425627,27.85351935,,,,
681,,TAMPA,HILLSBOROUGH,,,FIRE STATION,-82.53770543,28.08526864,,,,
682,,TAMPA,HILLSBOROUGH,,,FIRE STATION,-82.62443887,28.05270765,,,,
683,,TAMPA,HILLSBOROUGH,,,FIRE STATION,-82.48677269,27.95893555,,,,
684,,TAMPA,HILLSBOROUGH,,,FIRE STATION,-82.44490524,28.06583621,,,,
685,,LITHIA,HILLSBOROUGH,,,FIRE STATION,-82.17376336,27.84972697,,,,
686,,GIBSONTON,HILLSBOROUGH,,,FIRE STATION,-82.35709307,27.85011732,,,,
687,,WIMAUMA,HILLSBOROUGH,,,FIRE STATION,-82.38468339,27.65720544,,,,
688,,WIMAUMA,HILLSBOROUGH,,,FIRE STATION,-82.30490719,27.70656652,,,,
689,,SUN CITY CENTER,HILLSBOROUGH,,,FIRE STATION,-82.34681426,27.71171973,,,,
690,,BRANDON,HILLSBOROUGH,,,FIRE STATION,-82.28761539,27.89392380,,,,
691,,BRANDON,HILLSBOROUGH,,,FIRE STATION,-82.27525353,27.93903480,,,,
692,,APOLLO BEACH,HILLSBOROUGH,,,FIRE STATION,-82.40966501,27.76519037,,,,
693,,RIVERVIEW,HILLSBOROUGH,,,FIRE STATION,-82.32823301,27.79159650,,,,
694,,RIVERVIEW,HILLSBOROUGH,,,FIRE STATION,-82.32367222,27.86253735,,,,
695,,RIVERVIEW,HILLSBOROUGH,,,FIRE STATION,-82.31809347,27.89683025,,,,
696,,PLANT CITY,HILLSBOROUGH,,,FIRE STATION,-82.13786850,28.02167627,,,,
697,,PLANT CITY,HILLSBOROUGH,,,FIRE STATION,-82.07994039,27.98291982,,,,
698,,PLANT CITY,HILLSBOROUGH,,,FIRE STATION,-82.07207643,28.03859196,,,,
699,,PLANT CITY,HILLSBOROUGH,,,FIRE STATION,-82.11704232,27.98949599,,,,
700,,PLANT CITY,HILLSBOROUGH,,,FIRE STATION,-82.18886652,28.04729221,,,,
701,,SEFFNER,HILLSBOROUGH,,,FIRE STATION,-82.29735520,28.00318511,,,,
702,,SEFFNER,HILLSBOROUGH,,,FIRE STATION,-82.27725671,27.96625759,,,,
703,,LUTZ,HILLSBOROUGH,,,FIRE STATION,-82.54595985,28.12879660,,,,
704,,LUTZ,HILLSBOROUGH,,,FIRE STATION,-82.46337428,28.15131986,,,,
705,,LUTZ,HILLSBOROUGH,,,FIRE STATION,-82.45599839,28.10217172,,,,
706,, ,HILLSBOROUGH,,,FIRE STATION,-82.51829000,27.86524000,,,,
707,,VALRICO,HILLSBOROUGH,,,FIRE STATION,-82.21996954,27.93931210,,,,
708,,VALRICO,HILLSBOROUGH,,,FIRE STATION,-82.21846408,27.89343441,,,,
709,,THONOTOSASSA,HILLSBOROUGH,,,FIRE STATION,-82.29613139,28.05700523,,,,
710,,DOVER,HILLSBOROUGH,,,FIRE STATION,-82.20764412,27.99377096,,,,
711,,WESTVILLE,HOLMES,,,FIRE STATION,-85.95609736,30.90183445,,,,
712,,WESTVILLE,HOLMES,,,FIRE STATION,-85.85134891,30.77444602,,,,
713,,WESTVILLE,HOLMES,,,FIRE STATION,-85.87681756,30.95261882,,,,
714,,BONIFAY,HOLMES,,,FIRE STATION,-85.61971975,30.98063211,,,,
715,,BONIFAY,HOLMES,,,FIRE STATION,-85.80975409,30.94053962,,,,
716,,BONIFAY,HOLMES,,,FIRE STATION,-85.64607185,30.98465244,,,,
717,,BONIFAY,HOLMES,,,FIRE STATION,-85.68026492,30.78488726,,,,
718,,CARYVILLE,HOLMES,,,FIRE STATION,-85.84036079,30.86598127,,,,
719,,Ponce de Leon,HOLMES,,,FIRE STATION,-85.96852416,30.71976680,,,,
720,,PONCE DE LEON,HOLMES,,,FIRE STATION,-85.95037595,30.72193881,,,,
721,,SEBASTIAN,INDIAN RIVER,,,FIRE STATION,-80.48852064,27.83794960,,,,
722,,SEBASTIAN,INDIAN RIVER,,,FIRE STATION,-80.49265449,27.83097156,,,,
723,,SEBASTIAN,INDIAN RIVER,,,FIRE STATION,-80.48686500,27.77806203,,,,
724,,VERO BEACH,INDIAN RIVER,,,FIRE STATION,-80.37011524,27.65222747,,,,
725,,VERO BEACH,INDIAN RIVER,,,FIRE STATION,-80.39559156,27.62960787,,,,
726,,VERO BEACH,INDIAN RIVER,,,FIRE STATION,-80.52057417,27.74313757,,,,
727,,VERO BEACH,INDIAN RIVER,,,FIRE STATION,-80.40133693,27.58773286,,,,
728,,VERO BEACH,INDIAN RIVER,,,FIRE STATION,-80.40829357,27.76298104,,,,
729,,VERO BEACH,INDIAN RIVER,,,FIRE STATION,-80.42025683,27.71275242,,,,
730,,VERO BEACH,INDIAN RIVER,,,FIRE STATION,-80.33962120,27.60280361,,,,
731,,VERO BEACH,INDIAN RIVER,,,FIRE STATION,-80.40301114,27.64729123,,,,
732,,VERO BEACH,INDIAN RIVER,,,FIRE STATION,-80.49635121,27.62475638,,,,
733,,VERO BEACH,INDIAN RIVER,,,FIRE STATION,-80.42215426,27.68326004,,,,
734,,VERO BEACH,INDIAN RIVER,,,FIRE STATION,-80.37293387,27.69175056,,,,
735,,VERO BEACH,INDIAN RIVER,,,FIRE STATION,-80.42940474,27.64948042,,,,
736,,FELLSMERE,INDIAN RIVER,,,FIRE STATION,-80.60153494,27.77018292,,,,
737,,CAMPBELLTON,JACKSON,,,FIRE STATION,-85.40156434,30.95048234,,,,
738,,CAMPBELLTON,JACKSON,,,FIRE STATION,,,,,,
739,,COTTONDALE,JACKSON,,,FIRE STATION,-85.37562019,30.79565723,,,,
740,,ALFORD,JACKSON,,,FIRE STATION,-85.39242857,30.69423239,,,,
741,,ALFORD,JACKSON,,,FIRE STATION,-85.39242857,30.69423239,,,,
742,,ALFORD,JACKSON,,,FIRE STATION,-85.34285021,30.62021224,,,,
743,,SNEADS,JACKSON,,,FIRE STATION,,,,,,
744,,SNEADS,JACKSON,,,FIRE STATION,-84.91956619,30.71068576,,,,
745,,MARIANNA,JACKSON,,,FIRE STATION,-85.06174180,30.81440255,,,,
746,,MARIANNA,JACKSON,,,FIRE STATION,-85.17078923,30.82344910,,,,
747,,MARIANNA,JACKSON,,,FIRE STATION,-85.26429298,30.75739609,,,,
748,,MARIANNA,JACKSON,,,FIRE STATION,-85.22712170,30.77576394,,,,
749,,Grand Ridge,JACKSON,,,FIRE STATION,-85.01969776,30.71464493,,,,
750,,MALONE,JACKSON,,,FIRE STATION,-85.16118599,30.95596282,,,,
751,,GRACEVILLE,JACKSON,,,FIRE STATION,-85.51501481,30.95589891,,,,
752,,MONTICELLO,JEFFERSON,,,FIRE STATION,-83.87053304,30.55562812,,,,
753,,MONTICELLO,JEFFERSON,,,FIRE STATION,-83.98636410,30.35901940,,,,
754,,MONTICELLO,JEFFERSON,,,FIRE STATION,-83.86954590,30.52963153,,,,
755,,TALLAHASSEE,JEFFERSON,,,FIRE STATION,-84.02123880,30.47790576,,,,
756,,GREENVILLE,JEFFERSON,,,FIRE STATION,-83.69905768,30.59579911,,,,
757,,BRANFORD,LAFAYETTE,,,FIRE STATION,-82.91761494,29.84583537,,,,
758,,MAYO,LAFAYETTE,,,FIRE STATION,-83.16554716,30.05243458,,,,
759,,FRUITLAND PARK,LAKE,,,FIRE STATION,-81.91165631,28.87638163,,,,
760,,FRUITLAND PARK,LAKE,,,FIRE STATION,-81.91274399,28.85874518,,,,
761,,LADY LAKE,LAKE,,,FIRE STATION,-81.95137416,28.94849414,,,,
762,,LADY LAKE,LAKE,,,FIRE STATION,-81.92560352,28.91952071,,,,
763,,LADY LAKE,LAKE,,,FIRE STATION,-81.85196091,28.93282639,,,,
764,,CLERMONT,LAKE,,,FIRE STATION,-81.79798451,28.60026950,,,,
765,,CLERMONT,LAKE,,,FIRE STATION,-81.76290226,28.51601405,,,,
766,,CLERMONT,LAKE,,,FIRE STATION,-81.68499537,28.54725056,,,,
767,,CLERMONT,LAKE,,,FIRE STATION,-81.71530093,28.50007247,,,,
768,,CLERMONT,LAKE,,,FIRE STATION,-81.68554049,28.36957595,,,,
769,,CLERMONT,LAKE,,,FIRE STATION,-81.70131933,28.62381324,,,,
770,,CLERMONT,LAKE,,,FIRE STATION,-81.74816987,28.57050390,,,,
771,,CLERMONT,LAKE,,,FIRE STATION,-81.71437625,28.54871390,,,,
772,,CLERMONT,LAKE,,,FIRE STATION,-81.76230396,28.55091691,,,,
773,,CLERMONT,LAKE,,,FIRE STATION,-81.80217188,28.43788132,,,,
774,,EUSTIS,LAKE,,,FIRE STATION,-81.68697874,28.84524843,,,,
775,,EUSTIS,LAKE,,,FIRE STATION,-81.54097183,28.87638398,,,,
776,,EUSTIS,LAKE,,,FIRE STATION,-81.43052770,28.93944548,,,,
777,,ASTATULA,LAKE,,,FIRE STATION,-81.73381514,28.71084863,,,,
778,,TAVARES,LAKE,,,FIRE STATION,-81.74563196,28.77235543,,,,
779,,TAVARES,LAKE,,,FIRE STATION,-81.72346275,28.80372026,,,,
780,,MOUNT DORA,LAKE,,,FIRE STATION,-81.63331659,28.84743103,,,,
781,,MOUNT DORA,LAKE,,,FIRE STATION,-81.68559668,28.74765984,,,,
782,,MOUNT DORA,LAKE,,,FIRE STATION,-81.68238517,28.81540744,,,,
783,,MOUNT DORA,LAKE,,,FIRE STATION,-81.64429998,28.80816212,,,,
784,,LEESBURG,LAKE,,,FIRE STATION,-81.93331660,28.82909596,,,,
785,,LEESBURG,LAKE,,,FIRE STATION,-81.80240362,28.82584769,,,,
786,,LEESBURG,LAKE,,,FIRE STATION,-81.89530517,28.82895310,,,,
787,,LEESBURG,LAKE,,,FIRE STATION,-81.76913584,28.84166868,,,,
788,,LEESBURG,LAKE,,,FIRE STATION,-81.83576619,28.80783407,,,,
789,,LEESBURG,LAKE,,,FIRE STATION,-81.75087682,28.87442124,,,,
790,,LEESBURG,LAKE,,,FIRE STATION,-81.86065628,28.71063946,,,,
791,,LEESBURG,LAKE,,,FIRE STATION,-81.87402177,28.81007242,,,,
792,,ALTOONA,LAKE,,,FIRE STATION,-81.64680715,28.97041864,,,,
793,,ALTOONA,LAKE,,,FIRE STATION,-81.63953126,29.04165174,,,,
794,,GROVELAND,LAKE,,,FIRE STATION,-81.90580193,28.47464260,,,,
795,,GROVELAND,LAKE,,,FIRE STATION,-81.85957818,28.56146571,,,,
796,,ASTOR,LAKE,,,FIRE STATION,-81.55841585,29.15811264,,,,
797,,UMATILLA,LAKE,,,FIRE STATION,-81.66752957,28.92664279,,,,
798,,UMATILLA,LAKE,,,FIRE STATION,-81.67320986,28.91398628,,,,
799,,UMATILLA,LAKE,,,FIRE STATION,-81.68763367,28.89776173,,,,
800,,MASCOTTE,LAKE,,,FIRE STATION,-81.88084678,28.57222154,,,,
801,,PAISLEY,LAKE,,,FIRE STATION,-81.53759276,28.99623811,,,,
802,,OKAHUMPKA,LAKE,,,FIRE STATION,-81.89242810,28.74105706,,,,
803,,YALAHA,LAKE,,,FIRE STATION,-81.80790195,28.74305212,,,,
804,,SORRENTO,LAKE,,,FIRE STATION,-81.53621076,28.80752718,,,,
805,,SANIBEL,LEE,,,FIRE STATION,-82.07793780,26.43777804,,,,
806,,SANIBEL,LEE,,,FIRE STATION,-82.15226720,26.46543152,,,,
807,,FORT MYERS,LEE,,,FIRE STATION,-81.87050744,26.56413740,,,,
808,,FORT MYERS,LEE,,,FIRE STATION,-81.75865388,26.53761256,,,,
809,,FORT MYERS,LEE,,,FIRE STATION,-81.86414660,26.59090344,,,,
810,,FORT MYERS,LEE,,,FIRE STATION,-81.84043128,26.60982515,,,,
811,,FORT MYERS,LEE,,,FIRE STATION,-81.93621038,26.51392857,,,,
812,,FORT MYERS,LEE,,,FIRE STATION,-81.78613089,26.60276894,,,,
813,,FORT MYERS,LEE,,,FIRE STATION,-81.86513260,26.64057832,,,,
814,,FORT MYERS,LEE,,,FIRE STATION,-81.82120307,26.64236496,,,,
815,,FORT MYERS,LEE,,,FIRE STATION,-81.89849490,26.51026468,,,,
816,,FORT MYERS,LEE,,,FIRE STATION,-81.96309409,26.50241242,,,,
817,,FORT MYERS,LEE,,,FIRE STATION,-81.75237155,26.70302374,,,,
818,,FORT MYERS,LEE,,,FIRE STATION,-81.84424454,26.65759064,,,,
819,,FORT MYERS,LEE,,,FIRE STATION,-81.86192624,26.53128510,,,,
820,,FORT MYERS,LEE,,,FIRE STATION,-81.78047096,26.45754898,,,,
821,,FORT MYERS,LEE,,,FIRE STATION,-81.87341354,26.60735123,,,,
822,,FORT MYERS,LEE,,,FIRE STATION,-81.89893005,26.57470009,,,,
823,,FORT MYERS,LEE,,,FIRE STATION,-81.80253735,26.67205614,,,,
824,,FORT MYERS,LEE,,,FIRE STATION,-81.82330945,26.46820999,,,,
825,,FORT MYERS,LEE,,,FIRE STATION,-81.90480693,26.55483703,,,,
826,,FORT MYERS,LEE,,,FIRE STATION,-81.81717839,26.54635107,,,,
827,,FORT MYERS,LEE,,,FIRE STATION,-81.75777596,26.55499242,,,,
828,,FORT MYERS,LEE,,,FIRE STATION,-81.85799356,26.49780585,,,,
829,,FORT MYERS,LEE,,,FIRE STATION,-81.73194337,26.65868392,,,,
830,,CAPE CORAL,LEE,,,FIRE STATION,-81.97372153,26.61473533,,,,
831,,CAPE CORAL,LEE,,,FIRE STATION,-81.98924676,26.65064644,,,,
832,,CAPE CORAL,LEE,,,FIRE STATION,-81.98198555,26.57612274,,,,
833,,CAPE CORAL,LEE,,,FIRE STATION,-81.95938391,26.63016585,,,,
834,,CAPE CORAL,LEE,,,FIRE STATION,-82.03970495,26.73309090,,,,
835,,CAPE CORAL,LEE,,,FIRE STATION,-82.00724801,26.56649337,,,,
836,,CAPE CORAL,LEE,,,FIRE STATION,-81.94898033,26.72476334,,,,
837,,CAPE CORAL,LEE,,,FIRE STATION,-81.93911926,26.60689005,,,,
838,,CAPE CORAL,LEE,,,FIRE STATION,-81.95138156,26.68316746,,,,
839,,CAPE CORAL,LEE,,,FIRE STATION,-81.95838281,26.56660588,,,,
840,,NORTH FORT MYERS,LEE,,,FIRE STATION,-81.85238033,26.70100819,,,,
841,,NORTH FORT MYERS,LEE,,,FIRE STATION,-81.90951181,26.73496761,,,,
842,,NORTH FORT MYERS,LEE,,,FIRE STATION,-81.87920623,26.66889871,,,,
843,,NORTH FORT MYERS,LEE,,,FIRE STATION,-81.90984444,26.67128890,,,,
844,,NORTH FORT MYERS,LEE,,,FIRE STATION,-81.80112988,26.71653989,,,,
845,,LEHIGH ACRES,LEE,,,FIRE STATION,-81.60426912,26.56278244,,,,
846,,LEHIGH ACRES,LEE,,,FIRE STATION,-81.59778174,26.63684493,,,,
847,,LEHIGH ACRES,LEE,,,FIRE STATION,-81.63993782,26.59835674,,,,
848,,LEHIGH ACRES,LEE,,,FIRE STATION,-81.67960311,26.59874280,,,,
849,,LEHIGH ACRES,LEE,,,FIRE STATION,-81.71443518,26.60902093,,,,
850,,FORT MYERS BEACH,LEE,,,FIRE STATION,-81.94797338,26.48160224,,,,
851,,FORT MYERS BEACH,LEE,,,FIRE STATION,-81.93528556,26.44523628,,,,
852,,FORT MYERS BEACH,LEE,,,FIRE STATION,-81.89984961,26.41555882,,,,
853,,ESTERO,LEE,,,FIRE STATION,-81.75800027,26.44027243,,,,
854,,ESTERO,LEE,,,FIRE STATION,-81.81039659,26.43728701,,,,
855,,ESTERO,LEE,,,FIRE STATION,-81.78886493,26.42592055,,,,
856,,ESTERO,LEE,,,FIRE STATION,-81.81014989,26.41145955,,,,
857,,BONITA SPRINGS,LEE,,,FIRE STATION,-81.80379660,26.34668785,,,,
858,,BONITA SPRINGS,LEE,,,FIRE STATION,-81.80703500,26.37582486,,,,
859,,BONITA SPRINGS,LEE,,,FIRE STATION,-81.77935264,26.33799429,,,,
860,,BONITA SPRINGS,LEE,,,FIRE STATION,-81.73742297,26.33580170,,,,
861,,BONITA SPRINGS,LEE,,,FIRE STATION,-81.81645288,26.32973602,,,,
862,,BOKEELIA,LEE,,,FIRE STATION,-82.21243003,26.66163072,,,,
863,,BOKEELIA,LEE,,,FIRE STATION,-82.14970291,26.67730666,,,,
864,,BOKEELIA,LEE,,,FIRE STATION,-82.11985740,26.61390219,,,,
865,,ALVA,LEE,,,FIRE STATION,-81.60755189,26.70618246,,,,
866,,CAPTIVA,LEE,,,FIRE STATION,-82.22043553,26.60125039,,,,
867,,CAPTIVA,LEE,,,FIRE STATION,-82.18942052,26.52275266,,,,
868,,SAINT JAMES CITY,LEE,,,FIRE STATION,-82.08858566,26.53298528,,,,
869,,BOCA GRANDE,LEE,,,FIRE STATION,-82.26092070,26.74991252,,,,
870,,BOCA GRANDE,LEE,,,FIRE STATION,-82.24627492,26.68605975,,,,
871,,TALLAHASSEE,LEON,,,FIRE STATION,-84.22285822,30.51236692,,,,
872,,TALLAHASSEE,LEON,,,FIRE STATION,-84.25427563,30.49243952,,,,
873,,TALLAHASSEE,LEON,,,FIRE STATION,-84.53948700,30.42345600,,,,
874,,TALLAHASSEE,LEON,,,FIRE STATION,-84.53948700,30.42345600,,,,
875,,TALLAHASSEE,LEON,,,FIRE STATION,-84.25331219,30.58685314,,,,
876,,TALLAHASSEE,LEON,,,FIRE STATION,-84.25331219,30.58685314,,,,
877,,TALLAHASSEE,LEON,,,FIRE STATION,-84.35547724,30.39649233,,,,
878,,TALLAHASSEE,LEON,,,FIRE STATION,-84.12531834,30.43870998,,,,
879,,TALLAHASSEE,LEON,,,FIRE STATION,-84.12531834,30.43870998,,,,
880,,TALLAHASSEE,LEON,,,FIRE STATION,-84.23050371,30.42627883,,,,
881,,TALLAHASSEE,LEON,,,FIRE STATION,-84.37613913,30.54839516,,,,
882,,TALLAHASSEE,LEON,,,FIRE STATION,-84.28156075,30.44558711,,,,
883,,TALLAHASSEE,LEON,,,FIRE STATION,-84.20894154,30.65627534,,,,
884,,TALLAHASSEE,LEON,,,FIRE STATION,-84.42350503,30.30569303,,,,
885,,TALLAHASSEE,LEON,,,FIRE STATION,-84.12979902,30.37690156,,,,
886,,TALLAHASSEE,LEON,,,FIRE STATION,-84.33742799,30.44062925,,,,
887,,TALLAHASSEE,LEON,,,FIRE STATION,-84.32855169,30.47333771,,,,
888,,TALLAHASSEE,LEON,,,FIRE STATION,-84.14879612,30.56183801,,,,
889,,TALLAHASSEE,LEON,,,FIRE STATION,-84.14879612,30.56183801,,,,
890,,TALLAHASSEE,LEON,,,FIRE STATION,-84.36494728,30.52843726,,,,
891,,TALLAHASSEE,LEON,,,FIRE STATION,-84.36494728,30.52843726,,,,
892,,TALLAHASSEE,LEON,,,FIRE STATION,-84.27983532,30.40708002,,,,
893,,TALLAHASSEE,LEON,,,FIRE STATION,-84.22295920,30.45155998,,,,
894,,TALLAHASSEE,LEON,,,FIRE STATION,-84.25309477,30.32108197,,,,
895,,TALLAHASSEE,LEON,,,FIRE STATION,-84.29620518,30.47852023,,,,
896,,TALLAHASSEE,LEON,,,FIRE STATION,-84.33711554,30.44027602,,,,
897,,TALLAHASSE,LEON,,,FIRE STATION,-84.22164457,30.45070660,,,,
898,,TALLAHASSE,LEON,,,FIRE STATION,-84.64086382,30.36977356,,,,
899,,INGLIS,LEVY,,,FIRE STATION,-82.72653537,29.25084691,,,,
900,,INGLIS,LEVY,,,FIRE STATION,-82.67340723,29.03258882,,,,
901,,YANKEETOWN,LEVY,,,FIRE STATION,-82.71698863,29.02948178,,,,
902,,CEDAR KEY,LEVY,,,FIRE STATION,-82.93766002,29.23565275,,,,
903,,CEDAR KEY,LEVY,,,FIRE STATION,-83.03189709,29.13612043,,,,
904,,CHIEFLAND,LEVY,,,FIRE STATION,-82.85893076,29.47915881,,,,
905,,CHIEFLAND,LEVY,,,FIRE STATION,-83.02215112,29.39513208,,,,
906,,WILLISTON,LEVY,,,FIRE STATION,-82.44718109,29.38557682,,,,
907,,MORRISTON,LEVY,,,FIRE STATION,-82.53480023,29.29222968,,,,
908,,MORRISTON,LEVY,,,FIRE STATION,-82.44131232,29.28234437,,,,
909,,BRONSON,LEVY,,,FIRE STATION,-82.63346685,29.44304961,,,,
910,,OTTER CREEK,LEVY,,,FIRE STATION,-82.77343689,29.32184561,,,,
911,,FANNING SPRINGS,LEVY,,,FIRE STATION,-82.92374646,29.58527029,,,,
912,,BRISTOL,LIBERTY,,,FIRE STATION,-84.90761844,30.54006840,,,,
913,,BRISTOL,LIBERTY,,,FIRE STATION,-84.98004573,30.43309993,,,,
914,,BRISTOL,LIBERTY,,,FIRE STATION,-85.03563462,30.30904196,,,,
915,,HOSFORD,LIBERTY,,,FIRE STATION,-84.97868919,30.02057425,,,,
916,,HOSFORD,LIBERTY,,,FIRE STATION,-84.79884230,30.38573498,,,,
917,,MADISON,MADISON,,,FIRE STATION,-83.41362350,30.46721147,,,,
918,,MADISON,MADISON,,,FIRE STATION,-83.52757254,30.35103510,,,,
919,,MADISON,MADISON,,,FIRE STATION,-83.40469645,30.61556580,,,,
920,,GREENVILLE,MADISON,,,FIRE STATION,-83.56514121,30.56708061,,,,
921,,GREENVILLE,MADISON,,,FIRE STATION,-83.65287271,30.35381887,,,,
922,,GREENVILLE,MADISON,,,FIRE STATION,-83.63439616,30.46580921,,,,
923,,PINETTA,MADISON,,,FIRE STATION,-83.35402339,30.59518910,,,,
924,,LEE,MADISON,,,FIRE STATION,-83.29981626,30.42301653,,,,
925,,LEE,MADISON,,,FIRE STATION,-83.32464356,30.34806071,,,,
926,,BRADENTON,MANATEE,,,FIRE STATION,-82.61998400,27.47514602,,,,
927,,BRADENTON,MANATEE,,,FIRE STATION,-82.39148229,27.43596454,,,,
928,,BRADENTON,MANATEE,,,FIRE STATION,-82.62923958,27.44839703,,,,
929,,BRADENTON,MANATEE,,,FIRE STATION,-82.46285998,27.41040128,,,,
930,,BRADENTON,MANATEE,,,FIRE STATION,-82.17416707,27.58499345,,,,
931,,BRADENTON,MANATEE,,,FIRE STATION,-82.57218442,27.49239582,,,,
932,,BRADENTON,MANATEE,,,FIRE STATION,-82.57100347,27.46818800,,,,
933,,BRADENTON,MANATEE,,,FIRE STATION,-82.48485361,27.49137131,,,,
934,,BRADENTON,MANATEE,,,FIRE STATION,-82.58799448,27.44876782,,,,
935,,BRADENTON,MANATEE,,,FIRE STATION,-82.43284223,27.47067543,,,,
936,,BRADENTON,MANATEE,,,FIRE STATION,-82.44766567,27.43699534,,,,
937,,BRADENTON,MANATEE,,,FIRE STATION,-82.66485680,27.46231417,,,,
938,,BRADENTON,MANATEE,,,FIRE STATION,-82.43895990,27.39062604,,,,
939,,BRADENTON,MANATEE,,,FIRE STATION,-82.54088306,27.47352956,,,,
940,,BRADENTON,MANATEE,,,FIRE STATION,-82.38395668,27.49849142,,,,
941,,BRADENTON,MANATEE,,,FIRE STATION,-82.54714709,27.43250301,,,,
942,,BRADENTON,MANATEE,,,FIRE STATION,-82.58341615,27.41940969,,,,
943,,BRADENTON,MANATEE,,,FIRE STATION,-82.50598086,27.44768715,,,,
944,,BRADENTON,MANATEE,,,FIRE STATION,-82.54841354,27.49434306,,,,
945,,BRADENTON,MANATEE,,,FIRE STATION,-82.62818117,27.49681319,,,,
946,,ELLENTON,MANATEE,,,FIRE STATION,-82.48749839,27.53792326,,,,
947,,ELLENTON,MANATEE,,,FIRE STATION,-82.52725103,27.52083592,,,,
948,,BRADENTON BEACH,MANATEE,,,FIRE STATION,-82.69765847,27.46651850,,,,
949,,BRADENTON BEACH,MANATEE,,,FIRE STATION,-82.71538937,27.51153638,,,,
950,,PALMETTO,MANATEE,,,FIRE STATION,-82.51336690,27.60248817,,,,
951,,PALMETTO,MANATEE,,,FIRE STATION,-82.55550885,27.55766110,,,,
952,,PALMETTO,MANATEE,,,FIRE STATION,-82.58167575,27.52429422,,,,
953,,PARRISH,MANATEE,,,FIRE STATION,-82.19309084,27.58050497,,,,
954,,PARRISH,MANATEE,,,FIRE STATION,-82.42619119,27.57153445,,,,
955,,SARASOTA,MANATEE,,,FIRE STATION,-82.51734522,27.40439554,,,,
956,,SARASOTA,MANATEE,,,FIRE STATION,-82.55722204,27.39359675,,,,
957,,SARASOTA,MANATEE,,,FIRE STATION,-82.56972521,27.40870463,,,,
958,,LONGBOAT KEY,MANATEE,,,FIRE STATION,-82.65804877,27.41260397,,,,
959,,MYAKKA CITY,MANATEE,,,FIRE STATION,-82.27020302,27.38646027,,,,
960,,MYAKKA CITY,MANATEE,,,FIRE STATION,-82.16205568,27.35498862,,,,
961,,DUNNELLON,MARION,,,FIRE STATION,-82.46232115,29.04927654,,,,
962,,DUNNELLON,MARION,,,FIRE STATION,-82.52920507,29.15491401,,,,
963,,DUNNELLON,MARION,,,FIRE STATION,-82.45191166,29.09781600,,,,
964,,DUNNELLON,MARION,,,FIRE STATION,-82.28524157,28.99662385,,,,
965,,DUNNELLON,MARION,,,FIRE STATION,-82.41512673,29.15460405,,,,
966,,DUNNELLON,MARION,,,FIRE STATION,-82.48288425,29.14976009,,,,
967,,OCALA,MARION,,,FIRE STATION,-82.10392068,29.21103883,,,,
968,,OCALA,MARION,,,FIRE STATION,-82.17837440,29.16754966,,,,
969,,OCALA,MARION,,,FIRE STATION,-82.24856890,29.08857890,,,,
970,,OCALA,MARION,,,FIRE STATION,-82.19735452,29.00823771,,,,
971,,OCALA,MARION,,,FIRE STATION,-82.23601989,29.22512518,,,,
972,,OCALA,MARION,,,FIRE STATION,-82.01493937,29.10972916,,,,
973,,OCALA,MARION,,,FIRE STATION,-82.03637682,29.17193024,,,,
974,,OCALA,MARION,,,FIRE STATION,-82.22001804,29.17007151,,,,
975,,OCALA,MARION,,,FIRE STATION,-82.13311177,29.18943966,,,,
976,,OCALA,MARION,,,FIRE STATION,-82.08451864,29.16226178,,,,
977,,OCALA,MARION,,,FIRE STATION,-82.13596535,29.11541312,,,,
978,,OCALA,MARION,,,FIRE STATION,-82.15208869,29.17944506,,,,
979,,OCALA,MARION,,,FIRE STATION,-82.30219014,29.18837069,,,,
980,,UMATILLA,MARION,,,FIRE STATION,-81.80821297,28.99703693,,,,
981,,UMATILLA,MARION,,,FIRE STATION,-81.74388258,28.97998812,,,,
982,,LADY LAKE,MARION,,,FIRE STATION,-82.01735076,28.98144912,,,,
983,,LADY LAKE,MARION,,,FIRE STATION,-82.00001630,28.96694982,,,,
984,,CITRA,MARION,,,FIRE STATION,-82.11220759,29.34340630,,,,
985,,CITRA,MARION,,,FIRE STATION,-82.11068951,29.41304944,,,,
986,,WEIRSDALE,MARION,,,FIRE STATION,-81.92119137,28.98417222,,,,
987,,OCKLAWAHA,MARION,,,FIRE STATION,-81.87057235,29.13294709,,,,
988,,FORT MC COY,MARION,,,FIRE STATION,-81.90529571,29.49413471,,,,
989,,FORT MC COY,MARION,,,FIRE STATION,-81.93961933,29.36842624,,,,
990,,FORT MC COY,MARION,,,FIRE STATION,-81.74054035,29.36443224,,,,
991,,FORT MC COY,MARION,,,FIRE STATION,-81.95549022,29.49156363,,,,
992,,SILVER SPRINGS,MARION,,,FIRE STATION,-81.86841684,29.17454483,,,,
993,,SILVER SPRINGS,MARION,,,FIRE STATION,-81.88842866,29.18071983,,,,
994,,SUMMERFIELD,MARION,,,FIRE STATION,-82.12021332,28.98174219,,,,
995,,REDDICK,MARION,,,FIRE STATION,-82.19757886,29.32672441,,,,
996,,REDDICK,MARION,,,FIRE STATION,-82.21757183,29.42423674,,,,
997,,BELLEVIEW,MARION,,,FIRE STATION,-82.05394759,29.05846128,,,,
998,,ANTHONY,MARION,,,FIRE STATION,-82.10866990,29.28954170,,,,
999,,STUART,MARTIN,,,FIRE STATION,-80.17659589,27.21436408,,,,
1000,,STUART,MARTIN,,,FIRE STATION,-80.27973632,27.10182524,,,,
1001,,STUART,MARTIN,,,FIRE STATION,-80.24522077,27.15568603,,,,
1002,,STUART,MARTIN,,,FIRE STATION,-80.23950612,27.19300174,,,,
1003,,STUART,MARTIN,,,FIRE STATION,-80.19901668,27.14746161,,,,
1004,,STUART,MARTIN,,,FIRE STATION,-80.22328747,27.18529258,,,,
1005,,STUART,MARTIN,,,FIRE STATION,-80.23850997,27.17500840,,,,
1006,,STUART,MARTIN,,,FIRE STATION,-80.27937558,27.23490547,,,,
1007,,STUART,MARTIN,,,FIRE STATION,-80.24111333,27.16728421,,,,
1008,,PALM CITY,MARTIN,,,FIRE STATION,-80.26971507,27.16532387,,,,
1009,,HOBE SOUND,MARTIN,,,FIRE STATION,-80.11155443,27.05279174,,,,
1010,,HOBE SOUND,MARTIN,,,FIRE STATION,-80.16055770,27.10089211,,,,
1011,,HOBE SOUND,MARTIN,,,FIRE STATION,-80.13441968,27.05603358,,,,
1012,,JUPITER,MARTIN,,,FIRE STATION,-80.10866853,26.98042591,,,,
1013,,JENSEN BEACH,MARTIN,,,FIRE STATION,-80.23686205,27.23730518,,,,
1014,,INDIANTOWN,MARTIN,,,FIRE STATION,-80.47951783,27.02842823,,,,
1015,,MIAMI,MIAMI-DADE,,,FIRE STATION,-80.19452765,25.79412658,,,,
1016,,MIAMI,MIAMI-DADE,,,FIRE STATION,-80.40134534,25.76182431,,,,
1017,,MIAMI,MIAMI-DADE,,,FIRE STATION,-80.17691766,25.77738442,,,,
1018,,MIAMI,MIAMI-DADE,,,FIRE STATION,-80.28233750,25.66336306,,,,
1019,,MIAMI,MIAMI-DADE,,,FIRE STATION,-80.25672888,25.82465597,,,,
1020,,MIAMI,MIAMI-DADE,,,FIRE STATION,-80.19298596,25.92893408,,,,
1021,,MIAMI,MIAMI-DADE,,,FIRE STATION,-80.33524274,25.71247317,,,,
1022,,MIAMI,MIAMI-DADE,,,FIRE STATION,-80.34942417,25.80949108,,,,
1023,,MIAMI,MIAMI-DADE,,,FIRE STATION,-80.34942417,25.80949108,,,,
1024,,MIAMI,MIAMI-DADE,,,FIRE STATION,-80.34942417,25.80949108,,,,
1025,,MIAMI,MIAMI-DADE,,,FIRE STATION,-80.17675944,25.84783092,,,,
1026,,MIAMI,MIAMI-DADE,,,FIRE STATION,-80.21281345,25.95724905,,,,
1027,,MIAMI,MIAMI-DADE,,,FIRE STATION,-80.20789548,25.81034064,,,,
1028,,MIAMI,MIAMI-DADE,,,FIRE STATION,-80.22060904,25.81753723,,,,
1029,,MIAMI,MIAMI-DADE,,,FIRE STATION,-80.33877642,25.79114063,,,,
1030,,MIAMI,MIAMI-DADE,,,FIRE STATION,-80.35443349,25.82573560,,,,
1031,,MIAMI,MIAMI-DADE,,,FIRE STATION,-80.34694708,25.74770925,,,,
1032,,MIAMI,MIAMI-DADE,,,FIRE STATION,-80.36837210,25.76521051,,,,
1033,,MIAMI,MIAMI-DADE,,,FIRE STATION,-80.21378761,25.78053685,,,,
1034,,MIAMI,MIAMI-DADE,,,FIRE STATION,-80.23498108,25.76886239,,,,
1035,,MIAMI,MIAMI-DADE,,,FIRE STATION,-80.36742077,25.57087284,,,,
1036,,MIAMI,MIAMI-DADE,,,FIRE STATION,-80.31187676,25.80899448,,,,
1037,,MIAMI,MIAMI-DADE,,,FIRE STATION,-80.16269493,25.93292007,,,,
1038,,MIAMI,MIAMI-DADE,,,FIRE STATION,-80.40102947,25.68882009,,,,
1039,,MIAMI,MIAMI-DADE,,,FIRE STATION,-80.28855259,25.70588980,,,,
1040,,MIAMI,MIAMI-DADE,,,FIRE STATION,-80.28445401,25.67050454,,,,
1041,,MIAMI,MIAMI-DADE,,,FIRE STATION,-80.22857654,25.75499693,,,,
1042,,MIAMI,MIAMI-DADE,,,FIRE STATION,-80.14324196,25.96050757,,,,
1043,,MIAMI,MIAMI-DADE,,,FIRE STATION,-80.21552629,25.79474766,,,,
1044,,MIAMI,MIAMI-DADE,,,FIRE STATION,-80.29549605,25.76197582,,,,
1045,,MIAMI,MIAMI-DADE,,,FIRE STATION,-80.25090752,25.88214582,,,,
1046,,MIAMI,MIAMI-DADE,,,FIRE STATION,-80.32717555,25.73400223,,,,
1047,,MIAMI,MIAMI-DADE,,,FIRE STATION,-80.16692686,25.89571978,,,,
1048,,MIAMI,MIAMI-DADE,,,FIRE STATION,-80.21022178,25.89443273,,,,
1049,,MIAMI,MIAMI-DADE,,,FIRE STATION,-80.34215480,25.62925301,,,,
1050,,MIAMI,MIAMI-DADE,,,FIRE STATION,-80.17299557,25.96504546,,,,
1051,,MIAMI,MIAMI-DADE,,,FIRE STATION,-80.24165029,25.83332000,,,,
1052,,MIAMI,MIAMI-DADE,,,FIRE STATION,-80.34921261,25.81019134,,,,
1053,,MIAMI,MIAMI-DADE,,,FIRE STATION,-80.45616996,25.69821245,,,,
1054,,MIAMI,MIAMI-DADE,,,FIRE STATION,-80.44051008,25.75763652,,,,
1055,,MIAMI,MIAMI-DADE,,,FIRE STATION,-80.16967838,25.77483916,,,,
1056,,MIAMI,MIAMI-DADE,,,FIRE STATION,-80.41013325,25.62597513,,,,
1057,,MIAMI,MIAMI-DADE,,,FIRE STATION,-80.26480081,25.72432706,,,,
1058,,MIAMI,MIAMI-DADE,,,FIRE STATION,-80.29203993,25.77044552,,,,
1059,,MIAMI,MIAMI-DADE,,,FIRE STATION,-80.19704392,25.76303273,,,,
1060,,MIAMI,MIAMI-DADE,,,FIRE STATION,-80.19119930,25.77880674,,,,
1061,,MIAMI,MIAMI-DADE,,,FIRE STATION,-80.36445059,25.87021701,,,,
1062,,MIAMI,MIAMI-DADE,,,FIRE STATION,-80.23455031,25.85997823,,,,
1063,,MIAMI,MIAMI-DADE,,,FIRE STATION,-80.33090165,25.56637987,,,,
1064,,MIAMI,MIAMI-DADE,,,FIRE STATION,-80.19386194,25.85089826,,,,
1065,,MIAMI,MIAMI-DADE,,,FIRE STATION,-80.19465474,25.83300683,,,,
1066,,MIAMI,MIAMI-DADE,,,FIRE STATION,-80.24113345,25.73018814,,,,
1067,,MIAMI,MIAMI-DADE,,,FIRE STATION,-80.38737314,25.65876038,,,,
1068,,MIAMI,MIAMI-DADE,,,FIRE STATION,-80.34952447,25.60333175,,,,
1069,,MIAMI,MIAMI-DADE,,,FIRE STATION,-80.32122587,25.67419998,,,,
1070,,MIAMI,MIAMI-DADE,,,FIRE STATION,-80.38131741,25.69538587,,,,
1071,,MIAMI,MIAMI-DADE,,,FIRE STATION,-80.42088479,25.64942437,,,,
1072,,MIAMI,MIAMI-DADE,,,FIRE STATION,-80.26025041,25.74584786,,,,
1073,,MIAMI,MIAMI-DADE,,,FIRE STATION,-80.44364225,25.67309927,,,,
1074,,MIAMI,MIAMI-DADE,,,FIRE STATION,-80.42406422,25.72801567,,,,
1075,,MIAMI,MIAMI-DADE,,,FIRE STATION,-80.28858894,25.80654661,,,,
1076,,MIAMI,MIAMI-DADE,,,FIRE STATION,-80.29219345,25.79733412,,,,
1077,,MIAMI,MIAMI-DADE,,,FIRE STATION,-80.19371986,25.86276377,,,,
1078,,MIAMI,MIAMI-DADE,,,FIRE STATION,-80.26328249,25.77896822,,,,
1079,,MIAMI,MIAMI-DADE,,,FIRE STATION,-80.38754383,25.58627301,,,,
1080,,HOMESTEAD,MIAMI-DADE,,,FIRE STATION,-80.43122415,25.46219677,,,,
1081,,HOMESTEAD,MIAMI-DADE,,,FIRE STATION,-80.44887347,25.49903296,,,,
1082,,HOMESTEAD,MIAMI-DADE,,,FIRE STATION,-80.47680590,25.53614658,,,,
1083,,HOMESTEAD,MIAMI-DADE,,,FIRE STATION,-80.45887902,25.44739405,,,,
1084,,HOMESTEAD,MIAMI-DADE,,,FIRE STATION,-80.37735457,25.53755461,,,,
1085,,HOMESTEAD,MIAMI-DADE,,,FIRE STATION,-80.40428629,25.54560676,,,,
1086,,HOMESTEAD,MIAMI-DADE,,,FIRE STATION,-80.48301303,25.47191387,,,,
1087,,OPA LOCKA,MIAMI-DADE,,,FIRE STATION,-80.27988381,25.95529783,,,,
1088,,OPA LOCKA,MIAMI-DADE,,,FIRE STATION,-80.24515654,25.94481400,,,,
1089,,OPA LOCKA,MIAMI-DADE,,,FIRE STATION,-80.27676655,25.90909722,,,,
1090,,OPA LOCKA,MIAMI-DADE,,,FIRE STATION,-80.24464302,25.91336824,,,,
1091,,HIALEAH,MIAMI-DADE,,,FIRE STATION,-80.33859811,25.86795618,,,,
1092,,HIALEAH,MIAMI-DADE,,,FIRE STATION,-80.29774011,25.84394403,,,,
1093,,HIALEAH,MIAMI-DADE,,,FIRE STATION,-80.27993130,25.82670858,,,,
1094,,HIALEAH,MIAMI-DADE,,,FIRE STATION,-80.30748050,25.89006457,,,,
1095,,HIALEAH,MIAMI-DADE,,,FIRE STATION,-80.33246480,25.89097677,,,,
1096,,HIALEAH,MIAMI-DADE,,,FIRE STATION,-80.31829568,25.87210235,,,,
1097,,HIALEAH,MIAMI-DADE,,,FIRE STATION,-80.26712411,25.86116162,,,,
1098,,HIALEAH,MIAMI-DADE,,,FIRE STATION,-80.29911068,25.86629879,,,,
1099,,HIALEAH,MIAMI-DADE,,,FIRE STATION,-80.33276828,25.90193087,,,,
1100,,HIALEAH,MIAMI-DADE,,,FIRE STATION,-80.32654055,25.94186358,,,,
1101,,HIALEAH,MIAMI-DADE,,,FIRE STATION,-80.30895771,25.92403358,,,,
1102,,KEY BISCAYNE,MIAMI-DADE,,,FIRE STATION,-80.16409798,25.69071148,,,,
1103,,KEY BISCAYNE,MIAMI-DADE,,,FIRE STATION,-80.16080513,25.70286901,,,,
1104,,MIAMI BEACH,MIAMI-DADE,,,FIRE STATION,-80.13966528,25.76327603,,,,
1105,,MIAMI BEACH,MIAMI-DADE,,,FIRE STATION,-80.12521161,25.90202358,,,,
1106,,MIAMI BEACH,MIAMI-DADE,,,FIRE STATION,-80.15732596,25.84888718,,,,
1107,,MIAMI BEACH,MIAMI-DADE,,,FIRE STATION,-80.13710965,25.78157466,,,,
1108,,MIAMI BEACH,MIAMI-DADE,,,FIRE STATION,-80.13044394,25.79965151,,,,
1109,,MIAMI BEACH,MIAMI-DADE,,,FIRE STATION,-80.12133252,25.83139414,,,,
1110,,MIAMI BEACH,MIAMI-DADE,,,FIRE STATION,-80.12410706,25.85395458,,,,
1111,,NORTH MIAMI BEACH,MIAMI-DADE,,,FIRE STATION,-80.13577995,25.93171717,,,,
1112,,NORTH MIAMI BEACH,MIAMI-DADE,,,FIRE STATION,-80.14827834,25.93996873,,,,
1113,,NORTH MIAMI BEACH,MIAMI-DADE,,,FIRE STATION,-80.15540707,25.91953730,,,,
1114,,NORTH MIAMI BEACH,MIAMI-DADE,,,FIRE STATION,-80.19333265,25.93056004,,,,
1115,,NORTH MIAMI BEACH,MIAMI-DADE,,,FIRE STATION,-80.12319257,25.93561673,,,,
1116,,NORTH MIAMI BEACH,MIAMI-DADE,,,FIRE STATION,-80.15543691,25.94696027,,,,
1117,,MIAMI-DADE,MIAMI-DADE,,,FIRE STATION,-80.33518077,25.71265562,,,,
1118,,MIAMI-DADE,MIAMI-DADE,,,FIRE STATION,-80.16951731,25.96495285,,,,
1119,,BAY HARBOR ISLANDS,MIAMI-DADE,,,FIRE STATION,-80.13237507,25.88583569,,,,
1120,,MIAMI LAKES,MIAMI-DADE,,,FIRE STATION,-80.32751495,25.91257558,,,,
1121,,DORAL NORTH,MIAMI-DADE,,,FIRE STATION,-80.37794343,25.84107194,,,,
1122,,MIAMI SPRINGS,MIAMI-DADE,,,FIRE STATION,-80.28463456,25.82135019,,,,
1123,,NORTH BAY VILLAGE,MIAMI-DADE,,,FIRE STATION,-80.16712807,25.84961475,,,,
1124,,ISLAMORADA,MONROE,,,FIRE STATION,-80.73112954,24.85714057,,,,
1125,,ISLAMORADA,MONROE,,,FIRE STATION,,,,,,
1126,,ISLAMORADA,MONROE,,,FIRE STATION,-80.55872867,24.96921380,,,,
1127,,ISLAMORADA,MONROE,,,FIRE STATION,-80.63626191,24.91770924,,,,
1128,,MARATHON,MONROE,,,FIRE STATION,,,,,,
1129,,MARATHON,MONROE,,,FIRE STATION,-80.88994541,24.78947455,,,,
1130,,MARATHON,MONROE,,,FIRE STATION,-81.05198362,24.72471175,,,,
1131,,MARATHON,MONROE,,,FIRE STATION,-80.97498784,24.75266154,,,,
1132,,MARATHON,MONROE,,,FIRE STATION,-81.06894504,24.71678924,,,,
1133,,KEY LARGO,MONROE,,,FIRE STATION,-80.44450384,25.08958891,,,,
1134,,KEY LARGO,MONROE,,,FIRE STATION,-80.37307511,25.17336519,,,,
1135,,Layton,MONROE,,,FIRE STATION,-80.81449601,24.82500529,,,,
1136,,KEY WEST,MONROE,,,FIRE STATION,-81.80039606,24.55467416,,,,
1137,,KEY WEST,MONROE,,,FIRE STATION,-81.75595278,24.55377455,,,,
1138,,KEY WEST,MONROE,,,FIRE STATION,-81.78681180,24.55812877,,,,
1139,,KEY WEST,MONROE,,,FIRE STATION,-81.65575309,24.59790305,,,,
1140,,KEY WEST,MONROE,,,FIRE STATION,-81.76562295,24.56159055,,,,
1141,,KEY WEST,MONROE,,,FIRE STATION,-81.69007813,24.58083201,,,,
1142,,Ocean Reef,MONROE,,,FIRE STATION,-80.27987273,25.31838299,,,,
1143,,SUMMERLAND KEY,MONROE,,,FIRE STATION,-81.56409104,24.64721051,,,,
1144,,SUMMERLAND KEY,MONROE,,,FIRE STATION,-81.50620041,24.66439970,,,,
1145,,BIG PINE KEY,MONROE,,,FIRE STATION,-81.35974257,24.67448990,,,,
1146,,TAVERNIER,MONROE,,,FIRE STATION,-80.51754096,25.01071922,,,,
1147,,Stock Island,MONROE,,,FIRE STATION,-81.73600541,24.57269757,,,,
1148,,CALLAHAN,NASSAU,,,FIRE STATION,-81.82883472,30.56333339,,,,
1149,,CALLAHAN,NASSAU,,,FIRE STATION,-81.76098072,30.62833400,,,,
1150,,CALLAHAN,NASSAU,,,FIRE STATION,-81.77242442,30.53155588,,,,
1151,,CALLAHAN,NASSAU,,,FIRE STATION,-81.81250636,30.49813824,,,,
1152,,YULEE,NASSAU,,,FIRE STATION,-81.53626368,30.62670381,,,,
1153,,YULEE,NASSAU,,,FIRE STATION,-81.60358944,30.63617552,,,,
1154,,YULEE,NASSAU,,,FIRE STATION,-81.53052046,30.67298503,,,,
1155,,YULEE,NASSAU,,,FIRE STATION,-81.60425435,30.63354699,,,,
1156,,YULEE,NASSAU,,,FIRE STATION,-81.57120695,30.60540404,,,,
1157,,BRYCEVILLE,NASSAU,,,FIRE STATION,-81.93519680,30.39225550,,,,
1158,,BRYCEVILLE,NASSAU,,,FIRE STATION,-82.02940158,30.41172770,,,,
1159,,FERNANDINA BEACH,NASSAU,,,FIRE STATION,-81.43800021,30.63793416,,,,
1160,,FERNANDINA BEACH,NASSAU,,,FIRE STATION,-81.51858390,30.57846090,,,,
1161,,FERNANDINA BEACH,NASSAU,,,FIRE STATION,-81.51341192,30.61675377,,,,
1162,,FERNANDINA BEACH,NASSAU,,,FIRE STATION,-81.45337843,30.57255659,,,,
1163,,FERNANDINA BEACH,NASSAU,,,FIRE STATION,-81.45231768,30.66669414,,,,
1164,,HILLIARD,NASSAU,,,FIRE STATION,-81.90742367,30.68927911,,,,
1165,,HILLIARD,NASSAU,,,FIRE STATION,-81.99283274,30.56160260,,,,
1166,,HILLIARD,NASSAU,,,FIRE STATION,-81.91915928,30.68969583,,,,
1167,,BAKER,OKALOOSA,,,FIRE STATION,-86.63469397,30.92475665,,,,
1168,,BAKER,OKALOOSA,,,FIRE STATION,-86.64492065,30.75463671,,,,
1169,,BAKER,OKALOOSA,,,FIRE STATION,-86.67972972,30.80114259,,,,
1170,,MARY ESTHER,OKALOOSA,,,FIRE STATION,-86.73755743,30.41232833,,,,
1171,,MARY ESTHER,OKALOOSA,,,FIRE STATION,-86.66427619,30.41277442,,,,
1172,,LAUREL HILL,OKALOOSA,,,FIRE STATION,-86.45839274,30.96723984,,,,
1173,,LAUREL HILL,OKALOOSA,,,FIRE STATION,-86.47965297,30.93670502,,,,
1174,,HOLT,OKALOOSA,,,FIRE STATION,-86.75096981,30.71314437,,,,
1175,,DESTIN,OKALOOSA,,,FIRE STATION,-86.48086156,30.39616581,,,,
1176,,DESTIN,OKALOOSA,,,FIRE STATION,-86.47186097,30.39661913,,,,
1177,,DESTIN,OKALOOSA,,,FIRE STATION,-86.42184577,30.38651583,,,,
1178,,NICEVILLE,OKALOOSA,,,FIRE STATION,-86.41648753,30.46965741,,,,
1179,,NICEVILLE,OKALOOSA,,,FIRE STATION,-86.48752518,30.52003194,,,,
1180,,NICEVILLE,OKALOOSA,,,FIRE STATION,-86.45786875,30.51271564,,,,
1181,,EGLIN AFB,OKALOOSA,,,FIRE STATION,-86.52662406,30.65012448,,,,
1182,,EGLIN AFB,OKALOOSA,,,FIRE STATION,-86.54173517,30.46917708,,,,
1183,,EGLIN AFB,OKALOOSA,,,FIRE STATION,-86.51021413,30.48433347,,,,
1184,,EGLIN AFB,OKALOOSA,,,FIRE STATION,-86.55782211,30.48097023,,,,
1185,,FORT WALTON BEACH,OKALOOSA,,,FIRE STATION,-86.63742522,30.43905772,,,,
1186,,FORT WALTON BEACH,OKALOOSA,,,FIRE STATION,-86.63739970,30.42910473,,,,
1187,,FORT WALTON BEACH,OKALOOSA,,,FIRE STATION,-86.61612428,30.46680738,,,,
1188,,FORT WALTON BEACH,OKALOOSA,,,FIRE STATION,-86.61382906,30.44922820,,,,
1189,,FORT WALTON BEACH,OKALOOSA,,,FIRE STATION,-86.59947509,30.39738878,,,,
1190,,FORT WALTON BEACH,OKALOOSA,,,FIRE STATION,-86.61163862,30.41296556,,,,
1191,,CRESTVIEW,OKALOOSA,,,FIRE STATION,-86.54228742,30.72007802,,,,
1192,,CRESTVIEW,OKALOOSA,,,FIRE STATION,-86.52406954,30.77521071,,,,
1193,,CRESTVIEW,OKALOOSA,,,FIRE STATION,-86.53783970,30.82258936,,,,
1194,,CRESTVIEW,OKALOOSA,,,FIRE STATION,-86.58358451,30.71121291,,,,
1195,,CRESTVIEW,OKALOOSA,,,FIRE STATION,-86.42307077,30.80332501,,,,
1196,,CRESTVIEW,OKALOOSA,,,FIRE STATION,-86.57185191,30.75685608,,,,
1197,,CRESTVIEW,OKALOOSA,,,FIRE STATION,-86.44426627,30.75220862,,,,
1198,,HURLBURT FIELD,OKALOOSA,,,FIRE STATION,-86.69341982,30.42450697,,,,
1199,,VALPARAISO,OKALOOSA,,,FIRE STATION,-86.49885592,30.50937103,,,,
1200,,SHALIMAR,OKALOOSA,,,FIRE STATION,-86.57932560,30.44686013,,,,
1201,,OKEECHOBEE,OKEECHOBEE,,,FIRE STATION,-80.80729837,27.53452226,,,,
1202,,OKEECHOBEE,OKEECHOBEE,,,FIRE STATION,-80.79009172,27.21113237,,,,
1203,,OKEECHOBEE,OKEECHOBEE,,,FIRE STATION,-80.83520222,27.19544708,,,,
1204,,OKEECHOBEE,OKEECHOBEE,,,FIRE STATION,-80.83534696,27.24868979,,,,
1205,,OKEECHOBEE,OKEECHOBEE,,,FIRE STATION,-80.82721990,27.24317414,,,,
1206,,ORLANDO,ORANGE,,,FIRE STATION,-81.38933082,28.54170469,,,,
1207,,ORLANDO,ORANGE,,,FIRE STATION,-81.57964249,28.42336615,,,,
1208,,ORLANDO,ORANGE,,,FIRE STATION,-81.33886117,28.56003700,,,,
1209,,ORLANDO,ORANGE,,,FIRE STATION,-81.25211541,28.53144944,,,,
1210,,ORLANDO,ORANGE,,,FIRE STATION,-81.33190779,28.42653786,,,,
1211,,ORLANDO,ORANGE,,,FIRE STATION,-81.42345414,28.38085952,,,,
1212,,ORLANDO,ORANGE,,,FIRE STATION,-81.32518658,28.52461395,,,,
1213,,ORLANDO,ORANGE,,,FIRE STATION,-81.49178768,28.57951762,,,,
1214,,ORLANDO,ORANGE,,,FIRE STATION,-81.40128303,28.47214732,,,,
1215,,ORLANDO,ORANGE,,,FIRE STATION,,,,,,
1216,,ORLANDO,ORANGE,,,FIRE STATION,-81.28482374,28.48233477,,,,
1217,,ORLANDO,ORANGE,,,FIRE STATION,-81.18674068,28.57177813,,,,
1218,,ORLANDO,ORANGE,,,FIRE STATION,-81.25056285,28.48415385,,,,
1219,,ORLANDO,ORANGE,,,FIRE STATION,-81.37958461,28.53768782,,,,
1220,,ORLANDO,ORANGE,,,FIRE STATION,,,,,,
1221,,ORLANDO,ORANGE,,,FIRE STATION,-81.34429742,28.54650976,,,,
1222,,ORLANDO,ORANGE,,,FIRE STATION,-81.57499092,28.34873865,,,,
1223,,ORLANDO,ORANGE,,,FIRE STATION,-81.38516236,28.57316452,,,,
1224,,ORLANDO,ORANGE,,,FIRE STATION,-81.50162905,28.46180485,,,,
1225,,ORLANDO,ORANGE,,,FIRE STATION,-81.12910186,28.55498324,,,,
1226,,ORLANDO,ORANGE,,,FIRE STATION,-81.24302601,28.41871473,,,,
1227,,ORLANDO,ORANGE,,,FIRE STATION,,,,,,
1228,,ORLANDO,ORANGE,,,FIRE STATION,,,,,,
1229,,ORLANDO,ORANGE,,,FIRE STATION,-81.33034971,28.49925603,,,,
1230,,ORLANDO,ORANGE,,,FIRE STATION,-81.48680290,28.37588102,,,,
1231,,ORLANDO,ORANGE,,,FIRE STATION,-81.39788069,28.59721102,,,,
1232,,ORLANDO,ORANGE,,,FIRE STATION,-81.45603515,28.48347539,,,,
1233,,ORLANDO,ORANGE,,,FIRE STATION,-81.39995559,28.51295214,,,,
1234,,ORLANDO,ORANGE,,,FIRE STATION,-81.31130686,28.55959817,,,,
1235,,ORLANDO,ORANGE,,,FIRE STATION,-81.34018893,28.43513477,,,,
1236,,ORLANDO,ORANGE,,,FIRE STATION,-81.27849545,28.38692653,,,,
1237,,ORLANDO,ORANGE,,,FIRE STATION,-81.51828450,28.38843454,,,,
1238,,ORLANDO,ORANGE,,,FIRE STATION,-81.45992981,28.54061798,,,,
1239,,ORLANDO,ORANGE,,,FIRE STATION,-81.18151488,28.51154077,,,,
1240,,ORLANDO,ORANGE,,,FIRE STATION,-81.36508846,28.47169966,,,,
1241,,ORLANDO,ORANGE,,,FIRE STATION,,,,,,
1242,,ORLANDO,ORANGE,,,FIRE STATION,-81.19144693,28.61156952,,,,
1243,,ORLANDO,ORANGE,,,FIRE STATION,-81.40089737,28.44039341,,,,
1244,,ORLANDO,ORANGE,,,FIRE STATION,-81.07521593,28.50022355,,,,
1245,,ORLANDO,ORANGE,,,FIRE STATION,-81.31091670,28.42134139,,,,
1246,,ORLANDO,ORANGE,,,FIRE STATION,-81.39264200,28.53051157,,,,
1247,,ORLANDO,ORANGE,,,FIRE STATION,-81.28666285,28.58078588,,,,
1248,,ORLANDO,ORANGE,,,FIRE STATION,-81.42142130,28.49381393,,,,
1249,,ORLANDO,ORANGE,,,FIRE STATION,-81.31573445,28.46697654,,,,
1250,,ORLANDO,ORANGE,,,FIRE STATION,-81.24376400,28.40210450,,,,
1251,,ORLANDO,ORANGE,,,FIRE STATION,-81.51822311,28.37905852,,,,
1252,,ORLANDO,ORANGE,,,FIRE STATION,-81.43145297,28.58864110,,,,
1253,,ORLANDO,ORANGE,,,FIRE STATION,-81.34089460,28.55060157,,,,
1254,,ORLANDO,ORANGE,,,FIRE STATION,-81.28705552,28.44105278,,,,
1255,,ORLANDO,ORANGE,,,FIRE STATION,-81.36567386,28.37163835,,,,
1256,,ORLANDO,ORANGE,,,FIRE STATION,-81.36820895,28.43185677,,,,
1257,,ORLANDO,ORANGE,,,FIRE STATION,-81.45904525,28.42348420,,,,
1258,,ORLANDO,ORANGE,,,FIRE STATION,-81.44756079,28.62515498,,,,
1259,,ORLANDO,ORANGE,,,FIRE STATION,,,,,,
1260,,ORLANDO,ORANGE,,,FIRE STATION,-81.54710684,28.36536922,,,,
1261,,ORLANDO,ORANGE,,,FIRE STATION,-81.45460788,28.57714761,,,,
1262,,ORLANDO,ORANGE,,,FIRE STATION,-81.44136484,28.45085066,,,,
1263,,ORLANDO,ORANGE,,,FIRE STATION,-81.36068939,28.55702941,,,,
1264,,ORLANDO,ORANGE,,,FIRE STATION,-81.27810834,28.56214999,,,,
1265,,ORLANDO,ORANGE,,,FIRE STATION,,,,,,
1266,,ORLANDO,ORANGE,,,FIRE STATION,-81.37666182,28.52049216,,,,
1267,,ORLANDO,ORANGE,,,FIRE STATION,-81.40162819,28.62776509,,,,
1268,,ORLANDO,ORANGE,,,FIRE STATION,-81.46956491,28.52356054,,,,
1269,,ORLANDO,ORANGE,,,FIRE STATION,-81.38045893,28.54182842,,,,
1270,,ORLANDO,ORANGE,,,FIRE STATION,-81.46493093,28.40368662,,,,
1271,,ORLANDO,ORANGE,,,FIRE STATION,-81.21205855,28.54600739,,,,
1272,,ORLANDO,ORANGE,,,FIRE STATION,-81.41755236,28.53352435,,,,
1273,,ORLANDO,ORANGE,,,FIRE STATION,-81.20547624,28.39928883,,,,
1274,,WINDERMERE,ORANGE,,,FIRE STATION,-81.56145999,28.45882660,,,,
1275,,WINDERMERE,ORANGE,,,FIRE STATION,-81.50909945,28.51986226,,,,
1276,,MAITLAND,ORANGE,,,FIRE STATION,-81.36503761,28.62602955,,,,
1277,,Zellwood,ORANGE,,,FIRE STATION,-81.60289201,28.73022307,,,,
1278,,WINTER GARDEN,ORANGE,,,FIRE STATION,-81.56841452,28.59205438,,,,
1279,,WINTER GARDEN,ORANGE,,,FIRE STATION,-81.58239508,28.55507741,,,,
1280,,WINTER GARDEN,ORANGE,,,FIRE STATION,-81.58740502,28.50167402,,,,
1281,,WINTER GARDEN,ORANGE,,,FIRE STATION,-81.58217696,28.53028229,,,,
1282,,WINTER GARDEN,ORANGE,,,FIRE STATION,-81.62108261,28.55431404,,,,
1283,,WINTER GARDEN,ORANGE,,,FIRE STATION,-81.61428352,28.34874667,,,,
1284,,APOPKA,ORANGE,,,FIRE STATION,-81.51395854,28.70570426,,,,
1285,,APOPKA,ORANGE,,,FIRE STATION,-81.46958473,28.69138707,,,,
1286,,APOPKA,ORANGE,,,FIRE STATION,-81.50085040,28.63610698,,,,
1287,,APOPKA,ORANGE,,,FIRE STATION,-81.50506034,28.75878399,,,,
1288,,APOPKA,ORANGE,,,FIRE STATION,,,,,,
1289,,APOPKA,ORANGE,,,FIRE STATION,-81.46760634,28.66796328,,,,
1290,,APOPKA,ORANGE,,,FIRE STATION,-81.50843937,28.67229669,,,,
1291,,APOPKA,ORANGE,,,FIRE STATION,-81.55461489,28.68875644,,,,
1292,,WINTER PARK,ORANGE,,,FIRE STATION,-81.35421587,28.60078933,,,,
1293,,WINTER PARK,ORANGE,,,FIRE STATION,-81.33446754,28.62521937,,,,
1294,,WINTER PARK,ORANGE,,,FIRE STATION,-81.32750714,28.59444790,,,,
1295,,OCOEE,ORANGE,,,FIRE STATION,-81.51383707,28.59061089,,,,
1296,,OCOEE,ORANGE,,,FIRE STATION,-81.54476897,28.56206642,,,,
1297,,OCOEE,ORANGE,,,FIRE STATION,-81.54074966,28.53376659,,,,
1298,,CHRISTMAS,ORANGE,,,FIRE STATION,-81.01991633,28.56087472,,,,
1299,,KISSIMMEE,OSCEOLA,,,FIRE STATION,-81.35557345,28.28066514,,,,
1300,,KISSIMMEE,OSCEOLA,,,FIRE STATION,-81.41287637,28.29506358,,,,
1301,,KISSIMMEE,OSCEOLA,,,FIRE STATION,-81.41892000,28.33812000,,,,
1302,,KISSIMMEE,OSCEOLA,,,FIRE STATION,-81.44458148,28.30852556,,,,
1303,,KISSIMMEE,OSCEOLA,,,FIRE STATION,-81.48184119,28.31037843,,,,
1304,,KISSIMMEE,OSCEOLA,,,FIRE STATION,-81.43828279,28.19869597,,,,
1305,,KISSIMMEE,OSCEOLA,,,FIRE STATION,-81.41503239,28.33251655,,,,
1306,,KISSIMMEE,OSCEOLA,,,FIRE STATION,-81.54744561,28.32780881,,,,
1307,,KISSIMMEE,OSCEOLA,,,FIRE STATION,-81.35100078,28.32906074,,,,
1308,,KISSIMMEE,OSCEOLA,,,FIRE STATION,-81.37870928,28.30460133,,,,
1309,,KISSIMMEE,OSCEOLA,,,FIRE STATION,-81.63656027,28.34577358,,,,
1310,,KISSIMMEE,OSCEOLA,,,FIRE STATION,-81.46225659,28.25740930,,,,
1311,,SAINT CLOUD,OSCEOLA,,,FIRE STATION,-81.27547790,28.19639033,,,,
1312,,SAINT CLOUD,OSCEOLA,,,FIRE STATION,-81.23838837,28.29888352,,,,
1313,,SAINT CLOUD,OSCEOLA,,,FIRE STATION,-81.19508647,28.26672594,,,,
1314,,SAINT CLOUD,OSCEOLA,,,FIRE STATION,-81.28742913,28.24925245,,,,
1315,,SAINT CLOUD,OSCEOLA,,,FIRE STATION,-81.08452208,28.13443435,,,,
1316,,SAINT CLOUD,OSCEOLA,,,FIRE STATION,-81.31734252,28.22483783,,,,
1317,,SAINT CLOUD,OSCEOLA,,,FIRE STATION,-81.24376880,28.18026909,,,,
1318,,SAINT CLOUD,OSCEOLA,,,FIRE STATION,-81.15630829,28.18839301,,,,
1319,,DAVENPORT,OSCEOLA,,,FIRE STATION,-81.60148402,28.26042719,,,,
1320,,KENANSVILLE,OSCEOLA,,,FIRE STATION,-80.99964178,27.87605327,,,,
1321,,DELRAY BEACH,PALM BEACH,,,FIRE STATION,-80.11389397,26.43823123,,,,
1322,,DELRAY BEACH,PALM BEACH,,,FIRE STATION,-80.07865788,26.46222807,,,,
1323,,DELRAY BEACH,PALM BEACH,,,FIRE STATION,-80.07998580,26.44013914,,,,
1324,,DELRAY BEACH,PALM BEACH,,,FIRE STATION,-80.16193098,26.46478056,,,,
1325,,DELRAY BEACH,PALM BEACH,,,FIRE STATION,-80.05933156,26.46310740,,,,
1326,,DELRAY BEACH,PALM BEACH,,,FIRE STATION,-80.14629129,26.44696433,,,,
1327,,DELRAY BEACH,PALM BEACH,,,FIRE STATION,-80.11397082,26.47335656,,,,
1328,,WEST PALM BEACH,PALM BEACH,,,FIRE STATION,-80.06476448,26.78463664,,,,
1329,,WEST PALM BEACH,PALM BEACH,,,FIRE STATION,-80.16757946,26.68407334,,,,
1330,,WEST PALM BEACH,PALM BEACH,,,FIRE STATION,-80.05553976,26.75612526,,,,
1331,,WEST PALM BEACH,PALM BEACH,,,FIRE STATION,-80.12682824,26.64541780,,,,
1332,,WEST PALM BEACH,PALM BEACH,,,FIRE STATION,-80.13684458,26.79817118,,,,
1333,,WEST PALM BEACH,PALM BEACH,,,FIRE STATION,-80.05308257,26.71727176,,,,
1334,,WEST PALM BEACH,PALM BEACH,,,FIRE STATION,-80.23568487,26.66581577,,,,
1335,,WEST PALM BEACH,PALM BEACH,,,FIRE STATION,-80.06183157,26.69845743,,,,
1336,,WEST PALM BEACH,PALM BEACH,,,FIRE STATION,-80.06424751,26.79910253,,,,
1337,,WEST PALM BEACH,PALM BEACH,,,FIRE STATION,-80.21249656,26.81311131,,,,
1338,,WEST PALM BEACH,PALM BEACH,,,FIRE STATION,-80.09220193,26.68478604,,,,
1339,,WEST PALM BEACH,PALM BEACH,,,FIRE STATION,-80.22893028,26.70399616,,,,
1340,,WEST PALM BEACH,PALM BEACH,,,FIRE STATION,-80.11416127,26.63720064,,,,
1341,,WEST PALM BEACH,PALM BEACH,,,FIRE STATION,-80.19755266,26.63242814,,,,
1342,,WEST PALM BEACH,PALM BEACH,,,FIRE STATION,-80.14657326,26.63287036,,,,
1343,,WEST PALM BEACH,PALM BEACH,,,FIRE STATION,-80.08204017,26.78086658,,,,
1344,,WEST PALM BEACH,PALM BEACH,,,FIRE STATION,-80.09501560,26.70021811,,,,
1345,,WEST PALM BEACH,PALM BEACH,,,FIRE STATION,-80.26154771,26.63042321,,,,
1346,,WEST PALM BEACH,PALM BEACH,,,FIRE STATION,-80.07294753,26.79855871,,,,
1347,,WEST PALM BEACH,PALM BEACH,,,FIRE STATION,-80.16956946,26.70917635,,,,
1348,,WEST PALM BEACH,PALM BEACH,,,FIRE STATION,-80.05532531,26.67346913,,,,
1349,,WEST PALM BEACH,PALM BEACH,,,FIRE STATION,-80.28290767,26.66808462,,,,
1350,,WEST PALM BEACH,PALM BEACH,,,FIRE STATION,-80.17473611,26.67564765,,,,
1351,,WEST PALM BEACH,PALM BEACH,,,FIRE STATION,-80.10406403,26.66518522,,,,
1352,,WEST PALM BEACH,PALM BEACH,,,FIRE STATION,-80.12694254,26.70843609,,,,
1353,,WEST PALM BEACH,PALM BEACH,,,FIRE STATION,-80.08095865,26.71914521,,,,
1354,,WEST PALM BEACH,PALM BEACH,,,FIRE STATION,-80.08138392,26.81391246,,,,
1355,,WEST PALM BEACH,PALM BEACH,,,FIRE STATION,-80.20330747,26.69207576,,,,
1356,,WEST PALM BEACH,PALM BEACH,,,FIRE STATION,-80.03692961,26.77852152,,,,
1357,,WEST PALM BEACH,PALM BEACH,,,FIRE STATION,-80.10042472,26.74915021,,,,
1358,,WEST PALM BEACH,PALM BEACH,,,FIRE STATION,-80.03387997,26.79881618,,,,
1359,,BOYNTON BEACH,PALM BEACH,,,FIRE STATION,-80.09178604,26.55674752,,,,
1360,,BOYNTON BEACH,PALM BEACH,,,FIRE STATION,-80.16924293,26.52675059,,,,
1361,,BOYNTON BEACH,PALM BEACH,,,FIRE STATION,-80.15261294,26.48787900,,,,
1362,,BOYNTON BEACH,PALM BEACH,,,FIRE STATION,-80.07246040,26.54831073,,,,
1363,,BOYNTON BEACH,PALM BEACH,,,FIRE STATION,-80.06237506,26.52867742,,,,
1364,,BOYNTON BEACH,PALM BEACH,,,FIRE STATION,-80.04914832,26.52935918,,,,
1365,,BOYNTON BEACH,PALM BEACH,,,FIRE STATION,-80.09264882,26.51357597,,,,
1366,,BOYNTON BEACH,PALM BEACH,,,FIRE STATION,-80.05986812,26.51162438,,,,
1367,,BOYNTON BEACH,PALM BEACH,,,FIRE STATION,-80.12490398,26.51263316,,,,
1368,,LAKE WORTH,PALM BEACH,,,FIRE STATION,-80.18359503,26.56736741,,,,
1369,,LAKE WORTH,PALM BEACH,,,FIRE STATION,-80.09505378,26.64147013,,,,
1370,,LAKE WORTH,PALM BEACH,,,FIRE STATION,-80.08274578,26.58820223,,,,
1371,,LAKE WORTH,PALM BEACH,,,FIRE STATION,-80.15647994,26.61715959,,,,
1372,,LAKE WORTH,PALM BEACH,,,FIRE STATION,-80.07275948,26.63142058,,,,
1373,,LAKE WORTH,PALM BEACH,,,FIRE STATION,-80.11415719,26.59187389,,,,
1374,,LAKE WORTH,PALM BEACH,,,FIRE STATION,-80.05601563,26.57713545,,,,
1375,,LAKE WORTH,PALM BEACH,,,FIRE STATION,-80.03897976,26.58011004,,,,
1376,,LAKE WORTH,PALM BEACH,,,FIRE STATION,-80.12265573,26.60322048,,,,
1377,,LAKE WORTH,PALM BEACH,,,FIRE STATION,-80.14603480,26.56419050,,,,
1378,,LAKE WORTH,PALM BEACH,,,FIRE STATION,-80.09648179,26.61868708,,,,
1379,,LAKE WORTH,PALM BEACH,,,FIRE STATION,-80.05861696,26.61696369,,,,
1380,,BOCA RATON,PALM BEACH,,,FIRE STATION,-80.14765560,26.39484978,,,,
1381,,BOCA RATON,PALM BEACH,,,FIRE STATION,-80.20388104,26.33879040,,,,
1382,,BOCA RATON,PALM BEACH,,,FIRE STATION,-80.18611553,26.38122772,,,,
1383,,BOCA RATON,PALM BEACH,,,FIRE STATION,-80.12278609,26.40862413,,,,
1384,,BOCA RATON,PALM BEACH,,,FIRE STATION,-80.23900730,26.36382120,,,,
1385,,BOCA RATON,PALM BEACH,,,FIRE STATION,-80.08330631,26.36128595,,,,
1386,,BOCA RATON,PALM BEACH,,,FIRE STATION,-80.11633231,26.41560123,,,,
1387,,BOCA RATON,PALM BEACH,,,FIRE STATION,-80.06510115,26.41065990,,,,
1388,,BOCA RATON,PALM BEACH,,,FIRE STATION,-80.10523608,26.35094617,,,,
1389,,BOCA RATON,PALM BEACH,,,FIRE STATION,-80.18731083,26.35268903,,,,
1390,,BOCA RATON,PALM BEACH,,,FIRE STATION,-80.14148086,26.33130228,,,,
1391,,BOCA RATON,PALM BEACH,,,FIRE STATION,-80.13010211,26.36873335,,,,
1392,,BOCA RATON,PALM BEACH,,,FIRE STATION,-80.20480076,26.40050280,,,,
1393,,BOCA RATON,PALM BEACH,,,FIRE STATION,-80.07007402,26.35024684,,,,
1394,,BOCA RATON,PALM BEACH,,,FIRE STATION,-80.11129716,26.34996718,,,,
1395,,BOCA RATON,PALM BEACH,,,FIRE STATION,-80.09379159,26.32963270,,,,
1396,,BOCA RATON,PALM BEACH,,,FIRE STATION,-80.08620496,26.39497516,,,,
1397,,BOCA RATON,PALM BEACH,,,FIRE STATION,-80.16225626,26.37990237,,,,
1398,,BOCA RATON,PALM BEACH,,,FIRE STATION,-80.14997652,26.35596480,,,,
1399,,JUPITER,PALM BEACH,,,FIRE STATION,-80.13451893,26.93662513,,,,
1400,,JUPITER,PALM BEACH,,,FIRE STATION,-80.10361457,26.90016348,,,,
1401,,JUPITER,PALM BEACH,,,FIRE STATION,-80.08318832,26.93990879,,,,
1402,,JUPITER,PALM BEACH,,,FIRE STATION,-80.09350725,26.95925476,,,,
1403,,JUPITER,PALM BEACH,,,FIRE STATION,-80.22403081,26.94354965,,,,
1404,,PALM BEACH,PALM BEACH,,,FIRE STATION,-80.03868666,26.63954102,,,,
1405,,PALM BEACH,PALM BEACH,,,FIRE STATION,-80.03824417,26.72533229,,,,
1406,,PALM BEACH,PALM BEACH,,,FIRE STATION,-80.03601255,26.70310861,,,,
1407,,PALM BEACH,PALM BEACH,,,FIRE STATION,-80.03950721,26.58940356,,,,
1408,,PALM BEACH GARDENS,PALM BEACH,,,FIRE STATION,-80.11599192,26.80986933,,,,
1409,,PALM BEACH GARDENS,PALM BEACH,,,FIRE STATION,-80.09461030,26.86472804,,,,
1410,,PALM BEACH GARDENS,PALM BEACH,,,FIRE STATION,-80.10442839,26.83138000,,,,
1411,,PALM BEACH GARDENS,PALM BEACH,,,FIRE STATION,-80.13497561,26.84260890,,,,
1412,,PALM BEACH GARDENS,PALM BEACH,,,FIRE STATION,-80.10759154,26.78669655,,,,
1413,,PALM BEACH GARDENS,PALM BEACH,,,FIRE STATION,-80.08322252,26.83827438,,,,
1414,,NORTH PALM BEACH,PALM BEACH,,,FIRE STATION,-80.05450227,26.86589970,,,,
1415,,NORTH PALM BEACH,PALM BEACH,,,FIRE STATION,-80.05613087,26.81227694,,,,
1416,,LOXAHATCHEE,PALM BEACH,,,FIRE STATION,-80.30638027,26.75439590,,,,
1417,,LOXAHATCHEE,PALM BEACH,,,FIRE STATION,-80.26934870,26.70572440,,,,
1418,,LOXAHATCHEE,PALM BEACH,,,FIRE STATION,-80.25602260,26.76699833,,,,
1419,,PAHOKEE,PALM BEACH,,,FIRE STATION,-80.66624698,26.82415071,,,,
1420,,SOUTH BAY,PALM BEACH,,,FIRE STATION,-80.71335785,26.66133578,,,,
1421,,BELLE GLADE,PALM BEACH,,,FIRE STATION,-80.67007819,26.68134087,,,,
1422,,ZEPHYRHILLS,PASCO,,,FIRE STATION,-82.22489709,28.23028652,,,,
1423,,ZEPHYRHILLS,PASCO,,,FIRE STATION,-82.15927314,28.18193665,,,,
1424,,ZEPHYRHILLS,PASCO,,,FIRE STATION,-82.18458655,28.25803877,,,,
1425,,ZEPHYRHILLS,PASCO,,,FIRE STATION,-82.18103351,28.23472284,,,,
1426,,NEW PORT RICHEY,PASCO,,,FIRE STATION,-82.63630256,28.27074969,,,,
1427,,NEW PORT RICHEY,PASCO,,,FIRE STATION,-82.73123336,28.24202271,,,,
1428,,NEW PORT RICHEY,PASCO,,,FIRE STATION,-82.71316329,28.23643060,,,,
1429,,NEW PORT RICHEY,PASCO,,,FIRE STATION,-82.68475503,28.25946987,,,,
1430,,NEW PORT RICHEY,PASCO,,,FIRE STATION,-82.71579258,28.25074293,,,,
1431,,NEW PORT RICHEY,PASCO,,,FIRE STATION,-82.69511548,28.20246701,,,,
1432,,SPRING HILL,PASCO,,,FIRE STATION,-82.55254025,28.39865262,,,,
1433,,SPRING HILL,PASCO,,,FIRE STATION,-82.55308831,28.39875714,,,,
1434,,DADE CITY,PASCO,,,FIRE STATION,-82.33298679,28.40974490,,,,
1435,,DADE CITY,PASCO,,,FIRE STATION,-82.24459648,28.41424912,,,,
1436,,DADE CITY,PASCO,,,FIRE STATION,-82.18179287,28.46361666,,,,
1437,,DADE CITY,PASCO,,,FIRE STATION,-82.18715213,28.36643800,,,,
1438,,DADE CITY,PASCO,,,FIRE STATION,-82.18265847,28.30325852,,,,
1439,,HUDSON,PASCO,,,FIRE STATION,-82.64267769,28.33306276,,,,
1440,,HUDSON,PASCO,,,FIRE STATION,-82.68321760,28.37083902,,,,
1441,,HUDSON,PASCO,,,FIRE STATION,-82.62340569,28.43316896,,,,
1442,,ODESSA,PASCO,,,FIRE STATION,-82.57733206,28.18889337,,,,
1443,,ODESSA,PASCO,,,FIRE STATION,-82.62399458,28.18689483,,,,
1444,,SAN ANTONIO,PASCO,,,FIRE STATION,-82.27470904,28.33555441,,,,
1445,,LAND O LAKES,PASCO,,,FIRE STATION,-82.49617766,28.30246149,,,,
1446,,LAND O LAKES,PASCO,,,FIRE STATION,-82.45961111,28.21788840,,,,
1447,,LAND O LAKES,PASCO,,,FIRE STATION,-82.45679032,28.22676883,,,,
1448,,LAND O LAKES,PASCO,,,FIRE STATION,-82.51797084,28.19549739,,,,
1449,,PORT RICHEY,PASCO,,,FIRE STATION,-82.70949884,28.28120190,,,,
1450,,PORT RICHEY,PASCO,,,FIRE STATION,-82.72153393,28.27105421,,,,
1451,,PORT RICHEY,PASCO,,,FIRE STATION,-82.70387233,28.29262990,,,,
1452,,PORT RICHEY,PASCO,,,FIRE STATION,-82.70242731,28.29516698,,,,
1453,,WESLEY CHAPEL,PASCO,,,FIRE STATION,-82.34982547,28.17672891,,,,
1454,,WESLEY CHAPEL,PASCO,,,FIRE STATION,-82.24835472,28.20826267,,,,
1455,,WESLEY CHAPEL,PASCO,,,FIRE STATION,-82.36379878,28.24330968,,,,
1456,,LUTZ,PASCO,,,FIRE STATION,-82.46401867,28.19069764,,,,
1457,,HOLIDAY,PASCO,,,FIRE STATION,-82.73817181,28.18771235,,,,
1458,,INDIAN ROCKS BEACH,PINELLAS,,,FIRE STATION,-82.84991679,27.88107724,,,,
1459,,SAINT PETERSBURG,PINELLAS,,,FIRE STATION,-82.73080268,27.81335041,,,,
1460,,SAINT PETERSBURG,PINELLAS,,,FIRE STATION,-82.75063894,27.74121287,,,,
1461,,SAINT PETERSBURG,PINELLAS,,,FIRE STATION,-82.71260122,27.81387307,,,,
1462,,SAINT PETERSBURG,PINELLAS,,,FIRE STATION,-82.65483078,27.87490427,,,,
1463,,SAINT PETERSBURG,PINELLAS,,,FIRE STATION,-82.73297167,27.75998595,,,,
1464,,SAINT PETERSBURG,PINELLAS,,,FIRE STATION,-82.67465376,27.72153173,,,,
1465,,SAINT PETERSBURG,PINELLAS,,,FIRE STATION,-82.67570474,27.76685894,,,,
1466,,SAINT PETERSBURG,PINELLAS,,,FIRE STATION,-82.67175238,27.79887904,,,,
1467,,SAINT PETERSBURG,PINELLAS,,,FIRE STATION,-82.73607406,27.69630660,,,,
1468,,SAINT PETERSBURG,PINELLAS,,,FIRE STATION,-82.60521200,27.82157810,,,,
1469,,SAINT PETERSBURG,PINELLAS,,,FIRE STATION,-82.76833195,27.77082728,,,,
1470,,SAINT PETERSBURG,PINELLAS,,,FIRE STATION,-82.64638920,27.83535084,,,,
1471,,SAINT PETERSBURG,PINELLAS,,,FIRE STATION,-82.68792330,27.82319964,,,,
1472,,SAINT PETERSBURG,PINELLAS,,,FIRE STATION,-82.69932001,27.78115441,,,,
1473,,SAINT PETERSBURG,PINELLAS,,,FIRE STATION,-82.72655642,27.67396293,,,,
1474,,SAINT PETERSBURG,PINELLAS,,,FIRE STATION,-82.72781963,27.77683351,,,,
1475,,SAINT PETERSBURG,PINELLAS,,,FIRE STATION,-82.63827179,27.79512959,,,,
1476,,SAINT PETERSBURG,PINELLAS,,,FIRE STATION,-82.80165406,27.80450381,,,,
1477,,SAINT PETERSBURG,PINELLAS,,,FIRE STATION,-82.70580712,27.74705489,,,,
1478,,SAINT PETERSBURG,PINELLAS,,,FIRE STATION,-82.64523025,27.76666801,,,,
1479,,SAINT PETERSBURG,PINELLAS,,,FIRE STATION,-82.64551947,27.72665882,,,,
1480,,CLEARWATER BEACH,PINELLAS,,,FIRE STATION,-82.82637286,27.95644564,,,,
1481,,CLEARWATER BEACH,PINELLAS,,,FIRE STATION,-82.82689076,27.98459829,,,,
1482,,PALM HARBOR,PINELLAS,,,FIRE STATION,-82.70246973,28.07749703,,,,
1483,,PALM HARBOR,PINELLAS,,,FIRE STATION,-82.70154009,28.10034251,,,,
1484,,PALM HARBOR,PINELLAS,,,FIRE STATION,-82.77440235,28.09691716,,,,
1485,,PALM HARBOR,PINELLAS,,,FIRE STATION,-82.73515832,28.06573054,,,,
1486,,PALM HARBOR,PINELLAS,,,FIRE STATION,-82.74357472,28.10765567,,,,
1487,,PALM HARBOR,PINELLAS,,,FIRE STATION,-82.76518226,28.07477896,,,,
1488,,SEMINOLE,PINELLAS,,,FIRE STATION,-82.79582828,27.84021053,,,,
1489,,SEMINOLE,PINELLAS,,,FIRE STATION,-82.76196892,27.85392592,,,,
1490,,SEMINOLE,PINELLAS,,,FIRE STATION,-82.82541569,27.85863936,,,,
1491,,SEMINOLE,PINELLAS,,,FIRE STATION,-82.81960416,27.85354534,,,,
1492,,SEMINOLE,PINELLAS,,,FIRE STATION,-82.79480417,27.83707828,,,,
1493,,CLEARWATER,PINELLAS,,,FIRE STATION,-82.67953451,27.89774032,,,,
1494,,CLEARWATER,PINELLAS,,,FIRE STATION,-82.69775432,27.91109586,,,,
1495,,CLEARWATER,PINELLAS,,,FIRE STATION,-82.72283079,27.95855509,,,,
1496,,CLEARWATER,PINELLAS,,,FIRE STATION,-82.71400407,27.92416084,,,,
1497,,CLEARWATER,PINELLAS,,,FIRE STATION,-82.74674019,27.98297718,,,,
1498,,CLEARWATER,PINELLAS,,,FIRE STATION,-82.74674019,27.98297718,,,,
1499,,CLEARWATER,PINELLAS,,,FIRE STATION,-82.78995422,27.96106439,,,,
1500,,CLEARWATER,PINELLAS,,,FIRE STATION,-82.72446274,28.01873426,,,,
1501,,CLEARWATER,PINELLAS,,,FIRE STATION,-82.74634433,28.02407901,,,,
1502,,CLEARWATER,PINELLAS,,,FIRE STATION,-82.69292275,27.87537145,,,,
1503,,CLEARWATER,PINELLAS,,,FIRE STATION,-82.78480413,27.98306818,,,,
1504,,CLEARWATER,PINELLAS,,,FIRE STATION,-82.77619852,27.95007416,,,,
1505,,CLEARWATER,PINELLAS,,,FIRE STATION,-82.79806358,27.96335693,,,,
1506,,TARPON SPRINGS,PINELLAS,,,FIRE STATION,-82.77253147,28.14469172,,,,
1507,,TARPON SPRINGS,PINELLAS,,,FIRE STATION,-82.76456073,28.16859727,,,,
1508,,TARPON SPRINGS,PINELLAS,,,FIRE STATION,-82.68662002,28.14473791,,,,
1509,,TARPON SPRINGS,PINELLAS,,,FIRE STATION,-82.74490733,28.14276276,,,,
1510,,OLDSMAR,PINELLAS,,,FIRE STATION,-82.67058809,28.04408269,,,,
1511,,LARGO,PINELLAS,,,FIRE STATION,-82.74330132,27.89373066,,,,
1512,,LARGO,PINELLAS,,,FIRE STATION,-82.78786043,27.87252102,,,,
1513,,LARGO,PINELLAS,,,FIRE STATION,-82.79174976,27.91499150,,,,
1514,,LARGO,PINELLAS,,,FIRE STATION,-82.74641327,27.91777160,,,,
1515,,LARGO,PINELLAS,,,FIRE STATION,-82.81383595,27.92311174,,,,
1516,,LARGO,PINELLAS,,,FIRE STATION,-82.80946784,27.89436657,,,,
1517,,PINELLAS PARK,PINELLAS,,,FIRE STATION,-82.70252203,27.84615445,,,,
1518,,PINELLAS PARK,PINELLAS,,,FIRE STATION,-82.72812465,27.85775216,,,,
1519,,DUNEDIN,PINELLAS,,,FIRE STATION,-82.77073989,28.01250628,,,,
1520,,DUNEDIN,PINELLAS,,,FIRE STATION,-82.77718402,28.03757025,,,,
1521,,LEALMAN,PINELLAS,,,FIRE STATION,-82.69255822,27.82150935,,,,
1522,,SAFETY HARBOR,PINELLAS,,,FIRE STATION,-82.69439817,27.99054058,,,,
1523,,SAFETY HARBOR,PINELLAS,,,FIRE STATION,-82.70845560,28.03406321,,,,
1524,,HAINES CITY,POLK,,,FIRE STATION,-81.54566202,28.07819035,,,,
1525,,HAINES CITY,POLK,,,FIRE STATION,-81.53004814,28.01250002,,,,
1526,,HAINES CITY,POLK,,,FIRE STATION,-81.61701987,28.12167501,,,,
1527,,HAINES CITY,POLK,,,FIRE STATION,-81.62248265,28.04346686,,,,
1528,,HAINES CITY,POLK,,,FIRE STATION,-81.62284419,28.11004573,,,,
1529,,HAINES CITY,POLK,,,FIRE STATION,-81.52979880,28.03199815,,,,
1530,,LAKELAND,POLK,,,FIRE STATION,-82.03567342,27.95280784,,,,
1531,,LAKELAND,POLK,,,FIRE STATION,-81.97450170,28.16237335,,,,
1532,,LAKELAND,POLK,,,FIRE STATION,-81.91100675,28.04450449,,,,
1533,,LAKELAND,POLK,,,FIRE STATION,-82.00844073,28.09126621,,,,
1534,,LAKELAND,POLK,,,FIRE STATION,-81.88232105,27.96835727,,,,
1535,,LAKELAND,POLK,,,FIRE STATION,-81.99704442,27.95353532,,,,
1536,,LAKELAND,POLK,,,FIRE STATION,-81.95797575,28.06951016,,,,
1537,,LAKELAND,POLK,,,FIRE STATION,-81.94931862,28.04505337,,,,
1538,,LAKELAND,POLK,,,FIRE STATION,-81.95649857,28.01841805,,,,
1539,,LAKELAND,POLK,,,FIRE STATION,-81.97963354,28.04459022,,,,
1540,,LAKELAND,POLK,,,FIRE STATION,-81.92467810,28.00726778,,,,
1541,,LAKELAND,POLK,,,FIRE STATION,-81.93706893,28.10771577,,,,
1542,,WINTER HAVEN,POLK,,,FIRE STATION,-81.69600262,28.00408763,,,,
1543,,WINTER HAVEN,POLK,,,FIRE STATION,-81.72660401,28.04510971,,,,
1544,,WINTER HAVEN,POLK,,,FIRE STATION,-81.73080239,28.02730389,,,,
1545,,WINTER HAVEN,POLK,,,FIRE STATION,-81.69353093,28.02748920,,,,
1546,,WINTER HAVEN,POLK,,,FIRE STATION,-81.76347820,28.01528188,,,,
1547,,WINTER HAVEN,POLK,,,FIRE STATION,-81.72700951,27.96194335,,,,
1548,,MULBERRY,POLK,,,FIRE STATION,-82.02357277,27.91983192,,,,
1549,,MULBERRY,POLK,,,FIRE STATION,-81.98111995,27.89623294,,,,
1550,,MULBERRY,POLK,,,FIRE STATION,-81.97375150,27.79620599,,,,
1551,,BARTOW,POLK,,,FIRE STATION,-81.71536661,27.87126554,,,,
1552,,BARTOW,POLK,,,FIRE STATION,-81.78337945,27.95212650,,,,
1553,,BARTOW,POLK,,,FIRE STATION,-81.84301063,27.89823462,,,,
1554,,POLK CITY,POLK,,,FIRE STATION,-81.82484816,28.18129085,,,,
1555,,FROSTPROOF,POLK,,,FIRE STATION,-81.52816237,27.74633175,,,,
1556,,FROSTPROOF,POLK,,,FIRE STATION,-81.56030892,27.70913797,,,,
1557,,KISSIMMEE,POLK,,,FIRE STATION,-81.47521668,28.11357152,,,,
1558,,KISSIMMEE,POLK,,,FIRE STATION,-81.48422545,28.14192750,,,,
1559,,LAKE ALFRED,POLK,,,FIRE STATION,-81.72853426,28.09298514,,,,
1560,,EAGLE LAKE,POLK,,,FIRE STATION,-81.75914539,27.97875977,,,,
1561,,DAVENPORT,POLK,,,FIRE STATION,-81.60294165,28.15752603,,,,
1562,,DAVENPORT,POLK,,,FIRE STATION,-81.65473392,28.25457071,,,,
1563,,DAVENPORT,POLK,,,FIRE STATION,-81.56503438,28.24123359,,,,
1564,,LAKE WALES,POLK,,,FIRE STATION,-81.21140690,27.81560443,,,,
1565,,LAKE WALES,POLK,,,FIRE STATION,-81.54270456,27.97211940,,,,
1566,,LAKE WALES,POLK,,,FIRE STATION,-81.41052065,27.86028111,,,,
1567,,LAKE WALES,POLK,,,FIRE STATION,-81.42443614,27.94429822,,,,
1568,,LAKE WALES,POLK,,,FIRE STATION,-81.58969612,27.83475366,,,,
1569,,LAKE WALES,POLK,,,FIRE STATION,-81.33180044,27.81682051,,,,
1570,,LAKE WALES,POLK,,,FIRE STATION,-81.54109759,27.89402721,,,,
1571,,LAKE WALES,POLK,,,FIRE STATION,-81.61400923,27.97883568,,,,
1572,,LAKE WALES,POLK,,,FIRE STATION,-81.38177280,27.97614756,,,,
1573,,LAKE WALES,POLK,,,FIRE STATION,-81.59510203,27.90072651,,,,
1574,,DUNDEE,POLK,,,FIRE STATION,-81.62014545,28.02306921,,,,
1575,,AUBURNDALE,POLK,,,FIRE STATION,-81.78892966,28.06387375,,,,
1576,,AUBURNDALE,POLK,,,FIRE STATION,-81.79319477,28.06717018,,,,
1577,,FORT MEADE,POLK,,,FIRE STATION,-81.80187603,27.75246179,,,,
1578,,BABSON PARK,POLK,,,FIRE STATION,-81.52584116,27.83270721,,,,
1579,,INTERLACHEN,PUTNAM,,,FIRE STATION,-81.89193082,29.62464557,,,,
1580,,INTERLACHEN,PUTNAM,,,FIRE STATION,-81.79655358,29.62589822,,,,
1581,,INTERLACHEN,PUTNAM,,,FIRE STATION,-81.86091480,29.67171846,,,,
1582,,PALATKA,PUTNAM,,,FIRE STATION,-81.64024421,29.64824985,,,,
1583,,PALATKA,PUTNAM,,,FIRE STATION,-81.66045721,29.66884751,,,,
1584,,PALATKA,PUTNAM,,,FIRE STATION,-81.70917314,29.63485042,,,,
1585,,PALATKA,PUTNAM,,,FIRE STATION,-81.67936036,29.65417504,,,,
1586,,PALATKA,PUTNAM,,,FIRE STATION,-81.63528591,29.77127137,,,,
1587,,PALATKA,PUTNAM,,,FIRE STATION,-81.66342320,29.62294063,,,,
1588,,PALATKA,PUTNAM,,,FIRE STATION,-81.72437853,29.71946803,,,,
1589,,SATSUMA,PUTNAM,,,FIRE STATION,-81.61514517,29.58205920,,,,
1590,,SATSUMA,PUTNAM,,,FIRE STATION,-81.65955855,29.54968485,,,,
1591,,FLORAHOME,PUTNAM,,,FIRE STATION,-81.88803391,29.73122882,,,,
1592,,FLORAHOME,PUTNAM,,,FIRE STATION,-81.86088359,29.79213578,,,,
1593,,POMONA PARK,PUTNAM,,,FIRE STATION,-81.59202502,29.49556806,,,,
1594,,CRESCENT CITY,PUTNAM,,,FIRE STATION,-81.67020473,29.47951698,,,,
1595,,CRESCENT CITY,PUTNAM,,,FIRE STATION,-81.51099353,29.43289350,,,,
1596,,EAST PALATKA,PUTNAM,,,FIRE STATION,-81.60031787,29.65506179,,,,
1597,,HAWTHORNE,PUTNAM,,,FIRE STATION,-82.01195916,29.59987719,,,,
1598,,GEORGETOWN,PUTNAM,,,FIRE STATION,-81.64120498,29.39204713,,,,
1599,,MELROSE,PUTNAM,,,FIRE STATION,-82.04957838,29.71009065,,,,
1600,,MELROSE,PUTNAM,,,FIRE STATION,-82.04957838,29.71009065,,,,
1601,,SAINT AUGUSTINE,ST. JOHNS,,,FIRE STATION,-81.26012695,29.78685666,,,,
1602,,SAINT AUGUSTINE,ST. JOHNS,,,FIRE STATION,-81.32160213,29.89287863,,,,
1603,,SAINT AUGUSTINE,ST. JOHNS,,,FIRE STATION,-81.55202002,29.82282208,,,,
1604,,SAINT AUGUSTINE,ST. JOHNS,,,FIRE STATION,-81.58456298,29.99241037,,,,
1605,,SAINT AUGUSTINE,ST. JOHNS,,,FIRE STATION,-81.30361959,29.81749000,,,,
1606,,SAINT AUGUSTINE,ST. JOHNS,,,FIRE STATION,-81.32084902,29.85085896,,,,
1607,,SAINT AUGUSTINE,ST. JOHNS,,,FIRE STATION,-81.44227118,29.91809508,,,,
1608,,SAINT AUGUSTINE,ST. JOHNS,,,FIRE STATION,-81.33771964,29.94238164,,,,
1609,,SAINT AUGUSTINE,ST. JOHNS,,,FIRE STATION,-81.48992911,29.95948580,,,,
1610,,SAINT AUGUSTINE,ST. JOHNS,,,FIRE STATION,-81.56266734,29.94161143,,,,
1611,,SAINT AUGUSTINE,ST. JOHNS,,,FIRE STATION,-81.35361614,29.88716130,,,,
1612,,SAINT AUGUSTINE,ST. JOHNS,,,FIRE STATION,-81.41609117,30.04371742,,,,
1613,,SAINT AUGUSTINE,ST. JOHNS,,,FIRE STATION,-81.28722020,29.88165978,,,,
1614,, ,ST. JOHNS,,,FIRE STATION,-81.32151222,29.81417564,,,,
1615,, ,ST. JOHNS,,,FIRE STATION,-81.55861951,30.10633589,,,,
1616,,JACKSONVILLE,ST. JOHNS,,,FIRE STATION,-81.63884135,30.08137304,,,,
1617,,JACKSONVILLE,ST. JOHNS,,,FIRE STATION,-81.53413097,30.05967758,,,,
1618,,ST AUGUSTINE BEACH,ST. JOHNS,,,FIRE STATION,-81.26665942,29.85646926,,,,
1619,,PONTE VEDRA BEACH,ST. JOHNS,,,FIRE STATION,-81.31567667,29.99009606,,,,
1620,,PONTE VEDRA BEACH,ST. JOHNS,,,FIRE STATION,-81.39896059,30.17737910,,,,
1621,,PONTE VEDRA BEACH,ST. JOHNS,,,FIRE STATION,-81.38640953,30.22539884,,,,
1622,,PONTE VEDRA,ST. JOHNS,,,FIRE STATION,-81.41230852,30.10236982,,,,
1623,,SAINT AUGUSTINE BEACH,ST. JOHNS,,,FIRE STATION,-81.26695402,29.85643566,,,,
1624,,HASTINGS,ST. JOHNS,,,FIRE STATION,-81.49275268,29.71957431,,,,
1625,,FORT PIERCE,ST. LUCIE,,,FIRE STATION,-80.35840000,27.49490000,,,,
1626,,FORT PIERCE,ST. LUCIE,,,FIRE STATION,-80.36266465,27.48495675,,,,
1627,,FORT PIERCE,ST. LUCIE,,,FIRE STATION,-80.30233611,27.49773136,,,,
1628,,FORT PIERCE,ST. LUCIE,,,FIRE STATION,-80.30335843,27.46237406,,,,
1629,,FORT PIERCE,ST. LUCIE,,,FIRE STATION,-80.32975867,27.45211980,,,,
1630,,FORT PIERCE,ST. LUCIE,,,FIRE STATION,-80.40219540,27.52311029,,,,
1631,,FORT PIERCE,ST. LUCIE,,,FIRE STATION,-80.34871912,27.42990308,,,,
1632,,FORT PIERCE,ST. LUCIE,,,FIRE STATION,-80.47284880,27.40258265,,,,
1633,,FORT PIERCE,ST. LUCIE,,,FIRE STATION,-80.32025668,27.37478954,,,,
1634,,PORT SAINT LUCIE,ST. LUCIE,,,FIRE STATION,-80.39931485,27.31643428,,,,
1635,,PORT SAINT LUCIE,ST. LUCIE,,,FIRE STATION,-80.29745323,27.29953036,,,,
1636,,PORT SAINT LUCIE,ST. LUCIE,,,FIRE STATION,-80.43100561,27.27785448,,,,
1637,,PORT SAINT LUCIE,ST. LUCIE,,,FIRE STATION,-80.37058138,27.26328637,,,,
1638,,PORT SAINT LUCIE,ST. LUCIE,,,FIRE STATION,-80.35058250,27.31738984,,,,
1639,,PORT SAINT LUCIE,ST. LUCIE,,,FIRE STATION,-80.33012097,27.21058315,,,,
1640,,PORT SAINT LUCIE,ST. LUCIE,,,FIRE STATION,-80.30321923,27.27091885,,,,
1641,,PORT SAINT LUCIE,ST. LUCIE,,,FIRE STATION,-80.37479460,27.22930334,,,,
1642,,PORT ST LUCIE,ST. LUCIE,,,FIRE STATION,-80.35213437,27.31471238,,,,
1643,,PORT ST LUCIE,ST. LUCIE,,,FIRE STATION,-80.37950272,27.37189224,,,,
1644,,JENSEN BEACH,ST. LUCIE,,,FIRE STATION,-80.23154913,27.32766690,,,,
1645,, ,ST. LUCIE,,,FIRE STATION,-80.44072652,27.28520888,,,,
1646,,MILTON,SANTA ROSA,,,FIRE STATION,-87.18280294,30.63767097,,,,
1647,,MILTON,SANTA ROSA,,,FIRE STATION,-87.04346669,30.62792787,,,,
1648,,MILTON,SANTA ROSA,,,FIRE STATION,-87.09827857,30.60254750,,,,
1649,,MILTON,SANTA ROSA,,,FIRE STATION,-87.18041556,30.70391390,,,,
1650,,MILTON,SANTA ROSA,,,FIRE STATION,-87.04884918,30.65657719,,,,
1651,,MILTON,SANTA ROSA,,,FIRE STATION,-87.05318410,30.68701006,,,,
1652,,MILTON,SANTA ROSA,,,FIRE STATION,-86.87346239,30.85627124,,,,
1653,,MILTON,SANTA ROSA,,,FIRE STATION,-87.15643444,30.60998632,,,,
1654,,MILTON,SANTA ROSA,,,FIRE STATION,-87.09835577,30.57361661,,,,
1655,,MILTON,SANTA ROSA,,,FIRE STATION,-86.87694074,30.64953012,,,,
1656,,MILTON,SANTA ROSA,,,FIRE STATION,-86.94753342,30.60277562,,,,
1657,,MILTON,SANTA ROSA,,,FIRE STATION,-87.09145416,30.46880143,,,,
1658,,MILTON,SANTA ROSA,,,FIRE STATION,-86.88291374,30.92671001,,,,
1659,,MILTON,SANTA ROSA,,,FIRE STATION,-87.03018069,30.57875863,,,,
1660,,MILTON,SANTA ROSA,,,FIRE STATION,-87.09214014,30.78289626,,,,
1661,,MILTON,SANTA ROSA,,,FIRE STATION,-87.02177191,30.61908890,,,,
1662,,MILTON,SANTA ROSA,,,FIRE STATION,-87.20492960,30.77281283,,,,
1663,,MILTON,SANTA ROSA,,,FIRE STATION,-86.94049002,30.79851871,,,,
1664,,MILTON,SANTA ROSA,,,FIRE STATION,-86.99506624,30.67609069,,,,
1665,,MILTON,SANTA ROSA,,,FIRE STATION,-87.09668052,30.64641493,,,,
1666,,NAVARRE,SANTA ROSA,,,FIRE STATION,-86.86170809,30.40351863,,,,
1667,,NAVARRE,SANTA ROSA,,,FIRE STATION,-86.87334584,30.43206295,,,,
1668,,NAVARRE,SANTA ROSA,,,FIRE STATION,-86.87986065,30.37932744,,,,
1669,,NAVARRE,SANTA ROSA,,,FIRE STATION,-86.89897590,30.44865917,,,,
1670,,NAVARRE,SANTA ROSA,,,FIRE STATION,-86.93488148,30.41151172,,,,
1671,,BAGDAD,SANTA ROSA,,,FIRE STATION,-87.02979774,30.59700307,,,,
1672,,JAY,SANTA ROSA,,,FIRE STATION,-87.03369697,30.90574346,,,,
1673,,JAY,SANTA ROSA,,,FIRE STATION,-87.15965474,30.95278297,,,,
1674,,JAY,SANTA ROSA,,,FIRE STATION,-87.15855762,30.92616126,,,,
1675,,GULF BREEZE,SANTA ROSA,,,FIRE STATION,-87.00349165,30.40131195,,,,
1676,,GULF BREEZE,SANTA ROSA,,,FIRE STATION,-87.08672234,30.38566071,,,,
1677,,GULF BREEZE,SANTA ROSA,,,FIRE STATION,-87.18239256,30.36032874,,,,
1678,,VENICE,SARASOTA,,,FIRE STATION,-82.45045516,27.09899485,,,,
1679,,VENICE,SARASOTA,,,FIRE STATION,-82.31634879,27.04551987,,,,
1680,,VENICE,SARASOTA,,,FIRE STATION,-82.39848387,27.07970675,,,,
1681,,VENICE,SARASOTA,,,FIRE STATION,-82.40127508,27.04384207,,,,
1682,,VENICE,SARASOTA,,,FIRE STATION,-82.37689938,27.13688087,,,,
1683,,VENICE,SARASOTA,,,FIRE STATION,-82.43579083,27.10072684,,,,
1684,,SARASOTA,SARASOTA,,,FIRE STATION,-82.54660684,27.36656610,,,,
1685,,SARASOTA,SARASOTA,,,FIRE STATION,-82.52809794,27.31894650,,,,
1686,,SARASOTA,SARASOTA,,,FIRE STATION,-82.34165283,27.24818804,,,,
1687,,SARASOTA,SARASOTA,,,FIRE STATION,-82.43647606,27.29825698,,,,
1688,,SARASOTA,SARASOTA,,,FIRE STATION,-82.45936038,27.21770176,,,,
1689,,SARASOTA,SARASOTA,,,FIRE STATION,-82.49100137,27.22176126,,,,
1690,,SARASOTA,SARASOTA,,,FIRE STATION,-82.47203070,27.35171287,,,,
1691,,SARASOTA,SARASOTA,,,FIRE STATION,-82.52037238,27.26214880,,,,
1692,,SARASOTA,SARASOTA,,,FIRE STATION,-82.54155105,27.33999183,,,,
1693,,SARASOTA,SARASOTA,,,FIRE STATION,-82.49697578,27.34019106,,,,
1694,,SARASOTA,SARASOTA,,,FIRE STATION,-82.57654932,27.31994499,,,,
1695,,SARASOTA,SARASOTA,,,FIRE STATION,-82.48166244,27.27163699,,,,
1696,,SARASOTA,SARASOTA,,,FIRE STATION,-82.36667266,27.33918888,,,,
1697,,SARASOTA,SARASOTA,,,FIRE STATION,-82.44394911,27.32683017,,,,
1698,,SARASOTA,SARASOTA,,,FIRE STATION,-82.44080161,27.26701653,,,,
1699,,SARASOTA,SARASOTA,,,FIRE STATION,-82.26861774,27.31349778,,,,
1700,,SARASOTA,SARASOTA,,,FIRE STATION,-82.50774200,27.29845464,,,,
1701,,SARASOTA,SARASOTA,,,FIRE STATION,-82.50528185,27.36987008,,,,
1702,,SARASOTA,SARASOTA,,,FIRE STATION,-82.54701641,27.26644243,,,,
1703,,SARASOTA,SARASOTA,,,FIRE STATION,-82.46126215,27.38161015,,,,
1704,,ENGLEWOOD,SARASOTA,,,FIRE STATION,-82.35283601,26.95213823,,,,
1705,,ENGLEWOOD,SARASOTA,,,FIRE STATION,-82.32142661,26.96942776,,,,
1706,,ENGLEWOOD,SARASOTA,,,FIRE STATION,-82.33133865,26.96408033,,,,
1707,,ENGLEWOOD,SARASOTA,,,FIRE STATION,-82.37808528,27.00358234,,,,
1708,,NOKOMIS,SARASOTA,,,FIRE STATION,-82.45451449,27.12194372,,,,
1709,,NOKOMIS,SARASOTA,,,FIRE STATION,-82.46599933,27.15249625,,,,
1710,,NORTH PORT,SARASOTA,,,FIRE STATION,-82.23428857,27.04683982,,,,
1711,,NORTH PORT,SARASOTA,,,FIRE STATION,-82.20804211,27.07387089,,,,
1712,,NORTH PORT,SARASOTA,,,FIRE STATION,-82.11829525,27.06826707,,,,
1713,,NORTH PORT,SARASOTA,,,FIRE STATION,-82.25422496,27.07805278,,,,
1714,,NORTH PORT,SARASOTA,,,FIRE STATION,-82.16213307,27.06651272,,,,
1715,,LONGBOAT KEY,SARASOTA,,,FIRE STATION,-82.61809582,27.36057322,,,,
1716,,OVIEDO,SEMINOLE,,,FIRE STATION,-81.20817613,28.66940407,,,,
1717,,OVIEDO,SEMINOLE,,,FIRE STATION,-81.20335195,28.65335085,,,,
1718,,OVIEDO,SEMINOLE,,,FIRE STATION,-81.12877115,28.63938015,,,,
1719,,OVIEDO,SEMINOLE,,,FIRE STATION,-81.16135052,28.65407398,,,,
1720,,WINTER SPRINGS,SEMINOLE,,,FIRE STATION,-81.27543482,28.64823000,,,,
1721,,WINTER SPRINGS,SEMINOLE,,,FIRE STATION,-81.26193159,28.67721891,,,,
1722,,WINTER SPRINGS,SEMINOLE,,,FIRE STATION,-81.30614718,28.70058000,,,,
1723,,WINTER SPRINGS,SEMINOLE,,,FIRE STATION,-81.26619045,28.70174731,,,,
1724,,CASSELBERRY,SEMINOLE,,,FIRE STATION,-81.32348678,28.67789216,,,,
1725,,CASSELBERRY,SEMINOLE,,,FIRE STATION,-81.34670142,28.65498058,,,,
1726,,CASSELBERRY,SEMINOLE,,,FIRE STATION,-81.32051974,28.64668181,,,,
1727,,ALTAMONTE SPRINGS,SEMINOLE,,,FIRE STATION,-81.35915491,28.66417115,,,,
1728,,ALTAMONTE SPRINGS,SEMINOLE,,,FIRE STATION,-81.38992492,28.66666403,,,,
1729,,ALTAMONTE SPRINGS,SEMINOLE,,,FIRE STATION,-81.38201959,28.65085197,,,,
1730,,APOPKA,SEMINOLE,,,FIRE STATION,-81.44116238,28.66895761,,,,
1731,,SANFORD,SEMINOLE,,,FIRE STATION,-81.27729564,28.76964294,,,,
1732,,SANFORD,SEMINOLE,,,FIRE STATION,-81.27272364,28.79976952,,,,
1733,,SANFORD,SEMINOLE,,,FIRE STATION,-81.31686258,28.80069006,,,,
1734,,SANFORD,SEMINOLE,,,FIRE STATION,-81.29952801,28.74229055,,,,
1735,,SANFORD,SEMINOLE,,,FIRE STATION,-81.22998815,28.78615719,,,,
1736,,SANFORD,SEMINOLE,,,FIRE STATION,-81.34087303,28.81078466,,,,
1737,,SANFORD,SEMINOLE,,,FIRE STATION,-81.23069386,28.77741981,,,,
1738,,LONGWOOD,SEMINOLE,,,FIRE STATION,-81.41764856,28.70158735,,,,
1739,,LONGWOOD,SEMINOLE,,,FIRE STATION,-81.33429919,28.70223887,,,,
1740,,LONGWOOD,SEMINOLE,,,FIRE STATION,-81.35073683,28.70043755,,,,
1741,,LAKE MARY,SEMINOLE,,,FIRE STATION,-81.34976884,28.77384183,,,,
1742,,LAKE MARY,SEMINOLE,,,FIRE STATION,-81.32047485,28.75871603,,,,
1743,,LAKE MARY,SEMINOLE,,,FIRE STATION,-81.38123975,28.75791942,,,,
1744,,WINTER PARK,SEMINOLE,,,FIRE STATION,-81.28766720,28.62342936,,,,
1745,,GENEVA,SEMINOLE,,,FIRE STATION,-81.12002482,28.73843060,,,,
1746,,BUSHNELL,SUMTER,,,FIRE STATION,-82.10907794,28.66376732,,,,
1747,,BUSHNELL,SUMTER,,,FIRE STATION,-82.10634118,28.65824496,,,,
1748,,BUSHNELL,SUMTER,,,FIRE STATION,-82.11193657,28.66398675,,,,
1749,,BUSHNELL,SUMTER,,,FIRE STATION,-82.23196716,28.63969297,,,,
1750,,WILDWOOD,SUMTER,,,FIRE STATION,-82.04023652,28.86108872,,,,
1751,,WILDWOOD,SUMTER,,,FIRE STATION,-82.06935386,28.80096067,,,,
1752,,WILDWOOD,SUMTER,,,FIRE STATION,-82.09459128,28.89657704,,,,
1753,,WEBSTER,SUMTER,,,FIRE STATION,-82.05320168,28.60894472,,,,
1754,,WEBSTER,SUMTER,,,FIRE STATION,-82.18313197,28.58088043,,,,
1755,,Bushnell,SUMTER,,,FIRE STATION,-82.14763907,28.67395689,,,,
1756,,Bushnell,SUMTER,,,FIRE STATION,-82.19217141,28.60153017,,,,
1757,,Bushnell,SUMTER,,,FIRE STATION,-82.10782316,28.68017047,,,,
1758,,The Villages,SUMTER,,,FIRE STATION,-82.01351805,28.84668924,,,,
1759,,The Villages,SUMTER,,,FIRE STATION,-82.01482232,28.92634930,,,,
1760,,The Villages,SUMTER,,,FIRE STATION,-81.96076579,28.85990811,,,,
1761,,LAKE PANASOFFKEE,SUMTER,,,FIRE STATION,-82.12805944,28.77520862,,,,
1762,,Wildwood,SUMTER,,,FIRE STATION,-82.04957960,28.80228106,,,,
1763,,CENTER HILL,SUMTER,,,FIRE STATION,-81.99869067,28.64971263,,,,
1764,,OXFORD,SUMTER,,,FIRE STATION,-82.03458275,28.92708262,,,,
1765,,THE VILLAGES,SUMTER,,,FIRE STATION,-81.98138786,28.88117802,,,,
1766,,THE VILLAGES,SUMTER,,,FIRE STATION,-81.97071085,28.91958084,,,,
1767,,Oxford,SUMTER,,,FIRE STATION,-82.07732594,28.92542757,,,,
1768,,Webster,SUMTER,,,FIRE STATION,-82.05749509,28.60292134,,,,
1769,,LIVE OAK,SUWANNEE,,,FIRE STATION,-82.98230927,30.29720863,,,,
1770,,LIVE OAK,SUWANNEE,,,FIRE STATION,-82.85530357,30.32392282,,,,
1771,,LIVE OAK,SUWANNEE,,,FIRE STATION,-83.13040235,30.36113274,,,,
1772,,LIVE OAK,SUWANNEE,,,FIRE STATION,-83.00897798,30.39292383,,,,
1773,,LIVE OAK,SUWANNEE,,,FIRE STATION,-83.22745668,30.24318067,,,,
1774,,LIVE OAK,SUWANNEE,,,FIRE STATION,-83.17132400,30.11954245,,,,
1775,,O BRIEN,SUWANNEE,,,FIRE STATION,-82.94114229,30.03764257,,,,
1776,,WELLBORN,SUWANNEE,,,FIRE STATION,-82.82160799,30.23316082,,,,
1777,,WELLBORN,SUWANNEE,,,FIRE STATION,-82.82025374,30.23016665,,,,
1778,,LAKE CITY,SUWANNEE,,,FIRE STATION,-82.83666082,30.04444292,,,,
1779,,BRANFORD,SUWANNEE,,,FIRE STATION,-82.92803968,29.96013403,,,,
1780,,MC ALPIN,SUWANNEE,,,FIRE STATION,-82.95115127,30.13977515,,,,
1781,,PERRY,TAYLOR,,,FIRE STATION,-83.58183275,30.11569634,,,,
1782,,PERRY,TAYLOR,,,FIRE STATION,-83.61479045,29.88205576,,,,
1783,,PERRY,TAYLOR,,,FIRE STATION,-83.61647614,30.11903290,,,,
1784,,PERRY,TAYLOR,,,FIRE STATION,-83.57374410,30.07774583,,,,
1785,,PERRY,TAYLOR,,,FIRE STATION,-83.54405960,30.03579769,,,,
1786,,PERRY,TAYLOR,,,FIRE STATION,-83.90390206,30.06491700,,,,
1787,,PERRY,TAYLOR,,,FIRE STATION,-83.56607458,30.16001859,,,,
1788,,STEINHATCHEE,TAYLOR,,,FIRE STATION,-83.37700766,29.67467468,,,,
1789,,GREENVILLE,TAYLOR,,,FIRE STATION,-83.63268787,30.28863013,,,,
1790,, ,UNION,,,FIRE STATION,-82.54020500,30.00608900,,,,
1791,, ,UNION,,,FIRE STATION,-82.41585100,29.98907200,,,,
1792,,LAKE BUTLER,UNION,,,FIRE STATION,-82.33136625,30.01809990,,,,
1793,,LAKE BUTLER,UNION,,,FIRE STATION,-82.34533948,30.01964835,,,,
1794,,LAKE BUTLER,UNION,,,FIRE STATION,-82.33712400,30.02332900,,,,
1795,,LAKE BUTLER,UNION,,,FIRE STATION,-82.42338289,29.92970611,,,,
1796,,ORMOND BEACH,VOLUSIA,,,FIRE STATION,-81.06861934,29.29068132,,,,
1797,,ORMOND BEACH,VOLUSIA,,,FIRE STATION,-81.14482448,29.40433794,,,,
1798,,ORMOND BEACH,VOLUSIA,,,FIRE STATION,-81.06109891,29.33538163,,,,
1799,,ORMOND BEACH,VOLUSIA,,,FIRE STATION,-81.08234584,29.27530763,,,,
1800,,ORMOND BEACH,VOLUSIA,,,FIRE STATION,-81.11237382,29.32879302,,,,
1801,,ORMOND BEACH,VOLUSIA,,,FIRE STATION,-81.14619765,29.27420713,,,,
1802,,ORMOND BEACH,VOLUSIA,,,FIRE STATION,-81.03604812,29.28254247,,,,
1803,,DAYTONA BEACH,VOLUSIA,,,FIRE STATION,-81.06788926,29.21070676,,,,
1804,,DAYTONA BEACH,VOLUSIA,,,FIRE STATION,-81.07141153,29.24433613,,,,
1805,,DAYTONA BEACH,VOLUSIA,,,FIRE STATION,-81.04567926,29.21604899,,,,
1806,,DAYTONA BEACH,VOLUSIA,,,FIRE STATION,-80.97747310,29.16581945,,,,
1807,,DAYTONA BEACH,VOLUSIA,,,FIRE STATION,-81.05802081,29.16350456,,,,
1808,,DAYTONA BEACH,VOLUSIA,,,FIRE STATION,-81.00829571,29.18076795,,,,
1809,,DAYTONA BEACH,VOLUSIA,,,FIRE STATION,-81.15356449,29.14666669,,,,
1810,,DAYTONA BEACH,VOLUSIA,,,FIRE STATION,-81.03830863,29.24350375,,,,
1811,,DAYTONA BEACH,VOLUSIA,,,FIRE STATION,-81.01696743,29.20824606,,,,
1812,,DAYTONA BEACH,VOLUSIA,,,FIRE STATION,-81.11249168,29.21511076,,,,
1813,,DAYTONA BEACH,VOLUSIA,,,FIRE STATION,-81.02132905,29.23974287,,,,
1814,,DAYTONA BEACH,VOLUSIA,,,FIRE STATION,-80.99852922,29.20280879,,,,
1815,,DAYTONA BEACH,VOLUSIA,,,FIRE STATION,-81.05706618,29.17853471,,,,
1816,,PORT ORANGE,VOLUSIA,,,FIRE STATION,-81.02356714,29.12541007,,,,
1817,,PORT ORANGE,VOLUSIA,,,FIRE STATION,-80.94096359,29.09868767,,,,
1818,,PORT ORANGE,VOLUSIA,,,FIRE STATION,-81.03818338,29.06812610,,,,
1819,,PORT ORANGE,VOLUSIA,,,FIRE STATION,-81.06640938,29.08295390,,,,
1820,,PORT ORANGE,VOLUSIA,,,FIRE STATION,-80.98634584,29.14069373,,,,
1821,,PORT ORANGE,VOLUSIA,,,FIRE STATION,-81.05271768,29.11159872,,,,
1822,,PORT ORANGE,VOLUSIA,,,FIRE STATION,-80.99237870,29.09282880,,,,
1823,,MIMS,VOLUSIA,,,FIRE STATION,-81.03269157,28.73061053,,,,
1824,,DEBARY,VOLUSIA,,,FIRE STATION,-81.30898674,28.88338737,,,,
1825,,DELAND,VOLUSIA,,,FIRE STATION,-81.32801581,29.07223493,,,,
1826,,DELAND,VOLUSIA,,,FIRE STATION,-81.26251338,29.06131611,,,,
1827,,DELAND,VOLUSIA,,,FIRE STATION,-81.35903775,29.02290055,,,,
1828,,DELAND,VOLUSIA,,,FIRE STATION,-81.30568556,29.02672181,,,,
1829,,DELAND,VOLUSIA,,,FIRE STATION,-81.30105277,28.97744383,,,,
1830,,DELAND,VOLUSIA,,,FIRE STATION,-81.26306746,29.00052228,,,,
1831,,DELAND,VOLUSIA,,,FIRE STATION,-81.30767837,29.05504194,,,,
1832,,NEW SMYRNA BEACH,VOLUSIA,,,FIRE STATION,-80.93983460,29.04788823,,,,
1833,,NEW SMYRNA BEACH,VOLUSIA,,,FIRE STATION,-80.89970409,29.02916106,,,,
1834,,NEW SMYRNA BEACH,VOLUSIA,,,FIRE STATION,-80.86093769,28.97950334,,,,
1835,,NEW SMYRNA BEACH,VOLUSIA,,,FIRE STATION,-80.94581866,29.01857183,,,,
1836,,NEW SMYRNA BEACH,VOLUSIA,,,FIRE STATION,-80.99515293,29.01573455,,,,
1837,,NEW SMYRNA BEACH,VOLUSIA,,,FIRE STATION,-80.93752830,29.01596960,,,,
1838,,PIERSON,VOLUSIA,,,FIRE STATION,-81.46681068,29.24265113,,,,
1839,,EDGEWATER,VOLUSIA,,,FIRE STATION,-80.89580477,28.95389765,,,,
1840,,EDGEWATER,VOLUSIA,,,FIRE STATION,-80.89737766,28.97601422,,,,
1841,,DE LEON SPRINGS,VOLUSIA,,,FIRE STATION,-81.34950769,29.11831047,,,,
1842,,DELTONA,VOLUSIA,,,FIRE STATION,-81.23265475,28.94723960,,,,
1843,,DELTONA,VOLUSIA,,,FIRE STATION,-81.18941383,28.92385673,,,,
1844,,DELTONA,VOLUSIA,,,FIRE STATION,-81.17479483,28.87983993,,,,
1845,,DELTONA,VOLUSIA,,,FIRE STATION,-81.22585290,28.90629005,,,,
1846,,DELTONA,VOLUSIA,,,FIRE STATION,-81.27151935,28.90017191,,,,
1847,,DELTONA,VOLUSIA,,,FIRE STATION,-81.22477494,28.85717568,,,,
1848,,OAK HILL,VOLUSIA,,,FIRE STATION,-80.85090995,28.87032573,,,,
1849,,ORANGE CITY,VOLUSIA,,,FIRE STATION,-81.29817062,28.95021477,,,,
1850,,ORANGE CITY,VOLUSIA,,,FIRE STATION,-81.29235399,28.91867584,,,,
1851,,LAKE HELEN,VOLUSIA,,,FIRE STATION,-81.24288499,28.98502486,,,,
1852,,OSTEEN,VOLUSIA,,,FIRE STATION,-81.16304433,28.84653202,,,,
1853,,CRAWFORDVILLE,WAKULLA,,,FIRE STATION,-84.37892468,30.19568123,,,,
1854,,CRAWFORDVILLE,WAKULLA,,,FIRE STATION,-84.23589709,30.22984814,,,,
1855,,CRAWFORDVILLE,WAKULLA,,,FIRE STATION,-84.38789790,30.09069128,,,,
1856,,CRAWFORDVILLE,WAKULLA,,,FIRE STATION,-84.29432905,30.06363149,,,,
1857,,CRAWFORDVILLE,WAKULLA,,,FIRE STATION,-84.35347900,30.28284696,,,,
1858,,CRAWFORDVILLE,WAKULLA,,,FIRE STATION,-84.37913708,30.18512066,,,,
1859,,CRAWFORDVILLE,WAKULLA,,,FIRE STATION,-84.21258045,30.19291321,,,,
1860,,SOPCHOPPY,WAKULLA,,,FIRE STATION,-84.65673486,30.18789116,,,,
1861,,SOPCHOPPY,WAKULLA,,,FIRE STATION,-84.49167627,30.06260486,,,,
1862,,SAINT MARKS,WAKULLA,,,FIRE STATION,-84.20774282,30.16116792,,,,
1863,,PANACEA,WAKULLA,,,FIRE STATION,-84.39000282,30.03182925,,,,
1864,,SANTA ROSA BEACH,WALTON,,,FIRE STATION,-86.22946126,30.38735562,,,,
1865,,SANTA ROSA BEACH,WALTON,,,FIRE STATION,-86.12694981,30.32915934,,,,
1866,,DEFUNIAK SPRINGS,WALTON,,,FIRE STATION,-86.11603084,30.72581214,,,,
1867,,DEFUNIAK SPRINGS,WALTON,,,FIRE STATION,-86.20021267,30.79457909,,,,
1868,,DEFUNIAK SPRINGS,WALTON,,,FIRE STATION,-86.13480307,30.97055828,,,,
1869,,DEFUNIAK SPRINGS,WALTON,,,FIRE STATION,-86.03971135,30.71880171,,,,
1870,,DEFUNIAK SPRINGS,WALTON,,,FIRE STATION,-86.09360082,30.72438009,,,,
1871,,DEFUNIAK SPRINGS,WALTON,,,FIRE STATION,-86.17426355,30.69118523,,,,
1872,,DEFUNIAK SPRINGS,WALTON,,,FIRE STATION,-86.05606217,30.65039833,,,,
1873,,DEFUNIAK SPRINGS,WALTON,,,FIRE STATION,-86.09305034,30.72462329,,,,
1874,,DEFUNIAK SPRINGS,WALTON,,,FIRE STATION,-86.24971777,30.86075949,,,,
1875,,DEFUNIAK SPRINGS,WALTON,,,FIRE STATION,-86.11246612,30.75917013,,,,
1876,,DEFUNIAK SPRINGS,WALTON,,,FIRE STATION,-86.30612097,30.75990901,,,,
1877,,DEFUNIAK SPRINGS,WALTON,,,FIRE STATION,-86.21471104,30.57357688,,,,
1878,,FREEPORT,WALTON,,,FIRE STATION,-86.13421787,30.49553248,,,,
1879,,WESTVILLE,WALTON,,,FIRE STATION,-86.05713328,30.94374936,,,,
1880,,VERO BEACH,WALTON,,,FIRE STATION,-80.51411883,27.63742505,,,,
1881,,LAUREL HILL,WALTON,,,FIRE STATION,-86.30297376,30.96925222,,,,
1882,,SEBASTIAN,WALTON,,,FIRE STATION,-80.51978533,27.76988524,,,,
1883,,PONCE DE LEON,WALTON,,,FIRE STATION,-86.05642684,30.83597501,,,,
1884,,PONCE DE LEON,WALTON,,,FIRE STATION,-85.94346627,30.58905636,,,,
1885,,MIRAMAR BEACH,WALTON,,,FIRE STATION,-86.30512507,30.38323610,,,,
1886,,CARYVILLE,WASHINGTON,,,FIRE STATION,-85.75111979,30.71347160,,,,
1887,,CARYVILLE,WASHINGTON,,,FIRE STATION,-85.81247505,30.77200489,,,,
1888,,CARYVILLE,WASHINGTON,,,FIRE STATION,-85.82840707,30.66635433,,,,
1889,,CHIPLEY,WASHINGTON,,,FIRE STATION,-85.45564851,30.60655583,,,,
1890,,CHIPLEY,WASHINGTON,,,FIRE STATION,-85.58891982,30.62987596,,,,
1891,,CHIPLEY,WASHINGTON,,,FIRE STATION,-85.55294015,30.77803930,,,,
1892,,CHIPLEY,WASHINGTON,,,FIRE STATION,-85.66239436,30.49479267,,,,
1893,,CHIPLEY,WASHINGTON,,,FIRE STATION,-85.49945682,30.70399470,,,,
1894,,CHIPLEY,WASHINGTON,,,FIRE STATION,-85.59329462,30.53995630,,,,
1895,,VERNON,WASHINGTON,,,FIRE STATION,-85.70053195,30.63183511,,,,
1896,,EBRO,WASHINGTON,,,FIRE STATION,-85.87318221,30.43955211,,,,
1897,,DAYTONA BEACH,VOLUSIA,,,FOOD BANK,,,-81.02959115,29.22176798,,
1898,,LAKE CITY,COLUMBIA,,,FOOD BANK,,,-82.64510909,30.19646460,,
1899,,ORLANDO,ORANGE,,,FOOD BANK,,,-81.42957432,28.54827015,,
1900,,PEMBROKE PARK,BROWARD,,,FOOD BANK,,,-80.17325752,25.98729507,,
1901,,NAPLES,COLLIER,,,FOOD BANK,,,-81.77396223,26.22317237,,
1902,,SARASOTA,SARASOTA,,,FOOD BANK,,,-82.40200940,27.34731112,,
1903,,TALLAHASSEE,LEON,,,FOOD BANK,,,-84.28386705,30.40108414,,
1904,,TALLAHASSEE,LEON,,,FOOD BANK,,,-84.28344254,30.44090805,,
1905,,FORT MYERS,LEE,,,FOOD BANK,,,-81.86243500,26.60733000,,
1906,,FORT MYERS,LEE,,,FOOD BANK,,,-81.88521757,26.62300636,,
1907,,FORT PIERCE,ST. LUCIE,,,FOOD BANK,,,-80.33595508,27.44682823,,
1908,,FORT PIERCE,ST. LUCIE,,,FOOD BANK,,,-80.36075255,27.45098942,,
1909,,BRADENTON,MANATEE,,,FOOD BANK,,,-82.55605379,27.47971874,,
1910,,LAND O' LAKES,PASCO,,,FOOD BANK,,,-82.45880085,28.24302449,,
1911,,SEBRING,HIGHLANDS,,,FOOD BANK,,,-81.48060751,27.48380644,,
1912,,WEST PALM BEACH,PALM BEACH,,,FOOD BANK,,,-80.05540669,26.69433199,,
1913,,TAMPA,HILLSBOROUGH,,,FOOD BANK,,,-82.40709276,27.95906076,,
1914,,WEST MELBOURNE,BREVARD,,,FOOD BANK,,,-80.66875600,28.09443800,,
1915,,GAINESVILLE,ALACHUA,,,FOOD BANK,,,-82.32852711,29.66075828,,
1916,,LAKELAND,POLK,,,FOOD BANK,,,-82.03476200,28.03560800,,
1917,,HOMOSASSA,CITRUS,,,FOOD BANK,,,-82.52076679,28.76520101,,
1918,,OCALA,MARION,,,FOOD BANK,,,-82.08646312,29.22836654,,
1919,,MILTON,SANTA ROSA,,,FOOD BANK,,,-86.98477179,30.64103404,,
1920,,JACKSONVILLE,DUVAL,,,FOOD BANK,,,-81.73280465,30.34106014,,
1921,,Gainesville,ALACHUA,,,NATIONAL GUARD,,,,,-82.33084371,29.70231953
1922,,PANAMA CITY,BAY,,,NATIONAL GUARD,,,,,-85.58495590,30.06762532
1923,,PANAMA CITY,BAY,,,NATIONAL GUARD,,,,,-85.58725071,30.06655062
1924,,PANAMA CITY,BAY,,,NATIONAL GUARD,,,,,-85.58458984,30.06728785
1925,,PANAMA CITY,BAY,,,NATIONAL GUARD,,,,,-85.68389160,30.20463178
1926,,PANAMA CITY,BAY,,,NATIONAL GUARD,,,,,-85.68389160,30.20463178
1927,,STARKE,BRADFORD,,,NATIONAL GUARD,,,,,-82.11662496,29.93805538
1928,,COCOA,BREVARD,,,NATIONAL GUARD,,,,,-80.74222813,28.36097557
1929,,COCOA,BREVARD,,,NATIONAL GUARD,,,,,-80.74222813,28.36097557
1930,,MELBOURNE,BREVARD,,,NATIONAL GUARD,,,,,-80.64632167,28.13800128
1931,,MELBOURNE,BREVARD,,,NATIONAL GUARD,,,,,-80.64632167,28.13800128
1932,,PATRICK AFB,BREVARD,,,NATIONAL GUARD,,,,,-80.61007301,28.25046369
1933,,PATRICK AFB,BREVARD,,,NATIONAL GUARD,,,,,-80.61007301,28.25046369
1934,,PATRICK AFB,BREVARD,,,NATIONAL GUARD,,,,,-80.61007301,28.25046369
1935,,Titusville,BREVARD,,,NATIONAL GUARD,,,,,-80.81593783,28.52832269
1936,,HOLLYWOOD,BROWARD,,,NATIONAL GUARD,,,,,-80.14989995,26.01914041
1937,,HOLLYWOOD,BROWARD,,,NATIONAL GUARD,,,,,-80.14989995,26.01914041
1938,,CRYSTAL RIVER,CITRUS,,,NATIONAL GUARD,,,,,-82.57739722,28.86527185
1939,,STARKE,CLAY,,,NATIONAL GUARD,,,,,-81.97379963,29.96128998
1940,,STARKE,CLAY,,,NATIONAL GUARD,,,,,-81.97379963,29.96128998
1941,,STARKE,CLAY,,,NATIONAL GUARD,,,,,-81.97379963,29.96128998
1942,,STARKE,CLAY,,,NATIONAL GUARD,,,,,-81.97379963,29.96128998
1943,,STARKE,CLAY,,,NATIONAL GUARD,,,,,-81.97379963,29.96128998
1944,,STARKE,CLAY,,,NATIONAL GUARD,,,,,-81.97379963,29.96128998
1945,,STARKE,CLAY,,,NATIONAL GUARD,,,,,-81.97379963,29.96128998
1946,,STARKE,CLAY,,,NATIONAL GUARD,,,,,-81.97379963,29.96128998
1947,,STARKE,CLAY,,,NATIONAL GUARD,,,,,-81.97379963,29.96128998
1948,,STARKE,CLAY,,,NATIONAL GUARD,,,,,-81.97379963,29.96128998
1949,,STARKE,CLAY,,,NATIONAL GUARD,,,,,-81.97379963,29.96128998
1950,,STARKE,CLAY,,,NATIONAL GUARD,,,,,-81.97379963,29.96128998
1951,,STARKE,CLAY,,,NATIONAL GUARD,,,,,-81.97379963,29.96128998
1952,,STARKE,CLAY,,,NATIONAL GUARD,,,,,-81.97379963,29.96128998
1953,,STARKE,CLAY,,,NATIONAL GUARD,,,,,-81.97379963,29.96128998
1954,,STARKE,CLAY,,,NATIONAL GUARD,,,,,-81.98723586,29.97724098
1955,,STARKE,CLAY,,,NATIONAL GUARD,,,,,-81.97379963,29.96128998
1956,,STARKE,CLAY,,,NATIONAL GUARD,,,,,-81.97379963,29.96128998
1957,,STARKE,CLAY,,,NATIONAL GUARD,,,,,-81.97379963,29.96128998
1958,,STARKE,CLAY,,,NATIONAL GUARD,,,,,-81.96842342,29.97164357
1959,,Immokalee,COLLIER,,,NATIONAL GUARD,,,,,-81.39681091,26.41649221
1960,,LAKE CITY,COLUMBIA,,,NATIONAL GUARD,,,,,-82.64872762,30.19388489
1961,,LAKE CITY,COLUMBIA,,,NATIONAL GUARD,,,,,-82.64872762,30.19388489
1962,,LAKE CITY,COLUMBIA,,,NATIONAL GUARD,,,,,-82.64872762,30.19388489
1963,,ARCADIA,DESOTO,,,NATIONAL GUARD,,,,,-81.86479880,27.23034503
1964,,ARCADIA,DESOTO,,,NATIONAL GUARD,,,,,-81.86479880,27.23034503
1965,,JACKSONVILLE,DUVAL,,,NATIONAL GUARD,,,,,-81.82130846,30.27791806
1966,,JACKSONVILLE,DUVAL,,,NATIONAL GUARD,,,,,-81.82130846,30.27791806
1967,,JACKSONVILLE,DUVAL,,,NATIONAL GUARD,,,,,-81.82130846,30.27791806
1968,,JACKSONVILLE,DUVAL,,,NATIONAL GUARD,,,,,-81.52261805,30.33241871
1969,,JACKSONVILLE,DUVAL,,,NATIONAL GUARD,,,,,-81.70253796,30.48699007
1970,,JACKSONVILLE,DUVAL,,,NATIONAL GUARD,,,,,-81.70253796,30.48699007
1971,,JACKSONVILLE,DUVAL,,,NATIONAL GUARD,,,,,-81.52261805,30.33241871
1972,,JACKSONVILLE,DUVAL,,,NATIONAL GUARD,,,,,-81.52261805,30.33241871
1973,,JACKSONVILLE,DUVAL,,,NATIONAL GUARD,,,,,-81.52261805,30.33241871
1974,,JACKSONVILLE,DUVAL,,,NATIONAL GUARD,,,,,-81.70253796,30.48699007
1975,,JACKSONVILLE,DUVAL,,,NATIONAL GUARD,,,,,-81.52261805,30.33241871
1976,,JACKSONVILLE,DUVAL,,,NATIONAL GUARD,,,,,-81.52261805,30.33241871
1977,,JACKSONVILLE,DUVAL,,,NATIONAL GUARD,,,,,-81.52261805,30.33241871
1978,,JACKSONVILLE,DUVAL,,,NATIONAL GUARD,,,,,-81.52261805,30.33241871
1979,,JACKSONVILLE,DUVAL,,,NATIONAL GUARD,,,,,-81.52261805,30.33241871
1980,,JACKSONVILLE,DUVAL,,,NATIONAL GUARD,,,,,-81.52261805,30.33241871
1981,,JACKSONVILLE,DUVAL,,,NATIONAL GUARD,,,,,-81.52261805,30.33241871
1982,,JACKSONVILLE,DUVAL,,,NATIONAL GUARD,,,,,-81.52261805,30.33241871
1983,,JACKSONVILLE,DUVAL,,,NATIONAL GUARD,,,,,-81.82130846,30.27791806
1984,,JACKSONVILLE,DUVAL,,,NATIONAL GUARD,,,,,-81.82130846,30.27791806
1985,,Jacksonville,DUVAL,,,NATIONAL GUARD,,,,,-81.88481400,30.22252400
1986,,Jacksonville,DUVAL,,,NATIONAL GUARD,,,,,-81.88481400,30.22252400
1987,,PENSACOLA,ESCAMBIA,,,NATIONAL GUARD,,,,,-87.19376548,30.52551525
1988,,PENSACOLA,ESCAMBIA,,,NATIONAL GUARD,,,,,-87.18902451,30.52121213
1989,,PENSACOLA,ESCAMBIA,,,NATIONAL GUARD,,,,,-87.18902451,30.52121213
1990,,PALM COAST,FLAGLER,,,NATIONAL GUARD,,,,,-81.21098196,29.45263408
1991,,APALACHICOLA,FRANKLIN,,,NATIONAL GUARD,,,,,-84.98479854,29.72637743
1992,,Quincy,GADSDEN,,,NATIONAL GUARD,,,,,-84.59155727,30.55538370
1993,,Quincy,GADSDEN,,,NATIONAL GUARD,,,,,-84.59155727,30.55538370
1994,,WAUCHULA,HARDEE,,,NATIONAL GUARD,,,,,-81.83848973,27.53485221
1995,,WAUCHULA,HARDEE,,,NATIONAL GUARD,,,,,-81.83848973,27.53485221
1996,,WAUCHULA,HARDEE,,,NATIONAL GUARD,,,,,-81.83848973,27.53485221
1997,,Brooksville,HERNANDO,,,NATIONAL GUARD,,,,,-82.45905966,28.47837524
1998,,Brooksville,HERNANDO,,,NATIONAL GUARD,,,,,-82.45453605,28.47887476
1999,,BROOKSVILLE,HERNANDO,,,NATIONAL GUARD,,,,,-82.45442701,28.48035189
2000,,BROOKSVILLE,HERNANDO,,,NATIONAL GUARD,,,,,-82.45442701,28.48035189
2001,,BROOKSVILLE,HERNANDO,,,NATIONAL GUARD,,,,,-82.45442701,28.48035189
2002,,BROOKSVILLE,HERNANDO,,,NATIONAL GUARD,,,,,-82.45442701,28.48035189
2003,,BROOKSVILLE,HERNANDO,,,NATIONAL GUARD,,,,,-82.45442701,28.48035189
2004,,BROOKSVILLE,HERNANDO,,,NATIONAL GUARD,,,,,-82.45442701,28.48035189
2005,,BROOKSVILLE,HERNANDO,,,NATIONAL GUARD,,,,,-82.45442701,28.48035189
2006,,BROOKSVILLE,HERNANDO,,,NATIONAL GUARD,,,,,-82.45442701,28.48035189
2007,,Avon Park,HIGHLANDS,,,NATIONAL GUARD,,,,,-81.50828802,27.55137466
2008,,TAMPA,HILLSBOROUGH,,,NATIONAL GUARD,,,,,-82.48374407,27.94891053
2009,,TAMPA,HILLSBOROUGH,,,NATIONAL GUARD,,,,,-82.48705234,27.83652210
2010,,TAMPA,HILLSBOROUGH,,,NATIONAL GUARD,,,,,-82.48705234,27.83652210
2011,,TAMPA,HILLSBOROUGH,,,NATIONAL GUARD,,,,,-82.48374407,27.94891053
2012,,TAMPA,HILLSBOROUGH,,,NATIONAL GUARD,,,,,-82.48374407,27.94891053
2013,,TAMPA,HILLSBOROUGH,,,NATIONAL GUARD,,,,,-82.48374407,27.94891053
2014,,TAMPA,HILLSBOROUGH,,,NATIONAL GUARD,,,,,-82.48374407,27.94891053
2015,,TAMPA,HILLSBOROUGH,,,NATIONAL GUARD,,,,,-82.48374407,27.94891053
2016,,TAMPA,HILLSBOROUGH,,,NATIONAL GUARD,,,,,-82.48374407,27.94891053
2017,,PLANT CITY,HILLSBOROUGH,,,NATIONAL GUARD,,,,,-82.16098479,28.00399338
2018,,PLANT CITY,HILLSBOROUGH,,,NATIONAL GUARD,,,,,-82.16098479,28.00399338
2019,,PLANT CITY,HILLSBOROUGH,,,NATIONAL GUARD,,,,,-82.16098479,28.00399338
2020,,PLANT CITY,HILLSBOROUGH,,,NATIONAL GUARD,,,,,-82.16098479,28.00399338
2021,,BONIFAY,HOLMES,,,NATIONAL GUARD,,,,,-85.68273441,30.80208036
2022,,BONIFAY,HOLMES,,,NATIONAL GUARD,,,,,-85.68273441,30.80208036
2023,,BONIFAY,HOLMES,,,NATIONAL GUARD,,,,,-85.68273441,30.80208036
2024,,BONIFAY,HOLMES,,,NATIONAL GUARD,,,,,-85.68273441,30.80208036
2025,,MARIANNA,JACKSON,,,NATIONAL GUARD,,,,,-85.29291719,30.78353544
2026,,EUSTIS,LAKE,,,NATIONAL GUARD,,,,,-81.68513680,28.84681278
2027,,TAVARES,LAKE,,,NATIONAL GUARD,,,,,-81.75041715,28.78918325
2028,,LEESBURG,LAKE,,,NATIONAL GUARD,,,,,-81.87687624,28.81315437
2029,,LEESBURG,LAKE,,,NATIONAL GUARD,,,,,-81.87687624,28.81315437
2030,,FORT MYERS,LEE,,,NATIONAL GUARD,,,,,-81.84416442,26.65597244
2031,,TALLAHASSEE,LEON,,,NATIONAL GUARD,,,,,-84.22590211,30.45245536
2032,,TALLAHASSEE,LEON,,,NATIONAL GUARD,,,,,-84.22590211,30.45245536
2033,,TALLAHASSEE,LEON,,,NATIONAL GUARD,,,,,-84.22590211,30.45245536
2034,,TALLAHASSEE,LEON,,,NATIONAL GUARD,,,,,-84.22590211,30.45245536
2035,,TALLAHASSEE,LEON,,,NATIONAL GUARD,,,,,-84.28155059,30.43892442
2036,,TALLAHASSEE,LEON,,,NATIONAL GUARD,,,,,-84.22590211,30.45245536
2037,,TALLAHASSEE,LEON,,,NATIONAL GUARD,,,,,-84.22590211,30.45245536
2038,,TALLAHASSEE,LEON,,,NATIONAL GUARD,,,,,-84.22590211,30.45245536
2039,,PALMETTO,MANATEE,,,NATIONAL GUARD,,,,,-82.58173682,27.52259632
2040,,BRADENTON,MANATEE,,,NATIONAL GUARD,,,,,-82.53756911,27.48835206
2041,,BRADENTON,MANATEE,,,NATIONAL GUARD,,,,,-82.53756911,27.48835206
2042,,OCALA,MARION,,,NATIONAL GUARD,,,,,-82.14689235,29.16750580
2043,,OCALA,MARION,,,NATIONAL GUARD,,,,,-82.14689235,29.16750580
2044,,OCALA,MARION,,,NATIONAL GUARD,,,,,-82.14689235,29.16750580
2045,,MIAMI,MIAMI-DADE,,,NATIONAL GUARD,,,,,-80.20880780,25.80219293
2046,,MIAMI,MIAMI-DADE,,,NATIONAL GUARD,,,,,-80.20880780,25.80219293
2047,,MIAMI,MIAMI-DADE,,,NATIONAL GUARD,,,,,-80.20880780,25.80219293
2048,,MIAMI,MIAMI-DADE,,,NATIONAL GUARD,,,,,-80.20880780,25.80219293
2049,,MIAMI,MIAMI-DADE,,,NATIONAL GUARD,,,,,-80.20880780,25.80219293
2050,,MIAMI,MIAMI-DADE,,,NATIONAL GUARD,,,,,-80.39720873,25.49403626
2051,,MIAMI,MIAMI-DADE,,,NATIONAL GUARD,,,,,-80.39720873,25.49403626
2052,,MIAMI,MIAMI-DADE,,,NATIONAL GUARD,,,,,-80.39720873,25.49403626
2053,,MIAMI,MIAMI-DADE,,,NATIONAL GUARD,,,,,-80.39720873,25.49403626
2054,,MIAMI,MIAMI-DADE,,,NATIONAL GUARD,,,,,-80.20880780,25.80219293
2055,,MIAMI,MIAMI-DADE,,,NATIONAL GUARD,,,,,-80.20880780,25.80219293
2056,,MIAMI,MIAMI-DADE,,,NATIONAL GUARD,,,,,-80.20880780,25.80219293
2057,,MIAMI,MIAMI-DADE,,,NATIONAL GUARD,,,,,-80.20880780,25.80219293
2058,,MIAMI,MIAMI-DADE,,,NATIONAL GUARD,,,,,-80.20880780,25.80219293
2059,,HOMESTEAD,MIAMI-DADE,,,NATIONAL GUARD,,,,,-80.39093485,25.49786171
2060,,HOMESTEAD,MIAMI-DADE,,,NATIONAL GUARD,,,,,-80.39093485,25.49786171
2061,,HOMESTEAD,MIAMI-DADE,,,NATIONAL GUARD,,,,,-80.39093485,25.49786171
2062,,SUMMERLAND KEY,MONROE,,,NATIONAL GUARD,,,,,-81.50298417,24.69580048
2063,,CRESTVIEW,OKALOOSA,,,NATIONAL GUARD,,,,,-86.54958546,30.76060011
2064,,ORLANDO,ORANGE,,,NATIONAL GUARD,,,,,-81.35943330,28.51075834
2065,,ORLANDO,ORANGE,,,NATIONAL GUARD,,,,,-81.35943330,28.51075834
2066,,ORLANDO,ORANGE,,,NATIONAL GUARD,,,,,-81.33737635,28.44590561
2067,,ORLANDO,ORANGE,,,NATIONAL GUARD,,,,,-81.35943330,28.51075834
2068,,ORLANDO,ORANGE,,,NATIONAL GUARD,,,,,-81.33737635,28.44590561
2069,,ORLANDO,ORANGE,,,NATIONAL GUARD,,,,,-81.33737635,28.44590561
2070,,ORLANDO,ORANGE,,,NATIONAL GUARD,,,,,-81.33737635,28.44590561
2071,,ORLANDO,ORANGE,,,NATIONAL GUARD,,,,,-81.33737635,28.44590561
2072,,ORLANDO,ORANGE,,,NATIONAL GUARD,,,,,-81.33737635,28.44590561
2073,,ORLANDO,ORANGE,,,NATIONAL GUARD,,,,,-81.33737635,28.44590561
2074,,ORLANDO,ORANGE,,,NATIONAL GUARD,,,,,-81.33737635,28.44590561
2075,,ORLANDO,ORANGE,,,NATIONAL GUARD,,,,,-81.35943330,28.51075834
2076,,ORLANDO,ORANGE,,,NATIONAL GUARD,,,,,-81.35943330,28.51075834
2077,,ORLANDO,ORANGE,,,NATIONAL GUARD,,,,,-81.35943330,28.51075834
2078,,WEST PALM BEACH,PALM BEACH,,,NATIONAL GUARD,,,,,-80.09063989,26.67377919
2079,,WEST PALM BEACH,PALM BEACH,,,NATIONAL GUARD,,,,,-80.09063989,26.67377919
2080,,WEST PALM BEACH,PALM BEACH,,,NATIONAL GUARD,,,,,-80.09063989,26.67377919
2081,,WEST PALM BEACH,PALM BEACH,,,NATIONAL GUARD,,,,,-80.09063989,26.67377919
2082,,WEST PALM BEACH,PALM BEACH,,,NATIONAL GUARD,,,,,-80.07213396,26.68798200
2083,,WEST PALM BEACH,PALM BEACH,,,NATIONAL GUARD,,,,,-80.09063989,26.67377919
2084,,DADE CITY,PASCO,,,NATIONAL GUARD,,,,,-82.18717469,28.36572461
2085,,DADE CITY,PASCO,,,NATIONAL GUARD,,,,,-82.18717469,28.36572461
2086,,DADE CITY,PASCO,,,NATIONAL GUARD,,,,,-82.18717469,28.36572461
2087,,SAINT PETERSBURG,PINELLAS,,,NATIONAL GUARD,,,,,-82.68197726,27.73448569
2088,,SAINT PETERSBURG,PINELLAS,,,NATIONAL GUARD,,,,,-82.68197726,27.73448569
2089,,PINELLAS PARK,PINELLAS,,,NATIONAL GUARD,,,,,-82.67481975,27.85455304
2090,,PINELLAS PARK,PINELLAS,,,NATIONAL GUARD,,,,,-82.67481975,27.85455304
2091,,PINELLAS PARK,PINELLAS,,,NATIONAL GUARD,,,,,-82.67481975,27.85455304
2092,,PINELLAS PARK,PINELLAS,,,NATIONAL GUARD,,,,,-82.67481975,27.85455304
2093,,PINELLAS PARK,PINELLAS,,,NATIONAL GUARD,,,,,-82.67481975,27.85455304
2094,,PINELLAS PARK,PINELLAS,,,NATIONAL GUARD,,,,,-82.67481975,27.85455304
2095,,CLEARWATER,PINELLAS,,,NATIONAL GUARD,,,,,-82.78890280,27.97307062
2096,,CLEARWATER,PINELLAS,,,NATIONAL GUARD,,,,,-82.78890280,27.97307062
2097,,Haines City,POLK,,,NATIONAL GUARD,,,,,-81.64418365,28.11723314
2098,,WINTER HAVEN,POLK,,,NATIONAL GUARD,,,,,-81.71890271,28.01903957
2099,,HAINES CITY,POLK,,,NATIONAL GUARD,,,,,-81.64308108,28.11704155
2100,,LAKELAND,POLK,,,NATIONAL GUARD,,,,,-82.01671714,27.99423599
2101,,LAKELAND,POLK,,,NATIONAL GUARD,,,,,-82.02976566,27.99609861
2102,,LAKELAND,POLK,,,NATIONAL GUARD,,,,,-82.02976566,27.99609861
2103,,BARTOW,POLK,,,NATIONAL GUARD,,,,,-81.78101928,27.95358330
2104,,LAKE WALES,POLK,,,NATIONAL GUARD,,,,,-81.61910811,27.89686490
2105,,LAKE WALES,POLK,,,NATIONAL GUARD,,,,,-81.61910811,27.89686490
2106,,PALATKA,PUTNAM,,,NATIONAL GUARD,,,,,-81.64916219,29.63773994
2107,,PALATKA,PUTNAM,,,NATIONAL GUARD,,,,,-81.64916219,29.63773994
2108,,SAINT AUGUSTINE,ST. JOHNS,,,NATIONAL GUARD,,,,,-81.30976809,29.88778870
2109,,SAINT AUGUSTINE,ST. JOHNS,,,NATIONAL GUARD,,,,,-81.37451490,29.83249788
2110,,SAINT AUGUSTINE,ST. JOHNS,,,NATIONAL GUARD,,,,,-81.32122452,29.91062910
2111,,SAINT AUGUSTINE,ST. JOHNS,,,NATIONAL GUARD,,,,,-81.32122452,29.91062910
2112,,SAINT AUGUSTINE,ST. JOHNS,,,NATIONAL GUARD,,,,,-81.31054511,29.88773729
2113,,SAINT AUGUSTINE,ST. JOHNS,,,NATIONAL GUARD,,,,,-81.37451490,29.83249788
2114,,SAINT AUGUSTINE,ST. JOHNS,,,NATIONAL GUARD,,,,,-81.30646880,29.87961219
2115,,SAINT AUGUSTINE,ST. JOHNS,,,NATIONAL GUARD,,,,,-81.35003859,29.96966497
2116,,SAINT AUGUSTINE,ST. JOHNS,,,NATIONAL GUARD,,,,,-81.37451490,29.83249788
2117,,SAINT AUGUSTINE,ST. JOHNS,,,NATIONAL GUARD,,,,,-81.31054511,29.88773729
2118,,SAINT AUGUSTINE,ST. JOHNS,,,NATIONAL GUARD,,,,,-81.37451490,29.83249788
2119,,SAINT AUGUSTINE,ST. JOHNS,,,NATIONAL GUARD,,,,,-81.32122452,29.91062910
2120,,SAINT AUGUSTINE,ST. JOHNS,,,NATIONAL GUARD,,,,,-81.31026149,29.88656108
2121,,SAINT AUGUSTINE,ST. JOHNS,,,NATIONAL GUARD,,,,,-81.31054511,29.88773729
2122,,SAINT AUGUSTINE,ST. JOHNS,,,NATIONAL GUARD,,,,,-81.32122452,29.91062910
2123,,SAINT AUGUSTINE,ST. JOHNS,,,NATIONAL GUARD,,,,,-81.32122452,29.91062910
2124,,SAINT AUGUSTINE,ST. JOHNS,,,NATIONAL GUARD,,,,,-81.37451490,29.83249788
2125,,SAINT AUGUSTINE,ST. JOHNS,,,NATIONAL GUARD,,,,,-81.31054511,29.88773729
2126,,St Augustine,ST. JOHNS,,,NATIONAL GUARD,,,,,-81.31367730,29.89049255
2127,,St Augustine,ST. JOHNS,,,NATIONAL GUARD,,,,,-81.32682141,29.87695106
2128,,St Augustine,ST. JOHNS,,,NATIONAL GUARD,,,,,-81.31367730,29.89049255
2129,,St Augustine,ST. JOHNS,,,NATIONAL GUARD,,,,,-81.32682141,29.87695106
2130,,St Augustine,ST. JOHNS,,,NATIONAL GUARD,,,,,-81.32682141,29.87695106
2131,,St Augustine,ST. JOHNS,,,NATIONAL GUARD,,,,,-81.31367730,29.89049255
2132,,St Augustine,ST. JOHNS,,,NATIONAL GUARD,,,,,-81.32682141,29.87695106
2133,,St Augustine,ST. JOHNS,,,NATIONAL GUARD,,,,,-81.32682141,29.87695106
2134,,FORT PIERCE,ST. LUCIE,,,NATIONAL GUARD,,,,,-80.35355951,27.44344083
2135,,SARASOTA,SARASOTA,,,NATIONAL GUARD,,,,,-82.51149869,27.33586531
2136,,SANFORD,SEMINOLE,,,NATIONAL GUARD,,,,,-81.25909276,28.81116103
2137,,SANFORD,SEMINOLE,,,NATIONAL GUARD,,,,,-81.25909276,28.81116103
2138,,LIVE OAK,SUWANNEE,,,NATIONAL GUARD,,,,,-83.00831846,30.29049521
2139,,LIVE OAK,SUWANNEE,,,NATIONAL GUARD,,,,,-83.00831846,30.29049521
2140,,DAYTONA BEACH,VOLUSIA,,,NATIONAL GUARD,,,,,-81.01296426,29.20786318
2141,,DAYTONA BEACH,VOLUSIA,,,NATIONAL GUARD,,,,,-81.01296426,29.20786318
2142,,DAYTONA BEACH,VOLUSIA,,,NATIONAL GUARD,,,,,-81.01296426,29.20786318
2143,,DELAND,VOLUSIA,,,NATIONAL GUARD,,,,,-81.30038212,29.02330344
2144,,DELAND,VOLUSIA,,,NATIONAL GUARD,,,,,-81.30038212,29.02330344
2145,,DELAND,VOLUSIA,,,NATIONAL GUARD,,,,,-81.30038212,29.02330344
2146,,DELAND,VOLUSIA,,,NATIONAL GUARD,,,,,-81.30038212,29.02330344
2147,,CHIPLEY,WASHINGTON,,,NATIONAL GUARD,,,,,-85.53628034,30.77583347
2148,,CHIPLEY,WASHINGTON,,,NATIONAL GUARD,,,,,-85.53628034,30.77583347
